REQUESTID,DATETIMEINIT,SOURCE,DESCRIPTION,REQCATEGORY,STATUS,REFERREDTO,DATETIMECLOSED,BEAT,PROBADDRESS,City,State,Ward,Postcode
775004,2017-11-20T09:06:47.000,Phone,Blocked Drains,Blocked Drains,Resolved,,2017-12-12T10:06:42.000,35Y,3239 REVERE AV,Wandsworth,London,Tooting,SW17 7AA
622184,2015-12-10T17:25:38.000,Online Form,City Bldg - Clean / Custodial,Council Building Maintenance,Resolved,,2016-02-09T11:31:57.000,04X,250 FRANK H OGAWA PLZ,Wandsworth,London,Furzedown,SW16 6AC
906532,2019-05-21T10:27:16.000,FixMyStreet,City Bldg - Pest,Council Building Maintenance,In Progress,,,14X,LAKEVIEW LIBRARY,Wandsworth,London,East Putney,SW15 1AA
724944,2017-04-11T15:19:55.000,Phone,Fly-Tipping,Fly-Tipping,Resolved,,2017-04-13T16:41:22.000,26Y,1119 77TH AV,Wandsworth,London,Queenstown,SW8 4AC
418664,2012-07-24T19:50:22.000,FixMyStreet,Pothole (report from SeeClickFix),Street and Pavement Maintenance,Cancelled by Customer,,,,604 60TH ST,Wandsworth,London,Queenstown,SW8 4AC
658559,2016-06-05T17:56:42.000,FixMyStreet,Fly-Tipping,Fly-Tipping,Resolved,,2016-06-08T16:00:30.000,17Y,710 E 22ND ST,Wandsworth,London,Tooting,SW17 7AB
791737,2018-02-02T20:15:46.000,Online Form,Council Enforcement,OTHER,Referred to External Agency,Council Enforcement,,31Y,9901 EDES AV,Wandsworth,London,West Putney,SW15 2AF
848180,2018-10-19T20:58:15.000,FixMyStreet,Graffiti - Other/Complex Issue,OTHER,Resolved,,2018-10-24T19:17:54.000,29X,BANCROFT AV & AVENAL AV,Wandsworth,London,Tooting,SW17 8AC
495273,2013-12-18T07:30:42.000,Online Form,City Bldg - Other,Council Building Maintenance,Resolved,,2014-02-11T08:11:41.000,13Z,FIRE STATION 24,Wandsworth,London,Northcote,SW11 6AC
477113,2013-08-23T16:40:30.000,Online Form,City Bldg - Plumbing,Council Building Maintenance,Resolved,,2013-08-27T15:03:52.000,14Y,FIRE STATION 10,Wandsworth,London,West Hill,SW18 1AD
435295,2012-11-26T19:57:28.000,Online Form,Street Lighting Fault,Street Lighting,Resolved,,2012-11-30T07:55:20.000,09X,176 MOSS WAY,Wandsworth,London,Tooting,SW17 8AA
688562,2016-10-15T11:03:41.000,Email,Council Enforcement,OTHER,Referred to External Agency,Council Enforcement,,13Z,6624 HEARTWOOD DR,Wandsworth,London,Tooting,SW17 7AB
591571,2015-07-10T08:02:26.000,Telephone/Email,Recycling - Missed Pickup,Recycling,Resolved,,2015-07-10T17:43:07.000,13Z,6710 WILTON DR,Wandsworth,London,Southfields,SW19 6AA
475057,2013-08-12T15:29:56.000,Telephone/Email,Recycling Hotline - Miscellaneous,Recycling,Resolved,,2013-08-12T15:30:04.000,,ZZ,Wandsworth,London,Shaftesbury,SW11 2AE
877585,2019-02-16T15:10:10.000,FixMyStreet,Fly-Tipping,Fly-Tipping,Cancelled by Customer,,,,465 BELLEVUE AVE,Wandsworth,London,West Putney,SW15 2AD
415292,2012-06-29T15:09:50.000,Telephone/Email,Street Lighting Fault,Street Lighting,Resolved,,2012-07-05T08:04:29.000,28X,4505 FAIRBAIRN AV,Wandsworth,London,Wandsworth Common,SW17 7AD
397746,2012-02-17T11:22:35.000,Telephone/Email,"City Bldg - Heating, Ventilation, and Cooling",Council Building Maintenance,Resolved,,2012-04-10T15:15:16.000,13Y,FIRE STATION 7,Wandsworth,London,Tooting,SW17 7AA
920557,2019-07-01T15:47:14.000,FixMyStreet,Fly-Tipping,Fly-Tipping,Resolved,,2019-07-08T19:00:49.000,31Y,HALE AVE & DOUGLAS AVE,Wandsworth,London,Northcote,SW11 6AB
806397,2018-04-10T11:56:15.000,Phone,Illegal Dumping � mattress/boxspring,Fly-Tipping,Resolved,,2018-04-15T12:57:19.000,19X,1244 2ND AV,Wandsworth,London,Graveney,SW17 9AB
906153,2019-05-20T10:13:23.000,Email,Blocked Drains,Blocked Drains,Resolved,,2019-05-21T09:56:45.000,03X,701 ALICE ST,Wandsworth,London,Wandsworth Common,SW12 8AH
572195,2015-03-18T14:56:21.000,Email,Graffiti in a Park,Council Building Maintenance,Resolved,,2015-03-30T15:11:34.000,13Z,MONTCLAIR PARK - RESTROOM,Wandsworth,London,Queenstown,SW8 3AB
754888,2017-08-23T10:40:16.000,Phone,Illegal Dumping � mattress/boxspring,Fly-Tipping,Resolved,,2017-08-23T21:20:53.000,12Y,CLAREMONT AV & HUDSON ST,Wandsworth,London,Tooting,SW17 7AB
803596,2018-03-27T10:29:12.000,Phone,Caltrans issue,OTHER,Referred to External Agency,Transport for London (TfL),,14X,305 MACARTHUR BLVD,Wandsworth,London,Wandsworth Common,SW17 7AD
616444,2015-11-10T14:20:17.000,FixMyStreet,Oakland Police - Abandoned Auto,OTHER,Referred to External Agency,"OPD ABANDONED AUTOS, PUBLIC",,27Y,SEMINARY AV & HARMON AV,Wandsworth,London,Southfields,SW18 5AA
577008,2015-04-15T15:00:19.000,FixMyStreet,Other (report from SeeClickFix,OTHER,Cancelled by Customer,,,,633-647 BELLEVUE AVENUE,Wandsworth,London,Bedford,SW12 9AE
738244,2017-06-12T08:30:11.000,Phone,Parking - Refund,OTHER,Referred to External Agency,"PARKING, REFUND",,08X,355 HAWTHORNE AV,Wandsworth,London,West Hill,SW15 3AA
799041,2018-03-05T09:20:59.000,Phone,Traffic - Repair Pavement Striping,Traffic Signage Issues,Resolved,,2019-03-19T09:12:29.000,30Y,BANTRY AV & HILLMONT DR,Wandsworth,London,Tooting,SW17 7AB
418478,2012-07-23T19:35:18.000,Online Form,Council Enforcement,OTHER,Referred to External Agency,Council Enforcement,,31Z,700 106TH AV,Wandsworth,London,West Putney,SW15 2AD
883527,2019-03-05T13:21:51.000,Telephone/Email,Parking - Abandoned Vehicle,Community Safety,Resolved,,2019-03-05T13:22:33.000,23X,3700 ALAMEDA AV,Wandsworth,London,Northcote,SW11 6AA
864818,2019-01-08T14:41:51.000,Telephone Voicemail,Streets - Potholes/Depression,Street and Pavement Maintenance,Resolved,,2019-01-10T14:30:06.000,31Y,522 DOUGLAS AVE,Wandsworth,London,Balham,SW12 0AA
620094,2015-12-01T12:23:36.000,Online Form,Park - Lighting,Council Building Maintenance,Resolved,,2015-12-08T09:53:25.000,23X,CARMEN FLORES RECREATION CENTER (AKA SANBORN),Wandsworth,London,Tooting,SW17 7AB
756899,2017-09-01T10:02:38.000,FixMyStreet,Fly-Tipping,Fly-Tipping,Resolved,,2017-09-02T15:02:45.000,21Y,PRENTISS PL & DAVIS ST,Wandsworth,London,Northcote,SW11 6AB
558616,2015-01-02T08:11:39.000,Phone,Parking - Refund,OTHER,Referred to External Agency,"PARKING, REFUND",,03Y,6TH ST & JEFFERSON ST,Wandsworth,London,Southfields,SW18 5AC
667881,2016-07-13T16:10:03.000,Email,Park - Landscape Maintenance,Parks Maintenance,Cancelled by Customer,,,02Y,MANDELA PARKWAY (PARK),Wandsworth,London,West Hill,SW15 3AB
921025,2019-07-02T17:57:38.000,FixMyStreet,"Graffiti - Advertising (posters, signs, etc.)",Graffiti Removal,Resolved,,2019-07-03T14:56:51.000,30Y,3045 73RD AVE,Wandsworth,London,West Putney,SW15 2AE
819272,2018-06-11T19:46:32.000,FixMyStreet,"Tree - Diseased, Dead, Dying, Leaning, or Split",Tree Maintenance,Work Order Created,,,28X,MAXWELL PARK,Wandsworth,London,East Putney,SW15 2AA
751141,2017-08-07T12:25:42.000,Online Form,Tree - Pruning,Tree Maintenance,UNFUNDED,,,29X,2630 55TH AV,Wandsworth,London,West Putney,SW15 2AF
931880,2019-08-06T09:07:12.000,Email,Recycling - Repair/Replace Cart,Recycling,Resolved,,2019-08-07T10:11:59.000,12Y,6030 CLAREMONT AVE,Wandsworth,London,Balham,SW12 9AC
466600,2013-06-21T12:52:28.000,Online Form,Street Cleaning - Complaints,Environmental Services,Resolved,,2013-06-29T09:16:06.000,18X,2200 E 20TH ST,Wandsworth,London,Graveney,SW17 0AB
377951,2011-08-04T13:51:20.000,Telephone/Email,TE - Traffic Safety (non-emergency),Traffic Management,Resolved,,2011-08-25T15:46:43.000,35X,82ND AV & MACARTHUR BLVD,Wandsworth,London,Wandsworth Town,SW18 3AE
805558,2018-04-05T16:11:40.000,FixMyStreet,Oakland Police - Abandoned Auto,OTHER,Referred to External Agency,"OPD ABANDONED AUTOS, PUBLIC",,27X,2110 47TH AV,Wandsworth,London,Shaftesbury,SW11 2AD
676264,2016-08-18T10:29:34.000,Phone,Illegal Dumping � mattress/boxspring,Fly-Tipping,Resolved,,2016-08-20T15:48:01.000,27Y,E 16TH ST & 61ST AV,Wandsworth,London,West Putney,SW15 1AD
562339,2015-01-21T09:50:43.000,FixMyStreet,Graffiti on Traffic Sign(s),Traffic Signage Issues,Resolved,,2015-03-24T14:39:16.000,15X,CLEVELAND CASCADE,Wandsworth,London,Wandsworth Common,SW17 7AE
530414,2014-07-22T10:11:58.000,Online Form,City Bldg - Electrical Inside/Outside,Council Building Maintenance,Resolved,,2014-07-25T07:02:24.000,04X,250 FRANK H OGAWA PLZ,Wandsworth,London,Northcote,SW11 6AB
443517,2013-01-23T12:28:25.000,Online Form,Street Lighting Fault,Street Lighting,Resolved,,2013-01-31T08:01:14.000,25X,4430 REINHARDT DRIVE,Wandsworth,London,Northcote,SW11 6AA
877341,2019-02-16T10:00:11.000,FixMyStreet,Streets - Potholes/Depression,Street and Pavement Maintenance,Resolved,,2019-05-08T09:03:46.000,,4899 TELEGRAPH AVE,Wandsworth,London,Shaftesbury,SW11 1AB
752676,2017-08-14T09:10:29.000,FixMyStreet,Council Enforcement,OTHER,Referred to External Agency,Council Enforcement,,08X,2314 TELEGRAPH AV,Wandsworth,London,Wandsworth Common,SW17 7AE
736664,2017-06-04T14:03:14.000,FixMyStreet,Fly-Tipping,Fly-Tipping,Resolved,,2017-06-07T16:05:48.000,26Y,81ST AV & INTERNATIONAL BLVD,Wandsworth,London,Tooting,SW17 7AA
434687,2012-11-20T09:35:06.000,Telephone/Email,Blocked Drains,Blocked Drains,Resolved,,2012-11-26T11:38:32.000,21Y,34TH AV & ORCHID ST,Wandsworth,London,Roehampton and Putney Heath,SW15 4AB
535675,2014-08-18T15:36:53.000,Phone,Litter - Green Bag Pickup,Fly-Tipping,Resolved,,2014-08-19T17:09:10.000,17X,5TH AV & E 20TH ST,Wandsworth,London,West Putney,SW15 1AD
849860,2018-10-28T16:45:50.000,FixMyStreet,Illegal Dumping � mattress/boxspring,Fly-Tipping,Resolved,,2018-10-29T20:34:34.000,20X,2621 FOOTHILL BLVD,Wandsworth,London,West Hill,SW18 1AD
552961,2014-12-01T09:13:46.000,Phone,Fly-Tipping,Fly-Tipping,Resolved,,2014-12-02T17:12:15.000,02X,MARKET ST & 10TH ST,Wandsworth,London,East Putney,SW15 2AB
631116,2016-01-28T09:44:15.000,Phone,Traffic - Repair Pavement Striping,Traffic Signage Issues,Resolved,,2016-03-09T13:08:31.000,27Y,E 17TH ST & 64TH AVE,Wandsworth,London,Queenstown,SW8 4AC
330925,2010-03-09T08:52:27.000,Telephone/Email,Electrical Curb Box - Damaged/Missing,Street Lighting,Resolved,,2011-06-15T15:10:38.000,03Y,11TH ST & CASTRO ST,Wandsworth,London,Wandsworth Common,SW17 7AD
962513,2019-11-15T12:34:49.000,Other,Illegal Dumping � mattress/boxspring,Fly-Tipping,Resolved,,2019-11-18T19:29:36.000,30Y,7878 MACARTHUR BLVD,Wandsworth,London,Nightingale,SW12 9AF
846630,2018-10-12T17:45:02.000,FixMyStreet,Illegal Dumping � mattress/boxspring,Fly-Tipping,Resolved,,2018-10-15T20:22:39.000,21Y,2728 FRUITVALE AVE,Wandsworth,London,St Mary's Park,SW11 4AA
455621,2013-04-15T15:50:57.000,FixMyStreet,Fly-Tipping,Fly-Tipping,Resolved,,2013-04-19T16:26:43.000,19X,SOLANO WY & 20TH AV,Wandsworth,London,Northcote,SW11 5AB
551791,2014-11-20T15:18:49.000,Phone,Streets - Potholes/Depression,Street and Pavement Maintenance,Resolved,,2015-02-06T12:48:46.000,22X,RHODA AV & MONTANA ST,Wandsworth,London,Bedford,SW12 9AD
363693,2011-03-15T14:37:01.000,Telephone/Email,Litter - In Public Right of Way,Fly-Tipping,Resolved,,2011-03-16T16:47:21.000,09X,3504 RICHMOND BL,Wandsworth,London,Southfields,SW19 6AA
928301,2019-07-25T14:19:50.000,Phone,Illegal Dumping � mattress/boxspring,Fly-Tipping,Resolved,,2019-07-26T17:55:26.000,23X,4015 INTERNATIONAL BLVD,Wandsworth,London,Graveney,SW17 0AC
342891,2010-07-22T14:55:48.000,Telephone/Email,Electrical - Inside/Outside Facility,Council Building Maintenance,Resolved,,2010-08-31T13:57:44.000,,7101 EDGEWATER DR BLDG 3 (PWA),Wandsworth,London,Northcote,SW11 6AC
25388,2011-07-11T14:07:51.000,Telephone/Email,Residential Recycling Service Issues,Recycling,Resolved,,2011-07-11T14:07:54.000,,ZZ,Wandsworth,London,East Putney,SW15 1AB
371722,2011-06-01T11:41:07.000,Telephone/Email,Illegal Dumping � mattress/boxspring,Fly-Tipping,Resolved,,2011-06-02T14:52:00.000,21Y,3300 MAPLE AV,Wandsworth,London,Southfields,SW18 5AA
471269,2013-07-21T16:46:47.000,FixMyStreet,Illegal Dumping � mattress/boxspring,Fly-Tipping,Resolved,,2013-07-31T13:29:17.000,31X,OAKPORT ST & ZHONE WY,Wandsworth,London,West Hill,SW15 3AB
425336,2012-09-12T15:58:29.000,Telephone/Email,Litter - In Public Right of Way,Fly-Tipping,Resolved,,2012-09-19T14:01:35.000,26X,600 50TH AV,Wandsworth,London,Shaftesbury,SW11 1AB
310078,2009-07-13T15:10:41.000,Telephone/Email,Fly-Tipping,Fly-Tipping,Resolved,,2009-08-06T16:09:47.000,17Y,2526 11 TH AVE.,Wandsworth,London,Tooting,SW17 8AA
872921,2019-01-30T14:06:48.000,FixMyStreet,Fly-Tipping,Fly-Tipping,Resolved,,2019-01-31T21:52:21.000,03X,395 9TH ST,Wandsworth,London,West Putney,SW15 1AC
924091,2019-07-12T14:46:55.000,Phone,Tree - Limb Down,Tree Maintenance,Resolved,,2019-07-16T14:30:53.000,12Y,61ST ST & COLBY ST,Wandsworth,London,Nightingale,SW12 8AE
930396,2019-08-01T09:50:33.000,Phone,Tree - Limb Down,Tree Maintenance,Resolved,,2019-08-02T09:46:48.000,12Y,5901 ROSS ST,Wandsworth,London,East Putney,SW15 2AB
495181,2013-12-17T12:07:50.000,Email,TE - Traffic Signal Request (non-emergency),Right of Way Inspectors,Resolved,,2019-06-21T15:34:59.000,12Y,COLLEGE AV & MANILA AV,Wandsworth,London,Tooting,SW17 7AA
437136,2012-12-07T08:54:25.000,FixMyStreet,Electrical - Street Light (report from SeeClickFix,Street Lighting,Resolved,,2012-12-18T07:33:59.000,23X,1501 37TH AV,Wandsworth,London,Roehampton and Putney Heath,SW15 4AB
808432,2018-04-19T10:57:59.000,FixMyStreet,Fly-Tipping,Fly-Tipping,Resolved,,2018-04-21T05:44:18.000,35X,8601 MACARTHUR BLVD,Wandsworth,London,West Putney,SW15 2AD
386409,2011-10-25T07:49:57.000,Telephone/Email,Tree - Request for Removal,Tree Maintenance,Resolved,,2012-09-19T07:58:29.000,,1321 LEIMERT,Wandsworth,London,Bedford,SW12 9AE
954042,2019-10-17T09:54:45.000,Email,Animal and Insect Control,OTHER,Referred to External Agency,"ALAMEDA COUNTY MOSQUITO ABATE,",,03X,310 7TH ST,Wandsworth,London,Shaftesbury,SW11 1AB
326287,2010-01-20T09:55:57.000,Telephone/Email,Storm Drains - Clogged / Flooding,Blocked Drains,Resolved,,2010-01-20T18:02:52.000,12X,SHAFTER AV & 43RD ST,Wandsworth,London,East Putney,SW15 2AC
328748,2010-02-16T11:08:31.000,Telephone/Email,Illegal Dumping � mattress/boxspring,Fly-Tipping,Resolved,,2010-02-17T16:46:41.000,07X,3420 LOUISE ST,Wandsworth,London,Bedford,SW12 9AD
503413,2014-02-13T15:55:34.000,Phone,Illegal Dumping � mattress/boxspring,Fly-Tipping,Resolved,,2014-02-14T18:12:29.000,33X,G ST & 92ND AV,Wandsworth,London,Balham,SW12 9AA
395425,2012-01-26T13:56:48.000,Online Form,Street Lighting Fault,Street Lighting,Resolved,,2012-03-01T11:42:37.000,06X,834 29TH ST,Wandsworth,London,East Putney,SW15 2AA
868037,2019-01-19T14:20:11.000,FixMyStreet,Parking - Abandoned Vehicle,Community Safety,Cancelled by Customer,,,,1705 39TH AVE,Wandsworth,London,Nightingale,SW12 8AE
310172,2009-07-14T13:10:54.000,Telephone/Email,Sewers - Tap inspection,Drainage,Resolved,,2009-07-28T10:23:55.000,13Z,6250  CHELTON DR,Wandsworth,London,Graveney,SW17 0AB
842939,2018-09-26T12:49:57.000,Phone,Fly-Tipping,Fly-Tipping,Resolved,,2018-09-29T05:46:47.000,31Y,66 AIRPORT ACCESS RD,Wandsworth,London,Tooting,SW17 8AA
422998,2012-08-24T14:48:35.000,Telephone/Email,Storm Inlet Grate - Damaged/Missing,Blocked Drains,Resolved,,2012-08-30T15:23:53.000,20X,E 12TH ST & 31ST AV,Wandsworth,London,East Putney,SW15 2AA
360496,2011-02-09T16:20:03.000,Telephone/Email,Tree - Down,Tree Maintenance,Resolved,,2011-02-14T09:26:13.000,10Y,989 41ST ST,Wandsworth,London,Tooting,SW17 7AA
792070,2018-02-05T11:12:14.000,Online Form,Rough Sleeping Report,Fly-Tipping,Cancelled by Customer,,,07X,HOLLIS ST & W MACARTHUR BLVD,Wandsworth,London,Southfields,SW18 5AA
847885,2018-10-18T15:53:45.000,FixMyStreet,Fly-Tipping,Fly-Tipping,Resolved,,2018-10-22T20:21:51.000,20X,2734 E 7TH ST,Wandsworth,London,Bedford,SW12 8AB
685722,2016-10-01T17:56:07.000,FixMyStreet,Illegal Dumping � mattress/boxspring,Fly-Tipping,Resolved,,2016-10-12T10:52:42.000,06X,30TH ST & MARTIN LUTHER KING JR WAY,Wandsworth,London,West Putney,SW15 2AD
313151,2009-08-19T11:07:29.000,Telephone/Email,Litter in Parks,Parks Maintenance,Resolved,,2009-08-27T08:41:11.000,22Y,AVENUE TERRACE PARK,Wandsworth,London,Graveney,SW17 0AB
669053,2016-07-19T08:39:02.000,Phone,City Bldg - Plumbing,Council Building Maintenance,Resolved,,2016-07-19T13:59:50.000,25X,LEONA LODGE,Wandsworth,London,Northcote,SW11 6AC
399559,2012-03-05T14:48:43.000,Telephone/Email,Litter - In Public Right of Way,Fly-Tipping,Resolved,,2012-03-06T15:41:43.000,25X,3750 MCCLELLAND ST,Wandsworth,London,West Putney,SW15 2AF
910827,2019-06-04T11:13:54.000,FixMyStreet,Street Cleaning - Complaints,Environmental Services,In Progress,,,30Y,2732 74TH AVE,Wandsworth,London,Northcote,SW11 6AC
938458,2019-08-26T13:11:26.000,FixMyStreet,Fly-Tipping,Fly-Tipping,Resolved,,2019-09-10T20:22:40.000,17X,1319 E 17TH ST,Wandsworth,London,Tooting,SW17 7AA
684705,2016-09-27T09:06:34.000,FixMyStreet,Inspections - Utility Wire,Right of Way Inspectors,In Progress,,,15X,LAKESHORE AV & BODEN WY,Wandsworth,London,Tooting,SW17 8AC
901074,2019-05-02T12:27:58.000,Phone,Parking - Abandoned Vehicle,Community Safety,Resolved,,2019-05-31T07:30:29.000,24X,1975 40TH AVE,Wandsworth,London,Furzedown,SW16 5AB
491346,2013-11-21T13:43:29.000,Phone,Blocked Drains,Blocked Drains,Resolved,,2013-11-27T09:19:18.000,01X,444 EMBARCADERO WEST,Wandsworth,London,East Putney,SW15 2AB
735471,2017-05-30T12:13:10.000,Other,Oakland Police - Abandoned Auto,OTHER,Referred to External Agency,"OPD ABANDONED AUTOS, PUBLIC",,30X,AVENAL AV & HAVENSCOURT BLVD,Wandsworth,London,Southfields,SW19 6AA
631981,2016-02-01T14:03:15.000,Email,"City Bldg - Heating, Ventilation, and Cooling",Council Building Maintenance,Resolved,,2016-02-04T08:27:41.000,03Y,POLICE ADMIN BLDG,Wandsworth,London,Tooting,SW17 7AB
532762,2014-08-04T07:21:09.000,FixMyStreet,Illegal Dumping � mattress/boxspring,Fly-Tipping,Resolved,,2014-08-09T15:45:41.000,31Y,RAILROAD AV & LOUISIANA ST,Wandsworth,London,Queenstown,SW8 4AB
484413,2013-10-05T15:10:04.000,Online Form,Illegal Dumping � mattress/boxspring,Fly-Tipping,Cancelled by Customer,,,23X,SAN LEANDRO ST & 41ST AV,Wandsworth,London,Shaftesbury,SW11 2AD
610730,2015-10-14T09:26:58.000,Email,Fly-Tipping,Fly-Tipping,Resolved,,2015-10-16T14:52:36.000,24X,4025 NEVIL ST ( DEAD END ROAD ),Wandsworth,London,Furzedown,SW16 6AA
582687,2015-05-19T22:08:53.000,Online Form,Fly-Tipping,Fly-Tipping,Resolved,,2015-05-23T16:41:36.000,19X,2040 SOLANO WAY,Wandsworth,London,Wandsworth Town,SW18 3AD
348474,2010-09-27T08:10:01.000,Telephone/Email,Sewers - Blockage,Drainage,Resolved,,2010-10-06T10:25:04.000,22Y,3500 MOUNTAIN BLVD,Wandsworth,London,Southfields,SW18 5AC
555949,2014-12-15T15:01:34.000,FixMyStreet,Pothole (report from SeeClickFix),Street and Pavement Maintenance,Cancelled by Customer,,,12Y,6124-6140 CHABOT ROAD,Wandsworth,London,East Putney,SW15 2AA
657591,2016-06-01T08:14:26.000,FixMyStreet,Illegal Dumping (report from SeeClickFix),Fly-Tipping,Cancelled by Customer,,,,3427 ETTIE ST,Wandsworth,London,West Hill,SW15 3AA
555343,2014-12-11T12:01:32.000,FixMyStreet,Oakland Police - Abandoned Auto,OTHER,Referred to External Agency,"OPD ABANDONED AUTOS, PUBLIC",,35X,2301 AUSEON AVENUE,Wandsworth,London,Tooting,SW17 8AA
798972,2018-03-04T18:21:22.000,FixMyStreet,Fly-Tipping,Fly-Tipping,Resolved,,2018-03-06T17:08:43.000,08X,38TH ST & RUBY ST,Wandsworth,London,Bedford,SW12 8AA
833491,2018-08-13T14:00:58.000,Phone,Traffic - Other/Complex,Traffic Management,In Progress,,,29X,6609 BRANN ST,Wandsworth,London,East Putney,SW15 2AB
879341,2019-02-19T07:37:36.000,FixMyStreet,Fly-Tipping,Fly-Tipping,Cancelled by Customer,,,,7801�7899 RUDSDALE ST,Wandsworth,London,West Putney,SW15 2AE
544865,2014-10-08T11:24:19.000,Phone,Fly-Tipping,Fly-Tipping,Resolved,,2014-10-14T17:23:51.000,10X,1027 60TH ST,Wandsworth,London,Furzedown,SW16 5AB
382622,2011-09-20T13:38:24.000,Telephone/Email,Street Medians (Landscaped),Parks Maintenance,Resolved,,2011-10-25T07:40:38.000,25Y,KELLER AV & MOUNTAIN BLVD,Wandsworth,London,Southfields,SW18 5AA
625505,2016-01-01T19:11:04.000,Online Form,Streets - Potholes/Depression,Street and Pavement Maintenance,Resolved,,2016-01-05T15:38:04.000,13Y,6160 FAIRLANE DR,Wandsworth,London,Wandsworth Town,SW18 3AE
416203,2012-07-06T17:35:12.000,FixMyStreet,Litter - In Public Right of Way,Fly-Tipping,Resolved,,2012-07-11T07:42:04.000,07X,2401 UNION ST,Wandsworth,London,East Putney,SW15 2AB
550242,2014-11-11T19:00:28.000,FixMyStreet,Graffiti (report from SeeClickFix),Graffiti Removal,Cancelled by Customer,,,04X,2121 HARRISON ST,Wandsworth,London,West Putney,SW15 1AC
915625,2019-06-16T10:16:09.000,FixMyStreet,Parking - Abandoned Vehicle,Community Safety,Resolved,,2019-08-21T15:00:08.000,10X,5866 MARSHALL ST,Wandsworth,London,Furzedown,SW16 6AB
335023,2010-04-26T15:59:00.000,Telephone/Email,Streets - Potholes/Depression,Street and Pavement Maintenance,Resolved,,2010-09-18T12:40:38.000,25Y,CAMPUS & REDWOOD RD,Wandsworth,London,Northcote,SW11 6AA
542728,2014-09-26T12:08:38.000,Telephone/Email,Garbage - Pre-6am Residential Collection,Recycling,Resolved,,2014-09-29T11:50:27.000,19X,1536 6TH AV,Wandsworth,London,Northcote,SW11 5AA
860830,2018-12-19T14:56:08.000,FixMyStreet,Parking - Abandoned Vehicle,Community Safety,Resolved,,2019-01-02T10:11:05.000,26Y,908 70TH AVE,Wandsworth,London,East Putney,SW15 2AC
949015,2019-09-30T09:34:17.000,Phone,Litter - Street Litter Container - Cleaning Needed,Fly-Tipping,Resolved,,2019-10-03T14:37:30.000,25X,BERNEVES CT & MOUNTAIN BLVD,Wandsworth,London,Southfields,SW19 6AB
341436,2010-07-08T08:25:15.000,Telephone/Email,Fly-Tipping,Graffiti Removal,Resolved,,2010-07-19T09:55:28.000,,73RD AVE AND FAVOR ST.,Wandsworth,London,Fairfield,SW18 1AA
962367,2019-11-15T08:03:26.000,Email,Litter - Green Bag Pickup,Fly-Tipping,Resolved,,2019-11-18T19:25:39.000,22X,FLAGG AVE & MONTANA ST,Wandsworth,London,Northcote,SW11 5AA
398833,2012-02-28T10:15:20.000,Online Form,City Bldg - Key / Lock Management,Council Building Maintenance,Cancelled by Customer,,,,250 FHOP,Wandsworth,London,Queenstown,SW8 4AC
554713,2014-12-09T11:21:15.000,Email,Tree - Pruning,Tree Maintenance,UNFUNDED,,,33X,1335 87TH AV,Wandsworth,London,Northcote,SW11 6AA
378897,2011-08-12T15:16:19.000,Telephone/Email,Rough Sleeping Report,Fly-Tipping,Resolved,,2011-08-16T15:19:41.000,23X,1236 37TH AV,Wandsworth,London,East Putney,SW15 2AA
613258,2015-10-26T22:36:49.000,Online Form,Streets - Potholes/Depression,Street and Pavement Maintenance,Cancelled by Customer,,,,VAN BURRN BETWEEN LEE & PERKINS,Wandsworth,London,Roehampton and Putney Heath,SW15 4AB
643586,2016-03-25T12:40:24.000,FixMyStreet,Fly-Tipping,Fly-Tipping,Resolved,,2016-03-29T16:30:06.000,05Y,CAMPBELL ST & 20TH ST,Wandsworth,London,East Putney,SW15 1AB
861576,2018-12-24T08:28:16.000,Email,Fly-Tipping,Fly-Tipping,Resolved,,2018-12-27T14:37:26.000,26X,1058 50TH AVE,Wandsworth,London,East Putney,SW15 2AB
322415,2009-11-23T10:46:07.000,Telephone/Email,Illegal Dumping � mattress/boxspring,Fly-Tipping,Resolved,,2009-12-02T15:58:16.000,20X,PETERSON ST & CHAPMAN ST,Wandsworth,London,West Hill,SW15 3AA
919112,2019-06-26T16:49:14.000,Email,Litter in Parks,Parks Maintenance,Cancelled by Customer,,,19X,UNION POINT PARK,Wandsworth,London,Southfields,SW19 6AB
318078,2009-10-12T10:07:20.000,Telephone/Email,Fly-Tipping,Fly-Tipping,Resolved,,2009-10-13T11:51:45.000,02X,333 FILBERT ST,Wandsworth,London,West Putney,SW15 1AC
331125,2010-03-10T14:34:39.000,Telephone/Email,Graffiti in a Park,Council Building Maintenance,Resolved,,2010-03-10T14:43:49.000,19X,ATHOL PLAZA,Wandsworth,London,Northcote,SW11 6AC
849547,2018-10-26T11:22:26.000,Telephone Voicemail,Missed Rubbish Collection,Recycling,Resolved,,2018-10-29T09:10:21.000,25X,4026 QUIGLEY ST,Wandsworth,London,West Hill,SW18 1AE
633672,2016-02-09T10:33:43.000,Online Form,TE - Traffic Safety (non-emergency),Traffic Management,UNFUNDED,,,09X,BAYO VISTA AV & FAIRMOUNT AV,Wandsworth,London,Bedford,SW12 8AC
513555,2014-04-17T15:08:18.000,Telephone/Email,Yard Trimmings - Food Pail Request,Recycling,Resolved,,2014-04-23T14:35:57.000,09X,71 ECHO AV,Wandsworth,London,Tooting,SW17 8AA
553744,2014-12-04T08:52:45.000,Online Form,City Bldg - Electrical Inside/Outside,Council Building Maintenance,Resolved,,2014-12-24T07:55:44.000,04X,LIONEL J WILSON BUILDING,Wandsworth,London,Wandsworth Common,SW12 8AG
735704,2017-05-31T09:43:37.000,Phone,Fly-Tipping,Fly-Tipping,Resolved,,2017-06-01T17:24:33.000,32X,E ST & 102ND AV,Wandsworth,London,Furzedown,SW16 6AA
772469,2017-11-08T11:22:41.000,FixMyStreet,Fly-Tipping,Fly-Tipping,Resolved,,2017-11-11T06:44:35.000,12X,4632 TELEGRAPH AVE,Wandsworth,London,West Putney,SW15 1AD
460365,2013-05-13T12:05:41.000,Telephone/Email,Graffiti on Private Property,Graffiti Removal,Resolved,Council Enforcement,2013-05-24T11:07:03.000,11X,5151 TELEGRAPH AV,Wandsworth,London,East Putney,SW15 2AA
500557,2014-01-27T09:38:23.000,Phone,Illegal Dumping � mattress/boxspring,Fly-Tipping,Resolved,,2014-02-05T08:04:15.000,18X,1900 SAN ANTONIO WY,Wandsworth,London,West Hill,SW18 1AE
646796,2016-04-11T09:05:01.000,Online Form,City Bldg - Electrical Inside/Outside,Council Building Maintenance,Resolved,,2016-05-02T15:25:09.000,14X,VETERANS MEMORIAL BLDG DOWNTOWN SENIOR CENTER,Wandsworth,London,Bedford,SW12 9AE
943834,2019-09-12T12:20:35.000,FixMyStreet,Parking - Enforcement,Parking Enforcement,GONE ON ARRIVAL,,,02Y,407�467 MANDELA PKWY,Wandsworth,London,West Putney,SW15 1AC
889815,2019-03-27T10:02:39.000,FixMyStreet,Parking - Abandoned Vehicle,Community Safety,Resolved,,2019-04-11T08:49:45.000,27X,2134 51ST AVE,Wandsworth,London,West Putney,SW15 1AC
493343,2013-12-04T09:33:30.000,Phone,Fly-Tipping,Fly-Tipping,Resolved,,2013-12-07T13:48:09.000,06X,29TH ST & MARTIN LUTHER KING JR WY,Wandsworth,London,Queenstown,SW8 4AA
671842,2016-07-30T08:57:08.000,FixMyStreet,Storm Drains (report from SeeClickFix,Blocked Drains,Cancelled by Customer,,,12Y,7300-7398 CHABOT RD,Wandsworth,London,East Putney,SW15 1AB
681507,2016-09-12T12:12:03.000,Phone,Fly-Tipping,Fly-Tipping,Resolved,,2016-09-22T17:51:21.000,06X,30TH ST & MARTIN LUTHER KING JR WAY,Wandsworth,London,Northcote,SW11 6AC
738515,2017-06-13T06:03:17.000,FixMyStreet,Fly-Tipping,Fly-Tipping,Resolved,,2017-06-14T16:44:46.000,08X,30TH ST & BROOK ST,Wandsworth,London,Shaftesbury,SW11 1AB
806226,2018-04-09T18:23:48.000,FixMyStreet,Graffiti on Traffic Sign(s),Traffic Signage Issues,Resolved,,2018-04-17T10:40:27.000,19X,E 8TH ST & PARK WAY,Wandsworth,London,Bedford,SW12 8AA
547592,2014-10-25T15:20:20.000,FixMyStreet,Streets - Potholes/Depression,Street and Pavement Maintenance,Resolved,,2016-07-18T14:05:56.000,15X,269 HANOVER AV,Wandsworth,London,West Putney,SW15 1AD
853918,2018-11-16T08:50:12.000,FixMyStreet,"Graffiti on Street, Street Light, Traffic Signal,",Graffiti Removal,Resolved,,2018-11-19T15:00:52.000,07X,2606 MANDELA PKWY,Wandsworth,London,Roehampton and Putney Heath,SW15 5AA
721449,2017-03-28T10:40:20.000,Phone,City Bldg - Key / Lock Management,Council Building Maintenance,Resolved,,2017-05-18T07:29:35.000,04X,150 FRANK H OGAWA PLZ,Wandsworth,London,Northcote,SW11 5AB
432196,2012-10-31T14:31:15.000,Telephone/Email,Litter - In Public Right of Way,Fly-Tipping,Resolved,,2012-11-05T16:38:40.000,25X,SEMINARY AV & KUHNLE AV,Wandsworth,London,East Putney,SW15 2AA
701871,2017-01-04T08:42:50.000,FixMyStreet,Illegal Dumping (report from SeeClickFix),Fly-Tipping,Cancelled by Customer,,,18Y,22ND AVENUE AND EAST 27TH,Wandsworth,London,Nightingale,SW12 8AF
590456,2015-07-05T19:50:22.000,FixMyStreet,Graffiti (report from SeeClickFix),Graffiti Removal,Resolved,,2015-07-10T11:50:50.000,14Y,435 SUNNYSLOPE AVENUE,Wandsworth,London,Roehampton and Putney Heath,SW15 4AB
422276,2012-08-20T10:48:49.000,Telephone/Email,Streets - Potholes/Depression,Street and Pavement Maintenance,Resolved,,2013-06-11T09:56:34.000,32X,105TH AV & INTERNATIONAL BLVD,Wandsworth,London,Wandsworth Town,SW18 4AA
951386,2019-10-07T22:38:29.000,FixMyStreet,Council Enforcement,OTHER,Referred to External Agency,Council Enforcement,,12X,4444 TELEGRAPH AVE,Wandsworth,London,Southfields,SW19 6AB
703469,2017-01-11T08:54:10.000,Phone,Streets - Mudslides / Landslides,Street and Pavement Maintenance,Resolved,,2017-01-30T14:14:08.000,13Z,6018 BALBOA DR,Wandsworth,London,Northcote,SW11 5AA
914960,2019-06-13T14:05:05.000,Telephone Voicemail,Traffic - Sign Down,Traffic Signage Issues,Resolved,,2019-06-14T13:06:21.000,13X,4858 HARBORD DR,Wandsworth,London,Earlsfield,SW18 4AB
450255,2013-03-11T10:04:45.000,Online Form,City Bldg - Other,Council Building Maintenance,Resolved,,2013-03-19T06:20:44.000,03X,MAIN LIBRARY,Wandsworth,London,Graveney,SW17 0AA
857272,2018-12-03T10:45:48.000,FixMyStreet,Graffiti on Private Property,Graffiti Removal,Resolved,,2018-12-07T14:52:33.000,03X,157 9TH ST,Wandsworth,London,Southfields,SW18 5AA
893081,2019-04-07T09:00:54.000,FixMyStreet,Illegal Dumping � mattress/boxspring,Fly-Tipping,Resolved,,2019-04-09T21:19:22.000,06X,663 33RD ST,Wandsworth,London,Queenstown,SW8 3AA
795499,2018-02-20T18:19:07.000,FixMyStreet,Fly-Tipping,Fly-Tipping,Resolved,,2018-02-22T18:58:18.000,05X,2011 LINDEN STREET,Wandsworth,London,Balham,SW12 9AB
943535,2019-09-11T14:08:05.000,FixMyStreet,Parking - Abandoned Vehicle,Community Safety,Resolved,,2019-10-02T11:09:21.000,21Y,2801 BELLAIRE PL,Wandsworth,London,Tooting,SW17 7AA
781582,2017-12-21T09:18:01.000,Phone,Fly-Tipping,Fly-Tipping,Resolved,,2017-12-31T14:58:34.000,26Y,1304 75TH AV,Wandsworth,London,West Hill,SW15 3AA
566987,2015-02-15T10:20:20.000,FixMyStreet,Streets - Potholes/Depression,Street and Pavement Maintenance,In Progress,,,17Y,830 E 28TH ST,Wandsworth,London,West Putney,SW15 2AD
927109,2019-07-22T14:08:39.000,FixMyStreet,Fly-Tipping,Fly-Tipping,Resolved,,2019-07-24T20:59:58.000,04X,1811 JEFFERSON ST,Wandsworth,London,Southfields,SW19 6AA
866186,2019-01-14T10:53:38.000,FixMyStreet,Council Enforcement,OTHER,Referred to External Agency,Council Enforcement,,06X,3806 MARTIN LUTHER KING JR WAY,Wandsworth,London,Tooting,SW17 7AB
819247,2018-06-11T18:26:09.000,Email,Illegal Dumping (Enforcement Potential),Fly-Tipping,Resolved,,2018-06-14T10:27:58.000,31Z,701 105TH AV,Wandsworth,London,Graveney,SW17 0AC
909376,2019-05-30T13:58:36.000,FixMyStreet,Streets - Potholes/Depression,Street and Pavement Maintenance,Resolved,,2019-06-05T09:10:04.000,13Y,6901 PINEHAVEN RD,Wandsworth,London,East Putney,SW15 1AB
854606,2018-11-20T08:37:21.000,Email,Fly-Tipping,Fly-Tipping,Resolved,,2018-12-01T16:08:11.000,05Y,MANDELA PKWY & 16TH ST,Wandsworth,London,Queenstown,SW8 4AB
723443,2017-04-05T13:23:29.000,Phone,City Bldg - Plumbing,Council Building Maintenance,Resolved,,2017-04-13T06:03:10.000,20X,ANIMAL SHELTER,Wandsworth,London,Tooting,SW17 8AB
440020,2013-01-02T14:02:14.000,Telephone/Email,Fly-Tipping,Fly-Tipping,Resolved,,2013-01-22T16:24:44.000,15X,226 ATHOL AV,Wandsworth,London,East Putney,SW15 1AA
560195,2015-01-09T10:40:19.000,FixMyStreet,Fly-Tipping,Fly-Tipping,Resolved,,2015-01-13T16:12:51.000,23X,1430 37TH AVENUE,Wandsworth,London,Graveney,SW17 0AC
551517,2014-11-19T11:50:20.000,FixMyStreet,Fly-Tipping,Fly-Tipping,Resolved,,2014-11-22T12:06:10.000,21Y,3283 FRUITVALE AV,Wandsworth,London,Northcote,SW11 5AA
474570,2013-08-09T11:21:01.000,FixMyStreet,Illegal Dumping (report from SeeClickFix),Fly-Tipping,Resolved,,2013-08-19T13:42:07.000,07X,875 28TH ST,Wandsworth,London,Tooting,SW17 8AA
501015,2014-01-29T12:10:27.000,FixMyStreet,Graffiti on Traffic Sign(s),Traffic Signage Issues,Resolved,,2014-02-20T10:51:05.000,14X,GRAND AV & BAY PL,Wandsworth,London,St Mary's Park,SW11 4AA
756392,2017-08-30T06:33:32.000,FixMyStreet,Fly-Tipping,Fly-Tipping,Resolved,,2017-09-05T17:16:43.000,07X,3028 ADELINE ST,Wandsworth,London,East Putney,SW15 1AB
464961,2013-06-11T14:12:26.000,Online Form,"City Bldg - Heating, Ventilation, and Cooling",Council Building Maintenance,UNFUNDED,,,19X,1235 INTERNATIONAL BLVD,Wandsworth,London,Southfields,SW18 5AC
799589,2018-03-07T08:41:47.000,FixMyStreet,Fly-Tipping,Fly-Tipping,Resolved,,2018-03-08T17:55:16.000,12Y,6438 BENVENUE AV,Wandsworth,London,West Hill,SW18 1AE
453849,2013-04-04T11:08:35.000,Telephone/Email,Electrical Curb Box - Damaged/Missing,Street Lighting,Resolved,,2013-04-05T08:03:13.000,04X,550 18TH ST,Wandsworth,London,West Hill,SW18 1AE
822769,2018-06-27T11:09:48.000,Phone,Rough Sleeping Report,Environmental Hygiene,Cancelled by Customer,,,05Y,1900 CAMPBELL ST,Wandsworth,London,Tooting,SW17 7AA
939381,2019-08-28T14:43:10.000,Phone,Parking - Abandoned Vehicle,Community Safety,Resolved,,2019-11-22T12:05:18.000,32Y,2480 99TH AV,Wandsworth,London,Bedford,SW12 9AD
327821,2010-02-03T12:32:53.000,Telephone/Email,Illegal Dumping � mattress/boxspring,Fly-Tipping,Resolved,,2010-02-04T16:21:51.000,26Y,7660 HAWLEY ST,Wandsworth,London,Graveney,SW17 0AB
517486,2014-05-11T19:20:17.000,FixMyStreet,Fly-Tipping,Fly-Tipping,Resolved,,2014-05-15T16:34:46.000,14X,520 VAN BUREN AV,Wandsworth,London,Roehampton and Putney Heath,SW15 5AB
339878,2010-06-18T08:53:26.000,Telephone/Email,Fly-Tipping,Fly-Tipping,Resolved,,2010-06-18T18:30:05.000,33X,1055 82ND AV,Wandsworth,London,Southfields,SW19 6AA
944686,2019-09-16T09:20:42.000,Phone,Traffic - Repair Pavement Striping,Traffic Signage Issues,Resolved,,2019-11-19T07:34:14.000,16Y,HOLMAN RD & TRESTLE GLEN RD,Wandsworth,London,Bedford,SW12 8AA
532798,2014-08-04T09:10:29.000,FixMyStreet,Fly-Tipping,Fly-Tipping,Resolved,,2014-08-07T16:57:04.000,34X,8901 HOLLY ST,Wandsworth,London,East Putney,SW15 1AB
378072,2011-08-05T12:03:19.000,Telephone/Email,Graffiti on Private Property,Graffiti Removal,Resolved,,2011-08-12T10:01:51.000,05X,1919  MARKET ST,Wandsworth,London,Southfields,SW19 6AA
364578,2011-03-24T12:06:41.000,Telephone/Email,Storm Drains - Clogged / Flooding,Blocked Drains,Resolved,,2011-04-26T17:43:25.000,29X,3000 60TH AV,Wandsworth,London,Roehampton and Putney Heath,SW15 4AA
725125,2017-04-12T13:31:50.000,Phone,Illegal Dumping � mattress/boxspring,Fly-Tipping,Resolved,,2017-04-19T16:46:33.000,27Y,1446 55TH AV,Wandsworth,London,East Putney,SW15 2AC
805248,2018-04-04T11:57:04.000,FixMyStreet,Fly-Tipping,Fly-Tipping,Resolved,,2018-04-09T08:39:00.000,26Y,1241 80TH AV,Wandsworth,London,Tooting,SW17 8AC
637025,2016-02-25T09:00:30.000,Telephone/Email,TE - Traffic Control Plan Review,Traffic Management,Resolved,,2016-07-13T16:37:32.000,03X,8TH ST & FRANKLIN ST,Wandsworth,London,Wandsworth Town,SW18 3AD
314534,2009-09-01T14:41:46.000,Telephone/Email,Fly-Tipping,Fly-Tipping,Resolved,,2009-09-02T17:07:48.000,23X,1303 HIGH ST,Wandsworth,London,East Putney,SW15 1AB
374338,2011-06-28T16:22:42.000,Telephone/Email,Litter - In Public Right of Way,Fly-Tipping,Resolved,,2011-06-29T15:06:28.000,32X,10500 SAN LEANDRO BLVD,Wandsworth,London,Northcote,SW11 6AC
686521,2016-10-05T11:53:12.000,Online Form,Fly-Tipping,Fly-Tipping,Resolved,,2016-10-06T16:52:11.000,17X,E 20TH ST & 9TH AV,Wandsworth,London,Southfields,SW18 5AC
541083,2014-09-17T12:22:10.000,Phone,Street Cleaning - Complaints,Environmental Services,Resolved,,2014-11-09T09:41:33.000,30X,2422 68TH AV,Wandsworth,London,East Putney,SW15 1AB
592574,2015-07-15T16:13:26.000,Phone,Trash - Cart Replaced Incorrectly,Recycling,Resolved,,2015-07-16T14:29:14.000,,2700 WEST ST,Wandsworth,London,Nightingale,SW12 8AE
785065,2018-01-06T17:09:09.000,FixMyStreet,Fly-Tipping,Fly-Tipping,Cancelled by Customer,,,07X,2634-2638 MARKET ST,Wandsworth,London,Northcote,SW11 6AA
353730,2010-11-30T08:55:45.000,Telephone/Email,Illegal Dumping � mattress/boxspring,Fly-Tipping,Resolved,,2010-11-30T16:19:31.000,32X,105TH AV & ROYAL ANN ST,Wandsworth,London,Graveney,SW17 0AB
883049,2019-03-04T11:08:09.000,FixMyStreet,Parking - Abandoned Vehicle,Community Safety,Resolved,,2019-03-07T07:59:05.000,07X,2857 HANNAH ST,Wandsworth,London,St Mary's Park,SW11 4AB
632012,2016-02-01T15:45:09.000,Phone,Recycling/Trash/Compost � Billing Question/Concern,Recycling,Resolved,,2016-02-01T15:45:14.000,,3541 DIMOND AVE,Wandsworth,London,Graveney,SW17 0AA
797484,2018-02-26T09:20:22.000,FixMyStreet,Litter - Street Litter Container - Overflowing/Mis,Fly-Tipping,Cancelled by Customer,,,28X,5410 FLEMING AVE,Wandsworth,London,Earlsfield,SW18 4AB
415273,2012-06-29T13:58:36.000,Telephone/Email,City Bldg - Structural Issue,Council Building Maintenance,Resolved,,2012-09-26T14:39:06.000,03Y,POLICE ADMIN BLDG,Wandsworth,London,Tooting,SW17 7AB
369049,2011-05-04T11:28:41.000,Telephone/Email,Street Lighting Fault,Street Lighting,Resolved,,2011-05-10T14:51:31.000,13X,5611 BUENA VISTA PL,Wandsworth,London,Northcote,SW11 6AC
755409,2017-08-25T08:01:32.000,FixMyStreet,Miscellaneous,OTHER,Referred to External Agency,"BAY CONSTRUCTION,",,07X,MANDELA PKWY & 24TH ST,Wandsworth,London,Roehampton and Putney Heath,SW15 4AB
22805,2010-07-08T13:37:14.000,Telephone/Email,Yard Trimmings - Food Pail Request,Recycling,Resolved,,2010-07-14T15:29:01.000,25X,4044 PATTERSON AV,Wandsworth,London,Balham,SW12 9AB
750690,2017-08-04T18:40:35.000,FixMyStreet,Fly-Tipping,Fly-Tipping,Resolved,,2017-08-07T10:06:52.000,31Z,9901 PIPPIN ST,Wandsworth,London,St Mary's Park,SW11 3AE
738866,2017-06-14T11:20:44.000,Email,Miscellaneous,OTHER,Referred to External Agency,"NUISANCE, ABATEMENT",,27X,4507 BOND ST,Wandsworth,London,Southfields,SW18 5AA
351019,2010-10-24T21:45:13.000,Online Form,Tree - Limb Down,Tree Maintenance,Resolved,,2010-10-27T08:42:28.000,12Y,445 60TH ST,Wandsworth,London,East Putney,SW15 1AB
907303,2019-05-23T10:19:07.000,FixMyStreet,Parking - Abandoned Vehicle,Community Safety,Resolved,,2019-05-30T13:15:24.000,30X,7447 WELD ST,Wandsworth,London,Shaftesbury,SW11 1AB
914851,2019-06-13T11:00:10.000,FixMyStreet,Illegal Dumping � mattress/boxspring,Fly-Tipping,Resolved,,2019-07-02T20:21:10.000,02Y,525 CHESTER ST,Wandsworth,London,Northcote,SW11 6AC
317610,2009-10-06T12:08:38.000,Telephone/Email,Fly-Tipping,Fly-Tipping,Resolved,,2009-10-12T09:59:45.000,11X,54TH ST & SHATTUCK AV,Wandsworth,London,East Putney,SW15 1AB
729309,2017-05-03T08:18:15.000,Email,Manhole Cover - Missing,Drainage,Resolved,,2017-05-17T12:56:34.000,13X,5399 HILLTOP CRES,Wandsworth,London,West Hill,SW18 1AE
911899,2019-06-06T23:14:26.000,FixMyStreet,Fly-Tipping,Fly-Tipping,Cancelled by Customer,,,27X,2368 HIGH ST,Wandsworth,London,West Hill,SW15 3AC
355322,2010-12-17T15:52:09.000,Telephone/Email,Tree - Pruning,Tree Maintenance,Resolved,,2011-02-25T11:08:58.000,13X,127 MANDALAY RD,Wandsworth,London,Nightingale,SW12 9AG
756661,2017-08-31T09:28:23.000,Email,Compost Service Issue,Recycling,Resolved,,2017-08-31T15:33:53.000,14X,370 STATEN AV,Wandsworth,London,West Putney,SW15 2AF
467190,2013-06-25T16:29:42.000,Telephone/Email,Garbage Service Issue (not at City facility),Recycling,Resolved,,2013-07-11T16:34:24.000,24X,35TH AV & SALISBURY ST,Wandsworth,London,Southfields,SW18 5AA
529872,2014-07-18T14:53:19.000,Phone,Inspections - Curb Ramps,Public Right of Way Maintenance,In Progress,,,27Y,64TH AV & AVENAL AV,Wandsworth,London,East Putney,SW15 2AA
445626,2013-02-06T07:08:01.000,Telephone/Email,City Bldg - Plumbing,Council Building Maintenance,Resolved,,2013-02-14T10:06:09.000,12X,TEMESCAL POOL,Wandsworth,London,Thamesfield,SW15 5AC
599250,2015-08-17T10:59:52.000,Phone,Traffic - Repair Pavement Striping,Traffic Signage Issues,Resolved,,2015-08-20T08:29:39.000,08X,459 37TH ST,Wandsworth,London,West Hill,SW18 1AD
472204,2013-07-26T12:31:37.000,Telephone/Email,Tree - Limb Down,Tree Maintenance,Resolved,,2013-08-12T09:45:39.000,22Y,2961 MADELINE ST,Wandsworth,London,West Hill,SW18 1AD
578705,2015-04-27T09:30:32.000,FixMyStreet,Council Enforcement,OTHER,Referred to External Agency,Council Enforcement,,33X,9001 INTERNATIONAL BLVD,Wandsworth,London,Bedford,SW12 9AE
334071,2010-04-15T08:42:35.000,Telephone/Email,Streets - Potholes/Depression,Street and Pavement Maintenance,Resolved,,2010-05-06T07:39:41.000,14X,206 PERKINS ST,Wandsworth,London,Earlsfield,SW18 4AA
809711,2018-04-25T14:13:35.000,Email,Traffic - Repair Pavement Striping,Traffic Signage Issues,Resolved,,2018-05-02T08:01:07.000,35Y,GOLF LINKS RD & MOUNTAIN BLVD,Wandsworth,London,Bedford,SW12 8AA
482854,2013-09-26T12:01:14.000,FixMyStreet,Litter in Parks,Parks Maintenance,Resolved,,2013-11-12T10:29:09.000,22X,DIMOND PARK,Wandsworth,London,Bedford,SW12 8AC
823759,2018-07-02T11:16:38.000,Phone,Streets - Potholes/Depression,Street and Pavement Maintenance,Resolved,,2018-07-10T12:15:40.000,13Y,GRIZZLY PEAK BLVD & LOMOS CANTADAS,Wandsworth,London,Tooting,SW17 8AC
901912,2019-05-05T21:51:22.000,FixMyStreet,Parking - Abandoned Vehicle,Community Safety,Resolved,,2019-05-08T11:03:17.000,31Y,597 85TH AVE,Wandsworth,London,Roehampton and Putney Heath,SW15 5AB
693709,2016-11-14T09:16:47.000,Phone,Sewers - Blockage,Drainage,Resolved,,2016-11-15T09:18:41.000,24X,2053 ROSEDALE AV,Wandsworth,London,Northcote,SW11 6AC
631047,2016-01-27T19:52:49.000,Online Form,Miscellaneous,OTHER,Referred to External Agency,"BAY CONSTRUCTION,",,05Y,MANDELA PARKWAY (PARK),Wandsworth,London,St Mary's Park,SW11 4AA
475635,2013-08-15T12:21:06.000,FixMyStreet,Illegal Dumping (report from SeeClickFix),Fly-Tipping,Resolved,,2013-08-19T14:31:00.000,30Y,2453 73RD AV,Wandsworth,London,Earlsfield,SW18 4AA
478799,2013-09-04T11:14:23.000,Phone,Illegal Dumping � mattress/boxspring,Fly-Tipping,Resolved,,2013-09-04T16:26:33.000,06X,36TH ST & MARTIN LUTHER KING JR WY,Wandsworth,London,Bedford,SW12 8AB
830471,2018-07-31T10:42:08.000,Phone,Illegal Dumping � mattress/boxspring,Fly-Tipping,Resolved,,2018-08-02T18:55:59.000,35X,8958 LAWLOR ST,Wandsworth,London,Wandsworth Common,SW12 8AG
422659,2012-08-22T12:10:00.000,Telephone/Email,Tree - Pruning,Tree Maintenance,UNFUNDED,,,05X,18TH ST & MARKET ST,Wandsworth,London,Northcote,SW11 5AB
311285,2009-07-28T09:53:25.000,Telephone/Email,Streets/Sidewalks - Unsafe Condition,Public Right of Way,Resolved,,2010-08-24T16:53:51.000,23X,1729 38TH AV,Wandsworth,London,Northcote,SW11 5AA
389171,2011-11-20T19:11:05.000,Online Form,Blocked Drains,Blocked Drains,Resolved,,2011-11-22T14:25:49.000,22Y,MIDVALE AV & WISCONSIN ST,Wandsworth,London,Northcote,SW11 6AB
828413,2018-07-23T08:15:04.000,Phone,Litter in Parks,Parks Maintenance,Resolved,,2018-08-30T15:14:45.000,26Y,DOLPHIN MINI PARK,Wandsworth,London,Graveney,SW17 0AB
395448,2012-01-26T14:58:09.000,Telephone/Email,Streets - Potholes/Depression,Street and Pavement Maintenance,Resolved,,2012-08-30T14:20:24.000,14Y,MANDANA BLVD & VERMONT ST,Wandsworth,London,West Putney,SW15 2AD
758065,2017-09-07T11:12:38.000,Phone,Sewers - Blockage,Drainage,Resolved,,2017-09-11T20:04:12.000,32Y,9851 OLIVE ST,Wandsworth,London,Northcote,SW11 6AC
761816,2017-09-24T12:27:43.000,FixMyStreet,Illegal Dumping (report from SeeClickFix),Fly-Tipping,Cancelled by Customer,,,07X,1648 32ND ST,Wandsworth,London,Roehampton and Putney Heath,SW15 4AC
624322,2015-12-23T10:40:26.000,FixMyStreet,"Graffiti on Street, Street Light, Traffic Signal,",Graffiti Removal,Resolved,,2016-01-04T09:50:42.000,14Y,3354 GRAND AV,Wandsworth,London,Shaftesbury,SW11 1AA
631912,2016-02-01T11:19:50.000,Phone,Oakland Police - Abandoned Auto,OTHER,Referred to External Agency,"OPD ABANDONED AUTOS, PUBLIC",,34X,96TH AV & HOLLY ST,Wandsworth,London,Balham,SW12 0AA
354891,2010-12-14T09:48:41.000,Telephone/Email,Fly-Tipping,Fly-Tipping,Resolved,,2010-12-14T13:47:38.000,06X,860 37TH ST,Wandsworth,London,Graveney,SW17 9AA
927623,2019-07-23T16:52:09.000,FixMyStreet,Streets - Street Deterioration,Street and Pavement Maintenance,In Progress,,,05X,1478 MANDELA PKWY,Wandsworth,London,West Putney,SW15 2AE
759707,2017-09-14T10:29:33.000,Online Form,Fly-Tipping,Fly-Tipping,Cancelled by Customer,,,,45TH STREET BETWEEN MLK AND TELEGRAPH,Wandsworth,London,East Putney,SW15 1AB
312728,2009-08-13T15:05:24.000,Telephone/Email,Fly-Tipping,Fly-Tipping,Resolved,,2009-08-15T10:45:22.000,31Z,560 105TH AV,Wandsworth,London,Graveney,SW17 9AA
316363,2009-09-23T11:21:39.000,Telephone/Email,Graffiti,Graffiti Removal,Resolved,,2009-09-28T09:41:37.000,12Y,5900 CANNING ST,Wandsworth,London,Southfields,SW19 6AA
659093,2016-06-07T14:48:58.000,FixMyStreet,Fly-Tipping,Fly-Tipping,Resolved,,2016-06-11T12:40:19.000,19X,1428 19TH AV,Wandsworth,London,Tooting,SW17 8AB
451462,2013-03-19T08:21:30.000,FixMyStreet,Street Lighting Fault,Street Lighting,Resolved,,2013-03-21T08:06:50.000,04X,344 20TH ST,Wandsworth,London,Wandsworth Town,SW18 4AA
846823,2018-10-14T15:22:05.000,Email,Fly-Tipping,Fly-Tipping,Cancelled by Customer,,,03X,6TH ST & HARRISON ST,Wandsworth,London,Bedford,SW12 8AC
951124,2019-10-07T11:19:15.000,Phone,Sewers - Blockage,Drainage,Resolved,,2019-11-04T13:40:56.000,09X,91 MONTE CRESTA AV,Wandsworth,London,Tooting,SW17 8AC
594653,2015-07-26T13:00:37.000,FixMyStreet,Inspections - Utility Wire,Public Right of Way,Referred to External Agency,"ROW_SHOES, COMCAST",,21X,E 17TH ST & 24TH AV,Wandsworth,London,Bedford,SW12 9AD
889538,2019-03-26T12:56:40.000,FixMyStreet,Fly-Tipping,Fly-Tipping,Resolved,,2019-03-29T10:48:59.000,17Y,3318 ELLIOT ST,Wandsworth,London,Southfields,SW18 5AC
915076,2019-06-13T20:37:08.000,FixMyStreet,Fly-Tipping,Fly-Tipping,Resolved,,2019-06-15T17:33:04.000,07X,BRUSH ST & 23RD ST,Wandsworth,London,East Putney,SW15 2AB
745691,2017-07-14T14:36:10.000,FixMyStreet,Fly-Tipping,Fly-Tipping,Resolved,,2017-07-17T20:25:46.000,06X,944 W MACARTHUR BLVD,Wandsworth,London,Queenstown,SW8 4AA
426403,2012-09-19T15:20:40.000,Telephone/Email,Litter - In Public Right of Way,Fly-Tipping,Resolved,,2012-09-26T16:58:34.000,30Y,2757 78TH AV,Wandsworth,London,East Putney,SW15 1AB
602288,2015-09-01T23:17:24.000,Online Form,Inspections - Utility-Related Infrastructure,Right of Way Inspectors,In Progress,,,27Y,5918 BROMLEY AV,Wandsworth,London,Wandsworth Town,SW18 4AC
568169,2015-02-23T08:00:34.000,FixMyStreet,Fly-Tipping,Fly-Tipping,Resolved,,2015-02-24T17:09:26.000,07X,BEACH ST & 34TH ST,Wandsworth,London,Wandsworth Common,SW12 8AH
955458,2019-10-22T10:27:56.000,Email,City Bldg - Key / Lock Management,Council Building Maintenance,Work Order Created,,,18Y,ERNEST A ROBINSON (MANZANITA) RECREATION CTR,Wandsworth,London,East Putney,SW15 1AB
340442,2010-06-24T11:07:30.000,Telephone/Email,Fly-Tipping,Fly-Tipping,Resolved,,2010-06-24T16:06:38.000,07X,931 28TH STREET,Wandsworth,London,West Putney,SW15 1AC
957789,2019-10-29T12:23:19.000,FixMyStreet,"Graffiti on Street, Street Light, Traffic Signal,",Graffiti Removal,Resolved,,2019-10-30T15:31:53.000,07X,24TH ST,Wandsworth,London,West Hill,SW15 3AC
660212,2016-06-13T07:04:41.000,FixMyStreet,Fly-Tipping,Fly-Tipping,Resolved,,2016-06-16T17:15:28.000,33X,939 88TH AV,Wandsworth,London,Southfields,SW18 5AB
848621,2018-10-22T15:34:59.000,FixMyStreet,Fly-Tipping,Fly-Tipping,Resolved,,2018-10-25T16:12:26.000,23X,WATTLING ST & 39TH AV,Wandsworth,London,Nightingale,SW12 8AD
449700,2013-03-06T12:28:15.000,Online Form,"City Bldg - Heating, Ventilation, and Cooling",Council Building Maintenance,Resolved,,2013-03-10T21:48:44.000,03X,MAIN LIBRARY,Wandsworth,London,Southfields,SW19 6AA
534651,2014-08-12T16:17:08.000,Phone,Tree - Pruning,Tree Maintenance,UNFUNDED,,,22X,2734 MACARTHUR BLVD,Wandsworth,London,West Putney,SW15 2AE
738305,2017-06-12T09:52:52.000,FixMyStreet,Illegal Dumping (report from SeeClickFix),Fly-Tipping,Cancelled by Customer,,,23X,700-798 37TH AVENUE,Wandsworth,London,Northcote,SW11 5AB
680790,2016-09-08T08:33:47.000,Phone,Fly-Tipping,Fly-Tipping,Resolved,,2016-09-12T16:47:36.000,31Z,805 PRUNE ST,Wandsworth,London,Graveney,SW17 9AB
910556,2019-06-03T16:27:52.000,FixMyStreet,Fly-Tipping,Fly-Tipping,Resolved,,2019-06-04T20:05:14.000,23X,3522 SAN LEANDRO ST,Wandsworth,London,West Hill,SW15 3AC
865621,2019-01-11T11:12:48.000,Phone,Tree - Pruning,Tree Maintenance,UNFUNDED,,,02Y,WILLOW PARK,Wandsworth,London,Tooting,SW17 8AB
341075,2010-07-05T11:12:08.000,Online Form,Streets/Sidewalks - Pathway Repair,Street and Pavement Maintenance,Resolved,,2010-07-14T09:22:07.000,14X,ASTRO PARK,Wandsworth,London,Northcote,SW11 5AB
481624,2013-09-19T11:28:13.000,Email,TE - Traffic Safety (non-emergency),Traffic Management,Work Order Created,,,13Z,COLTON BLVD & HEARTWOOD DR,Wandsworth,London,East Putney,SW15 2AA
839267,2018-09-10T14:34:02.000,FixMyStreet,Oakland Police - Abandoned Auto,OTHER,Referred to External Agency,"OPD ABANDONED AUTOS, PUBLIC",,21Y,3128 NICOL AVE,Wandsworth,London,Shaftesbury,SW11 2AE
417851,2012-07-18T12:33:36.000,Telephone/Email,Traffic Signal - Outage/Damaged,Street Lighting,Resolved,,2012-07-19T10:36:46.000,10X,SAN PABLO AV & STANFORD AV,Wandsworth,London,Tooting,SW17 7AA
446275,2013-02-09T16:52:55.000,FixMyStreet,Fly-Tipping,Fly-Tipping,Resolved,,2013-02-25T09:12:24.000,07X,HOLLIS ST & 34TH ST,Wandsworth,London,Bedford,SW12 8AB
461884,2013-05-22T10:21:58.000,Telephone/Email,Tree - Pruning,Tree Maintenance,UNFUNDED,,,10Y,4427 MARTIN LUTHER KING JR WY,Wandsworth,London,Tooting,SW17 8AA
697887,2016-12-09T10:05:44.000,Phone,Street Lighting Fault,Street Lighting,Resolved,,2016-12-14T07:18:50.000,31X,700 73RD AV,Wandsworth,London,Nightingale,SW12 8AD
780055,2017-12-14T14:47:33.000,FixMyStreet,Illegal Dumping � mattress/boxspring,Fly-Tipping,Resolved,,2017-12-27T16:57:37.000,07X,1165 26TH ST,Wandsworth,London,Southfields,SW19 6AA
342550,2010-07-20T08:33:52.000,Telephone/Email,Fly-Tipping,Fly-Tipping,Resolved,,2010-07-23T15:56:20.000,23X,WATTLING ST & 39TH AVE,Wandsworth,London,Southfields,SW18 5AB
800671,2018-03-12T15:09:50.000,Phone,Traffic - Repair Pavement Striping,Traffic Signage Issues,Resolved,,2018-04-18T15:23:07.000,30Y,2724 74TH AV,Wandsworth,London,Tooting,SW17 8AA
747870,2017-07-24T17:49:08.000,FixMyStreet,Illegal Dumping � mattress/boxspring,Fly-Tipping,Resolved,,2017-07-28T11:36:34.000,02Y,1479 12TH ST,Wandsworth,London,Furzedown,SW16 5AA
715259,2017-03-03T09:50:14.000,FixMyStreet,Fly-Tipping,Fly-Tipping,Resolved,,2017-03-25T16:19:43.000,20X,1218 25TH AV,Wandsworth,London,Bedford,SW12 8AC
817779,2018-06-05T08:32:29.000,FixMyStreet,Other City Services (app/web request),OTHER,Cancelled by Customer,,,03X,349�399 9TH ST,Wandsworth,London,Tooting,SW17 8AC
753132,2017-08-15T14:01:15.000,Phone,Fly-Tipping,Fly-Tipping,Resolved,,2017-08-16T21:28:34.000,23X,E 12TH ST & 42ND AV,Wandsworth,London,Shaftesbury,SW11 2AE
532400,2014-08-01T09:00:02.000,Telephone/Email,City Bldg - Electrical Inside/Outside,Council Building Maintenance,Resolved,,2014-08-08T11:06:26.000,04X,DALZIEL BUILDING,Wandsworth,London,Queenstown,SW8 3AA
434012,2012-11-14T16:52:33.000,Telephone/Email,TE - Traffic Control Plan Review,Traffic Management,Resolved,,2012-11-15T11:25:58.000,03X,800 FRANKLIN ST,Wandsworth,London,Tooting,SW17 8AC
709459,2017-02-08T08:17:16.000,Phone,Fly-Tipping,Fly-Tipping,Resolved,,2017-02-10T09:34:36.000,26X,50TH AV & E 10TH ST,Wandsworth,London,East Putney,SW15 1AA
823488,2018-06-30T16:13:34.000,FixMyStreet,"Graffiti on Street, Street Light, Traffic Signal,",Graffiti Removal,Cancelled by Customer,,,08X,MACARTHUR & BROADWAY,Wandsworth,London,Balham,SW12 0AB
900623,2019-05-01T10:32:34.000,FixMyStreet,Parking - Enforcement,Parking Enforcement,Cancelled by Customer,,,04X,16TH ST,Wandsworth,London,Graveney,SW17 9AB
588843,2015-06-25T16:30:40.000,Email,City Bldg - Clean / Custodial,Council Building Maintenance,Resolved,,2015-07-10T10:18:04.000,05X,DEFREMERY POOL,Wandsworth,London,Tooting,SW17 8AC
819340,2018-06-12T08:15:24.000,FixMyStreet,City Bldg - Clean / Custodial,Council Building Maintenance,Resolved,,2018-07-03T11:02:42.000,04X,250 FRANK H OGAWA PLZ,Wandsworth,London,East Putney,SW15 1AB
633958,2016-02-10T11:30:19.000,FixMyStreet,Fly-Tipping,Fly-Tipping,Resolved,,2016-02-14T15:39:39.000,25X,3521 HIGH ST,Wandsworth,London,Queenstown,SW8 3AB
493895,2013-12-08T10:31:20.000,FixMyStreet,Council Enforcement,OTHER,Referred to External Agency,Council Enforcement,,12X,4101 BROADWAY,Wandsworth,London,Bedford,SW12 8AA
796392,2018-02-25T10:39:52.000,FixMyStreet,Graffiti on Private Property,Graffiti Removal,Cancelled by Customer,,,,333 LANCASTER ST,Wandsworth,London,West Putney,SW15 1AD
778076,2017-12-04T12:54:02.000,Phone,Fly-Tipping,Fly-Tipping,Resolved,,2017-12-11T17:48:39.000,05Y,1727 17TH ST,Wandsworth,London,Shaftesbury,SW11 1AC
381812,2011-09-13T15:55:54.000,Online Form,City Bldg - Key / Lock Management,Public Facility Maintenance,Resolved,,2011-11-03T11:14:19.000,,OAKLAND MUSEUM,Wandsworth,London,Roehampton and Putney Heath,SW15 5AB
404170,2012-04-10T09:34:29.000,Telephone/Email,Litter - In Public Right of Way,Fly-Tipping,Resolved,,2012-04-27T13:28:09.000,27Y,5201 BANCROFT AV,Wandsworth,London,Southfields,SW18 5AC
615324,2015-11-05T14:20:19.000,FixMyStreet,Graffiti in a Park,Council Building Maintenance,Resolved,,2015-11-06T14:12:26.000,32X,HOLLY MINI PARK,Wandsworth,London,Earlsfield,SW18 3AA
748413,2017-07-26T14:57:06.000,Phone,Tree - Pruning,Tree Maintenance,UNFUNDED,,,32Y,2816 OLIVER AV,Wandsworth,London,Graveney,SW17 0AB
665403,2016-07-04T07:47:46.000,Online Form,Fly-Tipping,Fly-Tipping,Resolved,,2016-07-05T17:06:32.000,30X,BANCROFT AV & RITCHIE ST,Wandsworth,London,Fairfield,SW18 1AC
803349,2018-03-26T11:47:13.000,FixMyStreet,Graffiti on Private Property,Graffiti Removal,Resolved,,2018-03-28T11:54:34.000,31Y,617 98TH AV,Wandsworth,London,Queenstown,SW8 4AB
353441,2010-11-22T12:18:01.000,Telephone/Email,Fly-Tipping,Fly-Tipping,Resolved,,2010-11-22T16:07:09.000,17X,11TH AVE & E 20TH ST,Wandsworth,London,Balham,SW12 9AA
379499,2011-08-19T10:42:49.000,Telephone/Email,Street Lighting Fault,Street Lighting,Resolved,,2011-08-29T14:52:52.000,13Z,201 PERSHING DR,Wandsworth,London,Southfields,SW18 5AC
666971,2016-07-10T20:51:49.000,Online Form,Fly-Tipping,Fly-Tipping,Cancelled by Customer,,,07X,30TH ST & PERALTA ST,Wandsworth,London,Southfields,SW18 5AA
340805,2010-06-29T13:15:43.000,Telephone/Email,Illegal Dumping � mattress/boxspring,Fly-Tipping,Resolved,,2010-07-01T16:22:12.000,21Y,EAST 22ND ST & AUSTIN ST,Wandsworth,London,Tooting,SW17 8AB
472950,2013-07-31T14:22:16.000,Telephone/Email,Streets - Potholes/Depression,Street and Pavement Maintenance,Resolved,,2013-08-07T13:50:24.000,27Y,2134 62ND AV,Wandsworth,London,East Putney,SW15 1AB
738842,2017-06-14T10:19:52.000,FixMyStreet,Council Enforcement,OTHER,Referred to External Agency,Council Enforcement,,08X,401 40TH ST,Wandsworth,London,Shaftesbury,SW11 2AE
568061,2015-02-21T11:10:15.000,FixMyStreet,Streets/Sidewalks - Pooling Water,Street and Pavement Maintenance,Cancelled by Customer,,,06X,3703 MARKET ST,Wandsworth,London,Queenstown,SW8 4AB
429867,2012-10-15T16:02:38.000,Telephone/Email,Council Enforcement,OTHER,Referred to External Agency,Council Enforcement,,21X,2330 MITCHELL ST,Wandsworth,London,West Putney,SW15 2AF
846773,2018-10-14T10:58:02.000,FixMyStreet,Fly-Tipping,Fly-Tipping,Resolved,,2018-10-15T20:22:44.000,33X,ELLINGTON WY & 92ND AV,Wandsworth,London,Southfields,SW18 5AA
895995,2019-04-16T15:05:54.000,Phone,"Graffiti on Street, Street Light, Traffic Signal,",Graffiti Removal,Resolved,,2019-04-17T14:44:33.000,22X,2734 MACARTHUR BLVD,Wandsworth,London,Northcote,SW11 6AA
500111,2014-01-23T14:00:43.000,FixMyStreet,Blocked Drains,Blocked Drains,Resolved,,2014-01-31T09:20:42.000,13Z,SKYLINE BLVD & TOTTERDELL ST,Wandsworth,London,Balham,SW12 0AA
732767,2017-05-18T09:13:55.000,FixMyStreet,Council Enforcement,OTHER,Referred to External Agency,Council Enforcement,,27X,5219 FOOTHILL BLVD,Wandsworth,London,Graveney,SW17 0AC
635920,2016-02-20T11:50:35.000,FixMyStreet,Fly-Tipping,Fly-Tipping,Resolved,,2016-02-24T14:31:41.000,22Y,3000 GUIDO ST,Wandsworth,London,Northcote,SW11 6AA
886938,2019-03-18T08:41:45.000,FixMyStreet,Graffiti on Private Property,Graffiti Removal,Resolved,,2019-03-19T15:23:50.000,06X,629 37TH ST,Wandsworth,London,Bedford,SW12 8AC
579248,2015-04-28T16:30:37.000,FixMyStreet,Traffic Signal - Outage/Damaged,Street Lighting,Resolved,,2015-04-30T07:12:15.000,04X,LAKE MERRITT BLVD,Wandsworth,London,Tooting,SW17 8AB
384428,2011-10-05T20:44:01.000,Online Form,Litter - In Public Right of Way,Fly-Tipping,Resolved,,2011-10-06T15:22:53.000,28X,COURTLAND AV & BROOKDALE AV,Wandsworth,London,West Putney,SW15 1AC
508571,2014-03-20T06:51:50.000,FixMyStreet,EBMUD issue,OTHER,Referred to External Agency,Thames Water,,05X,LINDEN ST & 21ST ST,Wandsworth,London,Graveney,SW17 9AB
734289,2017-05-24T12:46:00.000,Online Form,City Bldg - Plumbing,Council Building Maintenance,Cancelled by Customer,,,27X,MELROSE LIBRARY,Wandsworth,London,Graveney,SW17 0AC
901653,2019-05-04T13:56:26.000,FixMyStreet,"Graffiti on Street, Street Light, Traffic Signal,",Graffiti Removal,Resolved,,2019-05-07T15:10:16.000,06X,3443 MARKET ST,Wandsworth,London,Balham,SW12 9AB
725434,2017-04-13T16:07:56.000,Phone,Parking - Meter Maintenance,Pay-and-Display Machine Repair,Resolved,,2017-12-19T08:54:12.000,03X,7TH ST & WEBSTER ST,Wandsworth,London,Bedford,SW12 8AC
966936,2019-12-03T22:04:12.000,FixMyStreet,Graffiti on Traffic Sign(s),Traffic Signage Issues,Under Review,,,03Y,BRUSH ST,Wandsworth,London,West Putney,SW15 2AF
716957,2017-03-10T11:29:26.000,FixMyStreet,Council Enforcement,OTHER,Referred to External Agency,Council Enforcement,,09X,4012 BROADWAY,Wandsworth,London,Nightingale,SW12 8AF
621699,2015-12-08T18:50:12.000,FixMyStreet,Fly-Tipping,Fly-Tipping,Resolved,,2015-12-11T16:48:54.000,07X,3003 FILBERT ST,Wandsworth,London,Wandsworth Common,SW17 7AE
890426,2019-03-29T07:34:39.000,FixMyStreet,Fly-Tipping,Fly-Tipping,Resolved,,2019-04-02T19:14:25.000,25X,MOUNTAIN BLVD & RUSTING AVE,Wandsworth,London,Nightingale,SW12 8AE
436553,2012-12-04T09:13:22.000,Telephone/Email,Litter - Street Litter Container,Fly-Tipping,Resolved,,2012-12-04T15:52:45.000,12Y,COLLEGE AV & CLAREMONT AV,Wandsworth,London,Southfields,SW18 5AB
718288,2017-03-15T12:44:54.000,Phone,Parking - Meter Maintenance,Pay-and-Display Machine Repair,Resolved,,2017-09-05T08:06:52.000,03Y,661 WASHINGTON ST,Wandsworth,London,East Putney,SW15 1AB
381306,2011-09-06T14:03:39.000,Telephone/Email,Litter - In Public Right of Way,Fly-Tipping,Resolved,,2011-09-07T20:41:32.000,24X,2169 SANTA RITA ST,Wandsworth,London,Shaftesbury,SW11 2AE
504664,2014-02-23T09:10:26.000,FixMyStreet,Council Enforcement,OTHER,Referred to External Agency,Council Enforcement,,20X,333 LANCASTER ST,Wandsworth,London,Bedford,SW12 8AA
799900,2018-03-08T12:32:32.000,Phone,Illegal Dumping � mattress/boxspring,Fly-Tipping,Resolved,,2018-03-13T11:10:32.000,21Y,LOGAN ST & FRUITVALE AV,Wandsworth,London,West Hill,SW15 3AB
684069,2016-09-23T10:24:14.000,FixMyStreet,Fly-Tipping,Fly-Tipping,Resolved,,2016-09-25T08:15:01.000,07X,825 ISABELLA ST,Wandsworth,London,East Putney,SW15 1AB
856102,2018-11-28T08:48:06.000,Phone,Illegal Dumping � mattress/boxspring,Fly-Tipping,Resolved,,2018-12-04T16:02:02.000,06X,819 31ST ST,Wandsworth,London,Graveney,SW17 9AA
797505,2018-02-26T09:29:10.000,FixMyStreet,Parking - Enforcement,Traffic Management,Cancelled by Customer,,,31Y,300 CLARA STREET,Wandsworth,London,East Putney,SW15 2AC
565621,2015-02-05T20:20:16.000,FixMyStreet,"Graffiti on Street, Street Light, Traffic Signal,",Graffiti Removal,Resolved,,2015-02-20T19:03:13.000,05X,18TH ST & MANDELA PKWY,Wandsworth,London,West Putney,SW15 2AE
514682,2014-04-24T14:02:51.000,Online Form,Inspections - Construction Obstructing ROW,Right of Way Inspectors,In Progress,,,13Z,1023 GLENCOURT DR,Wandsworth,London,East Putney,SW15 1AA
316574,2009-09-24T16:05:33.000,Telephone/Email,Fly-Tipping,Fly-Tipping,Resolved,,2009-09-27T13:58:33.000,20X,2600 E. 16TH ST.,Wandsworth,London,Bedford,SW12 8AB
415525,2012-07-02T14:24:06.000,Telephone/Email,Graffiti in a Park,Council Building Maintenance,Resolved,,2012-07-25T09:32:37.000,21Y,CURT FLOOD FIELD (AKA FRUITVALE FIELD),Wandsworth,London,Roehampton and Putney Heath,SW15 4AB
546968,2014-10-21T16:31:37.000,Phone,Illegal Dumping � green waste,Fly-Tipping,Resolved,,2014-10-24T16:10:41.000,18X,1740 E 21ST ST,Wandsworth,London,Northcote,SW11 6AB
621423,2015-12-07T14:53:43.000,Online Form,City Bldg - Key / Lock Management,Council Building Maintenance,Resolved,,2016-01-03T10:09:30.000,05X,WEST OAKLAND LIBRARY,Wandsworth,London,Roehampton and Putney Heath,SW15 4AC
335414,2010-04-29T14:36:32.000,Telephone/Email,Tree - Pruning,Tree Maintenance,Resolved,,2011-05-04T09:35:00.000,11X,BUSHROD PARK,Wandsworth,London,Balham,SW12 9AB
676673,2016-08-20T12:34:33.000,FixMyStreet,TE - Parking (On Street),Parking Enforcement,In Progress,,,08X,3000 RICHMOND BLVD,Wandsworth,London,Tooting,SW17 7AA
452707,2013-03-26T18:55:01.000,Online Form,Traffic Signal - Outage/Damaged,Street Lighting,Resolved,,2013-03-28T12:04:06.000,22Y,REDWOOD RD & ALISO AV,Wandsworth,London,Tooting,SW17 7AB
363859,2011-03-17T09:36:32.000,Telephone/Email,Building - Structural Issue,Council Building Maintenance,Resolved,,2011-03-23T08:06:16.000,27Y,RAINBOW REC CNTR,Wandsworth,London,Roehampton and Putney Heath,SW15 4AA
811419,2018-05-03T11:36:45.000,FixMyStreet,Fly-Tipping,Fly-Tipping,Resolved,,2018-05-04T16:10:08.000,05Y,20TH ST & WOOD ST,Wandsworth,London,Tooting,SW17 8AB
862082,2018-12-27T10:46:12.000,FixMyStreet,Council Enforcement,OTHER,Referred to External Agency,Council Enforcement,,21X,2794 GARDEN ST,Wandsworth,London,St Mary's Park,SW11 4AA
649033,2016-04-20T13:40:17.000,FixMyStreet,"Graffiti on Street, Street Light, Traffic Signal,",Graffiti Removal,Resolved,,2016-05-03T08:02:42.000,15X,2000 LAKESHORE AVE,Wandsworth,London,East Putney,SW15 2AB
353346,2010-11-22T09:01:35.000,Telephone/Email,Plumbing - City Facility or Park,Council Building Maintenance,Resolved,,2010-11-30T09:29:05.000,02Y,WILLOW PARK,Wandsworth,London,Tooting,SW17 7AB
606236,2015-09-22T11:14:29.000,Phone,Fly-Tipping,Fly-Tipping,Resolved,,2015-09-25T16:49:15.000,33X,95TH AV & A ST,Wandsworth,London,Southfields,SW19 6AB
396584,2012-02-07T09:11:26.000,Telephone/Email,Litter - In Public Right of Way,Fly-Tipping,Resolved,,2012-02-08T15:18:35.000,30Y,8110 MACARTHUR BLVD,Wandsworth,London,Balham,SW12 9AA
318287,2009-10-13T11:57:05.000,Telephone/Email,Storm Drains - Clogged / Flooding,Blocked Drains,Resolved,,2009-10-15T17:03:34.000,12Y,CLAREMONT AV & TELEGRAPH AV,Wandsworth,London,Northcote,SW11 6AB
359424,2011-02-01T08:42:00.000,Telephone/Email,Illegal Dumping � mattress/boxspring,Fly-Tipping,Resolved,,2011-02-02T21:13:07.000,24X,4150 CARRINGTON ST,Wandsworth,London,Nightingale,SW12 8AD
312170,2009-08-07T13:15:46.000,Telephone/Email,Fly-Tipping,Fly-Tipping,Resolved,,2009-08-18T17:26:06.000,27Y,1630 62  ND AVE,Wandsworth,London,East Putney,SW15 1AA
493600,2013-12-05T14:00:13.000,Phone,City Bldg - Other,Council Building Maintenance,Cancelled by Customer,,2013-12-06T07:25:51.000,14X,MACARTHUR BLVD & GRAND AV,Wandsworth,London,East Putney,SW15 1AB
967554,2019-12-05T14:49:50.000,FixMyStreet,Parking - Abandoned Vehicle,Community Safety,Under Review,,,09X,261 MATHER ST,Wandsworth,London,Bedford,SW12 9AE
704236,2017-01-14T13:55:13.000,FixMyStreet,Fly-Tipping,Fly-Tipping,Resolved,,2017-01-17T17:23:45.000,05Y,FRONTAGE RD & 14TH ST,Wandsworth,London,Tooting,SW17 8AC
584640,2015-06-01T12:34:51.000,Phone,Fly-Tipping,Fly-Tipping,Resolved,,2015-06-03T11:37:59.000,15X,HANOVER AV & LESTER AV,Wandsworth,London,West Putney,SW15 1AD
476451,2013-08-20T13:09:32.000,Online Form,Fly-Tipping,Fly-Tipping,Cancelled by Customer,,,26X,47TH AV & E 12TH ST,Wandsworth,London,West Putney,SW15 1AC
642445,2016-03-20T17:00:19.000,FixMyStreet,Fly-Tipping,Fly-Tipping,Cancelled by Customer,,,21Y,3001 HYDE ST,Wandsworth,London,East Putney,SW15 1AA
371406,2011-05-27T09:26:34.000,Telephone/Email,Litter - In Public Right of Way,Fly-Tipping,Resolved,,2011-05-31T15:15:22.000,09X,FAIRMONT DR & MOSS AV,Wandsworth,London,East Putney,SW15 1AB
607459,2015-09-28T10:45:06.000,Online Form,Fly-Tipping,Fly-Tipping,Cancelled by Customer,,,22Y,3800 MOUNTAIN BLVD,Wandsworth,London,Graveney,SW17 0AB
715164,2017-03-02T16:32:20.000,FixMyStreet,Union Pacific issue,OTHER,Referred to External Agency,"UNION PACIFIC RAILWAY,",,23X,ELMWOOD AV & FRUITVALE AV,Wandsworth,London,Bedford,SW12 9AE
935240,2019-08-15T16:34:33.000,FixMyStreet,Fly-Tipping,Fly-Tipping,Resolved,,2019-08-18T23:53:51.000,27X,45TH AV & BOND ST,Wandsworth,London,Nightingale,SW12 9AG
675051,2016-08-12T13:03:19.000,Telephone/Email,Traffic - Sign Damage,Traffic Signage Issues,Resolved,,2016-08-15T13:56:29.000,03Y,11TH ST & BROADWAY,Wandsworth,London,Southfields,SW19 6AA
552572,2014-11-25T17:10:15.000,FixMyStreet,Fly-Tipping,Fly-Tipping,Resolved,,2014-12-01T15:37:12.000,06X,28TH ST & SAN PABLO AV,Wandsworth,London,Tooting,SW17 8AA
716357,2017-03-08T11:19:30.000,FixMyStreet,Other (report from SeeClickFix,OTHER,Cancelled by Customer,,,08X,GROVE SHAFTER FREEWAY,Wandsworth,London,Tooting,SW17 7AB
882990,2019-03-04T09:35:16.000,FixMyStreet,Streets - Potholes/Depression,Street and Pavement Maintenance,Resolved,,2019-09-17T19:00:14.000,07X,30TH ST & ADELINE ST,Wandsworth,London,Queenstown,SW8 4AA
782775,2017-12-27T14:44:08.000,FixMyStreet,Traffic Signal - Outage/Damaged,Street Lighting,Resolved,,2018-01-02T08:37:13.000,02X,1396 5TH ST,Wandsworth,London,Wandsworth Town,SW18 4AA
884891,2019-03-10T11:26:02.000,FixMyStreet,Fly-Tipping,Fly-Tipping,Resolved,,2019-03-14T15:41:01.000,10X,6040 SAN PABLO AVE,Wandsworth,London,Southfields,SW19 6AB
749935,2017-08-02T10:55:49.000,Online Form,City Bldg - Clean / Custodial,Council Building Maintenance,Cancelled by Customer,,,04X,250 FRANK H OGAWA PLZ,Wandsworth,London,West Hill,SW15 3AC
423752,2012-08-30T11:25:56.000,Telephone/Email,Park - Mowing,Parks Maintenance,Cancelled by Customer,,,30X,ARROYO VIEJO HEAD START CENTER,Wandsworth,London,Graveney,SW17 9AB
817471,2018-06-04T08:58:25.000,Phone,Tree - Pruning,Tree Maintenance,Resolved,,2018-09-05T14:10:41.000,34X,1901 85TH AV,Wandsworth,London,Shaftesbury,SW11 2AD
656910,2016-05-28T08:44:50.000,FixMyStreet,"Graffiti on Street, Street Light, Traffic Signal,",Graffiti Removal,Resolved,,2016-06-01T15:04:45.000,19X,433 INTERNATIONAL BLVD,Wandsworth,London,Wandsworth Common,SW12 8AG
441288,2013-01-09T08:18:04.000,Telephone/Email,Oakland Police - Abandoned Auto,OTHER,Referred to External Agency,"OPD ABANDONED AUTOS, PUBLIC",,31Z,BERNHARDT DR & FOSTER AV,Wandsworth,London,East Putney,SW15 2AA
677079,2016-08-22T15:04:59.000,Online Form,Human Waste in Public-Right-of-Way,OTHER,Referred to External Agency,"ADVANCE CRIME SCENE, RESTORATION EST",,10Y,ARLINGTON AV & MARTIN LUTHER KING JR WY,Wandsworth,London,Northcote,SW11 5AB
457115,2013-04-23T18:11:36.000,FixMyStreet,Tree - Pruning,Tree Maintenance,Resolved,,2013-04-29T10:35:00.000,15X,ATHOL AV & CLEVELAND AV,Wandsworth,London,West Putney,SW15 1AD
927051,2019-07-22T12:26:59.000,FixMyStreet,Parking - Abandoned Vehicle,Community Safety,Cancelled by Customer,,,22X,2792 MONTANA ST,Wandsworth,London,Northcote,SW11 6AC
423506,2012-08-29T09:13:31.000,Telephone/Email,Recycling - Cart Request,Recycling,Resolved,,2012-09-04T13:52:14.000,14Y,777 RAND AV,Wandsworth,London,West Putney,SW15 1AC
507114,2014-03-10T21:21:05.000,FixMyStreet,Caltrans issue,OTHER,Referred to External Agency,Transport for London (TfL),,14X,ORANGE ST & PERRY PL,Wandsworth,London,Wandsworth Town,SW18 3AD
789111,2018-01-23T15:48:11.000,Phone,City Bldg - Plumbing,Council Building Maintenance,Resolved,,2018-02-05T12:15:57.000,31Y,EAST OAKLAND MULTIPURPOSE SENIOR CTR (BROOKFIELD),Wandsworth,London,Nightingale,SW12 8AF
898675,2019-04-24T21:09:52.000,FixMyStreet,Rough Sleeping Report,Environmental Hygiene,Cancelled by Customer,,,16Y,3409 RANDOLPH AV,Wandsworth,London,Tooting,SW17 8AB
791492,2018-02-02T08:16:21.000,Phone,Fly-Tipping,Fly-Tipping,Cancelled by Customer,,,27Y,2451 SEMINARY AV,Wandsworth,London,Queenstown,SW8 4AA
639874,2016-03-08T14:23:43.000,Online Form,Fly-Tipping,Fly-Tipping,Cancelled by Customer,,,,86 STREET AND B STREET EAST OAKLAND,Wandsworth,London,Southfields,SW19 6AA
594620,2015-07-25T23:29:21.000,Online Form,Caltrans issue,OTHER,Referred to External Agency,Transport for London (TfL),,11X,584 55TH ST,Wandsworth,London,Roehampton and Putney Heath,SW15 4AA
958080,2019-10-30T11:47:43.000,Phone,Traffic Signal - Outage/Damaged,Street Lighting,Resolved,,2019-10-31T07:57:33.000,12Y,CLAREMONT AV & COLBY ST,Wandsworth,London,Tooting,SW17 8AC
807148,2018-04-13T12:04:56.000,FixMyStreet,Illegal Dumping � mattress/boxspring,Fly-Tipping,Resolved,,2018-04-16T16:45:37.000,21X,2601 E 20TH ST,Wandsworth,London,West Hill,SW18 1AD
491384,2013-11-21T16:33:40.000,Telephone/Email,Recycling Hotline - Pub Ed Materials,Recycling,Resolved,,2013-11-21T16:33:50.000,,3622 KINGSLEY ST,Wandsworth,London,Tooting,SW17 7AB
560857,2015-01-13T10:17:37.000,Phone,Traffic Signal - Outage/Damaged,Street Lighting,Resolved,,2015-01-22T07:47:56.000,11X,52ND ST & SHATTUCK AV,Wandsworth,London,Southfields,SW19 6AB
415209,2012-06-29T09:40:44.000,Online Form,Weed Abatement - Public Right of Way,Vegetation and Weed Clearance,Resolved,,2013-01-24T13:58:48.000,21Y,2105 WOODBINE AV,Wandsworth,London,Earlsfield,SW18 4AB
563297,2015-01-26T12:23:40.000,Phone,Fly-Tipping,Fly-Tipping,Resolved,,2015-01-27T17:24:54.000,26X,E 8TH ST & 50TH AV,Wandsworth,London,Southfields,SW18 5AC
533061,2014-08-05T08:14:26.000,Phone,Illegal Dumping � mattress/boxspring,Fly-Tipping,Resolved,,2014-08-06T14:51:47.000,29X,6126 OAKDALE AV,Wandsworth,London,Nightingale,SW12 8AF
852345,2018-11-08T11:16:07.000,FixMyStreet,Fly-Tipping,Fly-Tipping,Resolved,,2018-11-10T05:56:57.000,08X,WEBSTER ST & 36TH ST,Wandsworth,London,Earlsfield,SW18 4AA
924074,2019-07-12T14:21:14.000,FixMyStreet,Fly-Tipping,Fly-Tipping,Resolved,,2019-07-21T12:13:55.000,30Y,8040 CREST AVE,Wandsworth,London,West Hill,SW18 1AE
879659,2019-02-19T13:56:40.000,Phone,Manhole Cover - Missing,Drainage,Resolved,,2019-02-26T10:57:42.000,31X,8102 OAKPORT ST,Wandsworth,London,Queenstown,SW8 4AB
853391,2018-11-14T09:29:01.000,FixMyStreet,Parking - Enforcement,Parking Enforcement,Resolved,,2018-11-14T16:44:48.000,08X,WEBSTER ST,Wandsworth,London,Northcote,SW11 6AB
433994,2012-11-14T15:44:43.000,Telephone/Email,Traffic Signal - Outage/Damaged,Street Lighting,Resolved,,2012-11-15T08:22:15.000,26Y,69TH AV & SAN LEANDRO ST,Wandsworth,London,Southfields,SW18 5AC
577430,2015-04-18T09:40:33.000,FixMyStreet,Pothole (report from SeeClickFix),Street and Pavement Maintenance,Cancelled by Customer,,,,3011 CHAPMAN ST,Wandsworth,London,Bedford,SW12 9AD
840327,2018-09-14T10:38:16.000,FixMyStreet,Fly-Tipping,Fly-Tipping,Resolved,,2018-09-17T07:21:08.000,07X,WEST ST & ISABELLA ST,Wandsworth,London,Northcote,SW11 6AC
547593,2014-10-25T15:22:18.000,Online Form,Litter - Green Bag Pickup,Fly-Tipping,Resolved,,2014-10-28T16:58:39.000,22X,MONTANA ST & FLAGG AV,Wandsworth,London,Southfields,SW18 5AB
659551,2016-06-09T10:01:13.000,Phone,Tree - Broken/Hanging Limb,Tree Maintenance,Resolved,,2016-06-09T13:37:25.000,07X,1565 32ND ST,Wandsworth,London,Tooting,SW17 7AA
846169,2018-10-11T08:05:00.000,Email,Fly-Tipping,Fly-Tipping,Resolved,,2018-10-14T18:51:52.000,33X,INTERNATIONAL BLVD & 91ST AVE,Wandsworth,London,Bedford,SW12 8AC
579737,2015-05-01T10:10:49.000,Phone,Streets - Potholes/Depression,Street and Pavement Maintenance,Resolved,,2015-09-04T09:09:11.000,04X,17TH ST & TELEGRAPH AV,Wandsworth,London,Fairfield,SW18 2AB
811924,2018-05-06T20:35:55.000,FixMyStreet,Illegal Dumping � mattress/boxspring,Fly-Tipping,Resolved,,2018-05-15T15:01:33.000,31Z,RUSSETT ST & 105TH AV,Wandsworth,London,Northcote,SW11 6AB
785746,2018-01-09T14:58:38.000,Phone,Tree - Pruning,Tree Maintenance,UNFUNDED,,,06X,2580 SAN PABLO AV,Wandsworth,London,Graveney,SW17 9AA
598526,2015-08-13T10:50:16.000,FixMyStreet,Parks and Street Medians - Irrigation,Parks Maintenance,Resolved,,2015-10-02T13:43:42.000,18X,SAN ANTONIO PARK,Wandsworth,London,Northcote,SW11 5AB
702079,2017-01-04T18:09:35.000,FixMyStreet,Litter - Street Litter Container - Overflowing/Mis,Fly-Tipping,Resolved,,2017-01-09T16:51:27.000,20X,300 DERBY AV,Wandsworth,London,Tooting,SW17 7AA
673392,2016-08-05T10:52:39.000,Phone,City Bldg - Plumbing,Council Building Maintenance,Resolved,,2016-09-06T06:15:38.000,14X,LAKESIDE PARK - SAILBOAT HOUSE,Wandsworth,London,East Putney,SW15 1AB
802935,2018-03-23T07:58:10.000,Email,Graffiti on Public Property,OTHER,Resolved,,2018-04-17T09:15:45.000,03X,919 HARRISON ST,Wandsworth,London,Southfields,SW19 6AA
831723,2018-08-06T07:10:49.000,FixMyStreet,Illegal Dumping � mattress/boxspring,Fly-Tipping,Resolved,,2018-08-20T17:25:13.000,02Y,712 CAMPBELL ST,Wandsworth,London,East Putney,SW15 1AA
585709,2015-06-08T09:06:57.000,Phone,Fly-Tipping,Fly-Tipping,Resolved,,2015-06-10T16:27:04.000,19X,11TH AV & E 12TH ST,Wandsworth,London,Tooting,SW17 7AA
612485,2015-10-22T11:31:40.000,Online Form,Fly-Tipping,Fly-Tipping,Resolved,,2015-10-24T09:43:00.000,15X,MACARTHUR BLVD & WESLEY AV,Wandsworth,London,Tooting,SW17 7AB
543626,2014-10-01T13:30:21.000,FixMyStreet,Fly-Tipping,Fly-Tipping,Resolved,,2014-10-04T15:58:02.000,03X,735 WEBSTER ST,Wandsworth,London,Graveney,SW17 0AB
665455,2016-07-04T16:25:22.000,FixMyStreet,Graffiti in a Park,Council Building Maintenance,Resolved,,2016-07-14T15:14:29.000,13Y,CALDECOTT PARK (N OAKLAND SPORTS FIELD),Wandsworth,London,East Putney,SW15 1AB
583037,2015-05-22T06:00:41.000,FixMyStreet,Illegal Dumping (report from SeeClickFix),Fly-Tipping,Resolved,,2015-05-24T16:16:00.000,22Y,3044 GUIDO ST,Wandsworth,London,Shaftesbury,SW11 1AA
579394,2015-04-29T11:48:49.000,Phone,Streets - Potholes/Depression,Street and Pavement Maintenance,Resolved,,2016-07-11T19:36:49.000,04X,20TH ST & TELEGRAPH AV,Wandsworth,London,Northcote,SW11 5AA
329511,2010-02-23T09:07:08.000,Online Form,Pests in Park,Council Building Maintenance,Resolved,,2010-03-03T12:54:48.000,14X,568 BELLEVUE AVE,Wandsworth,London,Roehampton and Putney Heath,SW15 4AC
332622,2010-03-26T10:15:45.000,Telephone/Email,Building Maintenance - General,Parks Maintenance,Cancelled by Customer,,,03X,MAIN LIBRARY,Wandsworth,London,West Putney,SW15 1AC
581025,2015-05-09T14:32:58.000,FixMyStreet,Graffiti on Traffic Sign(s),Traffic Signage Issues,Resolved,,2015-05-29T08:32:49.000,10Y,5776 GENOA ST,Wandsworth,London,West Putney,SW15 2AE
351202,2010-10-26T08:54:18.000,Telephone/Email,Pedestrian Signal - Broken/Damaged,Street Lighting,Resolved,,2010-10-27T07:25:30.000,04X,16TH ST & TELEGRAPH AV,Wandsworth,London,Tooting,SW17 7AB
813151,2018-05-11T12:24:53.000,FixMyStreet,Illegal Dumping � mattress/boxspring,Fly-Tipping,Resolved,,2018-05-13T15:28:20.000,24X,2056 36TH AV,Wandsworth,London,West Hill,SW18 1AD
764069,2017-10-04T11:12:40.000,Other,Graffiti in a Park,Council Building Maintenance,Resolved,,2018-07-10T09:39:08.000,19X,UNION POINT PARK,Wandsworth,London,Southfields,SW18 5AA
954000,2019-10-17T09:01:17.000,Phone,Rough Sleeping Report,Environmental Hygiene,Cancelled by Customer,,,12Y,BROADWAY & BROADWAY TER,Wandsworth,London,West Putney,SW15 2AF
614552,2015-11-02T14:49:48.000,Phone,Streets/Sidewalks - Pooling Water,Street and Pavement Maintenance,In Progress,,,03X,12TH ST & HARRISON ST,Wandsworth,London,Northcote,SW11 6AA
651775,2016-05-03T11:29:10.000,Online Form,City Bldg - Key / Lock Management,Council Building Maintenance,Resolved,,2016-05-08T10:17:26.000,30Y,EASTMONT LIBRARY,Wandsworth,London,Southfields,SW19 6AB
375826,2011-07-14T12:13:02.000,Telephone/Email,City Bldg - Electrical Inside/Outside,Council Building Maintenance,Resolved,,2011-07-18T10:49:01.000,04X,150 FRANK H OGAWA PLAZA,Wandsworth,London,Queenstown,SW8 4AA
706891,2017-01-27T11:46:31.000,Phone,"Tree - Diseased, Dead, Dying, Leaning, or Split",Tree Maintenance,In Progress,,,25X,6401 LEONA ST,Wandsworth,London,West Putney,SW15 1AD
758994,2017-09-11T17:09:31.000,FixMyStreet,Illegal Dumping (report from SeeClickFix),Fly-Tipping,Cancelled by Customer,,,24X,2080 35TH AVE,Wandsworth,London,Balham,SW12 0AB
859710,2018-12-13T16:06:23.000,Email,Tree - Broken/Hanging Limb,Tree Maintenance,Resolved,,2018-12-14T15:07:52.000,35Y,4507 SAINT ANDREWS RD,Wandsworth,London,Furzedown,SW16 6AC
846319,2018-10-11T14:05:05.000,FixMyStreet,Graffiti on Public Property,OTHER,Resolved,,2018-10-12T15:24:36.000,09X,3504 RICHMOND BLVD,Wandsworth,London,Tooting,SW17 7AB
673206,2016-08-04T15:39:58.000,Online Form,City Bldg - Clean / Custodial,Council Building Maintenance,Resolved,,2016-08-31T06:46:43.000,03X,MAIN LIBRARY,Wandsworth,London,Bedford,SW12 8AB
353920,2010-12-01T10:28:12.000,Telephone/Email,Fly-Tipping,Fly-Tipping,Cancelled by Customer,,,10X,951 61ST ST PL,Wandsworth,London,Southfields,SW18 5AA
752892,2017-08-14T14:47:35.000,Email,"Graffiti on Street, Street Light, Traffic Signal,",Graffiti Removal,Resolved,,2017-08-15T15:22:13.000,28X,REDDING ST & COURTLAND AV,Wandsworth,London,West Hill,SW18 1AE
655443,2016-05-21T14:48:43.000,FixMyStreet,Fly-Tipping,Fly-Tipping,Resolved,,2016-05-26T16:35:56.000,21X,2751 26TH AVE,Wandsworth,London,Northcote,SW11 5AB
934086,2019-08-12T17:31:10.000,FixMyStreet,Parking - Abandoned Vehicle,Community Safety,Resolved,,2019-10-24T16:43:02.000,11X,728 61ST ST,Wandsworth,London,Tooting,SW17 7AA
887929,2019-03-20T14:26:59.000,Phone,Street Cleaning - Complaints,Environmental Services,Resolved,,2019-05-08T11:38:26.000,20X,2879 E 17TH ST,Wandsworth,London,Earlsfield,SW18 3AB
375365,2011-07-11T08:49:56.000,Telephone/Email,Litter - In Public Right of Way,Fly-Tipping,Resolved,,2011-07-12T13:10:30.000,35X,8755 FONTAINE ST,Wandsworth,London,Tooting,SW17 8AB
951480,2019-10-08T09:13:38.000,FixMyStreet,Weed Abatement - Public Right of Way,Vegetation and Weed Clearance,Resolved,,2019-10-14T15:11:44.000,02Y,1451 7TH ST,Wandsworth,London,West Putney,SW15 2AE
792377,2018-02-06T13:51:35.000,Phone,Fly-Tipping,Fly-Tipping,Resolved,,2018-02-06T19:02:57.000,26Y,1182 64TH AV,Wandsworth,London,Tooting,SW17 7AB
332127,2010-03-22T09:16:06.000,Telephone/Email,Animal and Insect Control,OTHER,Resolved,,2010-03-22T09:16:06.000,32Y,106TH AV & LONGFELLOW AV,Wandsworth,London,Furzedown,SW16 6AA
663546,2016-06-25T21:15:26.000,FixMyStreet,"Graffiti on Street, Street Light, Traffic Signal,",Graffiti Removal,Resolved,,2016-07-19T05:35:47.000,12X,41ST ST & SHAFTER AV,Wandsworth,London,Southfields,SW18 5AC
449887,2013-03-07T11:32:45.000,Telephone/Email,Illegal Dumping � mattress/boxspring,Fly-Tipping,Resolved,,2013-03-08T16:44:16.000,21Y,NICOL AV & CUTHBERT AV,Wandsworth,London,West Putney,SW15 2AF
562035,2015-01-20T08:48:13.000,Phone,Caltrans issue,OTHER,Referred to External Agency,Transport for London (TfL),,26X,HIGH ST & COLISEUM WY,Wandsworth,London,Bedford,SW12 8AA
740833,2017-06-23T12:30:28.000,Online Form,Illegal Dumping � mattress/boxspring,Fly-Tipping,Resolved,,2017-06-27T19:10:08.000,05Y,WILLOW ST & W GRAND AV,Wandsworth,London,East Putney,SW15 1AB
617265,2015-11-15T09:20:17.000,FixMyStreet,Council Enforcement,OTHER,Referred to External Agency,Council Enforcement,,20X,333 LANCASTER ST,Wandsworth,London,Queenstown,SW8 3AA
708601,2017-02-03T13:25:26.000,Phone,City Bldg - Clean / Custodial,Council Building Maintenance,Resolved,,2017-03-06T10:13:59.000,13Z,MONTCLAIR PARK,Wandsworth,London,Latchmere,SW11 3AB
926424,2019-07-19T15:28:24.000,Email,Fly-Tipping,Fly-Tipping,Resolved,,2019-07-22T20:09:59.000,06X,600 SYCAMORE ST,Wandsworth,London,Queenstown,SW8 4AA
941871,2019-09-06T08:02:08.000,FixMyStreet,Fly-Tipping,Fly-Tipping,Resolved,,2019-09-10T20:17:15.000,21X,E 17TH ST & 23RD AV,Wandsworth,London,Southfields,SW19 6AB
399415,2012-03-04T18:31:18.000,Online Form,Street Lighting Fault,Street Lighting,Resolved,,2012-04-02T07:51:41.000,16X,630 MANDANA BLVD,Wandsworth,London,Balham,SW12 0AB
364140,2011-03-21T08:36:14.000,Telephone/Email,Litter - In Public Right of Way,Fly-Tipping,Resolved,,2011-03-21T14:48:23.000,21X,23RD AV & E 19TH ST,Wandsworth,London,West Putney,SW15 2AF
691582,2016-11-01T15:26:47.000,Email,TE - Traffic Signal Request (non-emergency),Traffic Management,Cancelled by Customer,,,12X,40TH ST & TELEGRAPH AV,Wandsworth,London,Tooting,SW17 7AA
776142,2017-11-27T06:32:08.000,FixMyStreet,Litter in Parks,Parks Maintenance,Resolved,,2018-01-03T14:12:51.000,02Y,SOUTH PRESCOTT PARK AKA CRESCENT PARK,Wandsworth,London,Tooting,SW17 7AA
559998,2015-01-08T12:20:22.000,FixMyStreet,Fly-Tipping,Fly-Tipping,Resolved,,2015-01-11T15:59:52.000,06X,3437 WEST ST,Wandsworth,London,Southfields,SW18 5AB
504243,2014-02-20T05:30:41.000,FixMyStreet,Illegal Dumping � green waste,Fly-Tipping,Resolved,,2014-02-27T16:47:11.000,20X,DEL MONTE AV & ELMWOOD AV,Wandsworth,London,Northcote,SW11 6AB
566242,2015-02-09T18:39:25.000,Online Form,TE - Parking (On Street),Traffic Management,Cancelled by Customer,,,,24 & 25 AVE ON EAST 21ST,Wandsworth,London,Bedford,SW12 8AC
670443,2016-07-25T08:26:53.000,FixMyStreet,Rough Sleeping Report,Fly-Tipping,Cancelled by Customer,,,19X,1717 EMBARCADERO,Wandsworth,London,Nightingale,SW12 8AD
534732,2014-08-13T09:10:20.000,FixMyStreet,Illegal Dumping � green waste,Fly-Tipping,Resolved,,2014-08-16T09:46:20.000,07X,HAVEN ST & PERALTA ST,Wandsworth,London,Queenstown,SW8 4AA
627388,2016-01-11T15:50:16.000,FixMyStreet,Oakland Police - Abandoned Auto,OTHER,Referred to External Agency,"OPD ABANDONED AUTOS, PUBLIC",,28X,4458 FLEMING AV,Wandsworth,London,Bedford,SW12 8AA
736604,2017-06-03T19:27:40.000,FixMyStreet,Illegal Dumping (report from SeeClickFix),Fly-Tipping,Cancelled by Customer,,,,8701-8745 FONTAINE STREET,Wandsworth,London,East Putney,SW15 1AB
955028,2019-10-21T09:58:46.000,Email,Street Medians (Landscaped),Parks Maintenance,Resolved,,2019-11-06T11:44:09.000,33X,89TH AVE & INTERNATIONAL BLVD,Wandsworth,London,Wandsworth Town,SW18 3AE
482038,2013-09-22T11:11:54.000,FixMyStreet,"Graffiti on Street, Street Light, Traffic Signal,",Graffiti Removal,Resolved,,2013-10-01T15:03:02.000,32Y,106TH AV & PERALTA OAKS DR,Wandsworth,London,Tooting,SW17 7AA
327852,2010-02-03T14:31:29.000,Telephone/Email,Streets/Sidewalks - Unsafe Condition,Public Right of Way,Resolved,,2010-08-24T16:55:45.000,12Y,5429 SHAFTER AV,Wandsworth,London,West Putney,SW15 2AD
889809,2019-03-27T09:56:08.000,Phone,Fly-Tipping,Fly-Tipping,Resolved,,2019-04-02T09:35:18.000,24Y,3536 ALLENDALE AV,Wandsworth,London,Bedford,SW12 9AE
767408,2017-10-18T15:00:20.000,FixMyStreet,Fly-Tipping,Fly-Tipping,Cancelled by Customer,,,06X,MARTIN LUTHER KING JR WAY & 35TH ST,Wandsworth,London,Graveney,SW17 9AA
585569,2015-06-06T11:50:45.000,FixMyStreet,Graffiti (report from SeeClickFix),Council Building Maintenance,Resolved,,2015-06-23T15:19:26.000,04X,2136-2178 HARRISON STREET,Wandsworth,London,Southfields,SW19 6AB
474309,2013-08-08T09:33:27.000,Online Form,TE - Traffic Safety (non-emergency),Traffic Management,Work Order Created,,,13Y,1871 GRAND VIEW DR,Wandsworth,London,West Hill,SW15 3AC
513947,2014-04-21T08:49:47.000,Email,Engineering Issues,OTHER,In Progress,,,24Y,35TH AV & SCHOOL ST,Wandsworth,London,Fairfield,SW18 2AB
557390,2014-12-23T11:37:50.000,Email,Council Enforcement,OTHER,Referred to External Agency,Council Enforcement,,20X,3136 INTERNATIONAL BLVD,Wandsworth,London,Tooting,SW17 8AC
642992,2016-03-22T20:10:26.000,FixMyStreet,Graffiti on Traffic Sign(s),Traffic Signage Issues,Resolved,,2016-03-29T11:26:48.000,14Y,150 SANTA CLARA AV,Wandsworth,London,Bedford,SW12 8AC
903857,2019-05-11T09:44:18.000,FixMyStreet,Animal and Insect Control,OTHER,Referred to External Agency,RSPCA,,12Y,CLAREMONT AV & CAVOUR ST,Wandsworth,London,Southfields,SW19 6AA
394047,2012-01-12T18:17:25.000,Online Form,Street Lighting Fault,Street Lighting,Cancelled by Customer,,,12X,412 41ST ST,Wandsworth,London,Balham,SW12 0AA
392176,2011-12-22T11:37:59.000,Telephone/Email,Litter - In Public Right of Way,Fly-Tipping,Resolved,,2012-01-04T07:36:37.000,06X,33RD ST & WEST ST,Wandsworth,London,East Putney,SW15 2AB
800224,2018-03-09T16:12:31.000,Telephone Voicemail,Compost - Missed Pickup,Recycling,Resolved,,2018-03-19T11:01:25.000,24X,1932 41ST AV,Wandsworth,London,Nightingale,SW12 9AG
455291,2013-04-12T15:53:09.000,Telephone/Email,Street Medians (Landscaped),Parks Maintenance,Resolved,,2013-08-06T13:23:58.000,25X,HIGH ST & MASTERSON ST,Wandsworth,London,Tooting,SW17 8AC
568831,2015-02-26T09:06:01.000,FixMyStreet,Graffiti on Traffic Sign(s),Traffic Signage Issues,Resolved,,2015-04-15T11:20:16.000,14X,46 VERNON ST,Wandsworth,London,Queenstown,SW8 4AA
524171,2014-06-17T20:40:17.000,FixMyStreet,Fly-Tipping,Parks Maintenance,Resolved,,2014-06-22T15:24:15.000,26X,OAKPORT ST & 66TH AV,Wandsworth,London,West Putney,SW15 2AF
508070,2014-03-17T11:47:18.000,Phone,Vegetation Mgmt - Complaints (Fire Hazard),Fire Safety Reports,Referred to External Agency,"VEGETATION MANAGEMENT, FIRE",,25X,5230 LEONA ST,Wandsworth,London,Wandsworth Town,SW18 3AE
431110,2012-10-23T13:23:00.000,Telephone/Email,Litter - In Public Right of Way,Fly-Tipping,Resolved,,2012-10-25T16:55:49.000,24Y,35TH AVE  & SCHOOL ST,Wandsworth,London,East Putney,SW15 1AA
961063,2019-11-11T09:48:25.000,FixMyStreet,Illegal Dumping � green waste,Fly-Tipping,Cancelled by Customer,,,15X,1944-1998 LAKESHORE AVE,Wandsworth,London,Southfields,SW18 5AA
753381,2017-08-16T12:30:09.000,Online Form,City Bldg - Plumbing,Council Building Maintenance,Cancelled by Customer,,,25X,REDWOOD HEIGHTS CENT,Wandsworth,London,Tooting,SW17 7AA
788189,2018-01-19T15:57:24.000,FixMyStreet,Fly-Tipping,Fly-Tipping,Resolved,,2018-02-11T15:15:39.000,07X,1401-1499 26TH ST,Wandsworth,London,West Hill,SW15 3AC
481219,2013-09-17T14:16:06.000,Phone,Traffic Signal - Outage/Damaged,Street Lighting,Resolved,,2013-09-20T07:30:39.000,03X,BROADWAY & 12TH ST,Wandsworth,London,West Hill,SW15 3AA
569036,2015-02-27T09:34:18.000,Phone,Traffic Signal - Outage/Damaged,Street Lighting,Resolved,,2015-03-02T07:38:58.000,21Y,FOOTHILL BLVD & FRUITVALE AV,Wandsworth,London,Roehampton and Putney Heath,SW15 4AC
684544,2016-09-26T12:50:37.000,Online Form,"City Bldg - Heating, Ventilation, and Cooling",Council Building Maintenance,Resolved,,2016-10-13T06:09:54.000,31X,FIRE STATION 27,Wandsworth,London,Wandsworth Town,SW18 3AD
640413,2016-03-10T11:43:58.000,Phone,Tree - Limb Down,Tree Maintenance,Resolved,,2016-03-17T15:08:55.000,25X,4046 MAYBELLE AV,Wandsworth,London,Graveney,SW17 0AA
346320,2010-09-01T10:08:07.000,Telephone/Email,Tree - Pruning,Tree Maintenance,Resolved,,2010-12-20T14:24:39.000,16Y,1501 EXCELSIOR AV,Wandsworth,London,Northcote,SW11 6AA
705491,2017-01-21T11:00:11.000,Online Form,Streets - Potholes/Depression,Street and Pavement Maintenance,Cancelled by Customer,,,,GOULDIN ROAD,Wandsworth,London,Southfields,SW19 6AB
320126,2009-10-29T12:23:47.000,Telephone/Email,Sewers - Tap inspection,Drainage,Resolved,,2009-10-29T12:35:51.000,18Y,2124 E 23RD ST,Wandsworth,London,Roehampton and Putney Heath,SW15 5AB
963150,2019-11-18T13:03:06.000,FixMyStreet,Street Cleaning,Environmental Services,In Progress,,,30Y,2719 74TH AVE,Wandsworth,London,Wandsworth Common,SW17 7AE
559099,2015-01-05T11:13:12.000,Phone,CityBldg - Missed Garbage Pickup from WMAC,Recycling,Resolved,,2015-01-07T14:47:40.000,01X,JACK LONDON AQUATICS CENTER,Wandsworth,London,East Putney,SW15 2AC
649923,2016-04-25T10:50:28.000,Other,Hazardous Materials,Fire Safety Reports,Resolved,,2016-05-24T10:23:25.000,22X,FLAGG AV & MONTANA ST,Wandsworth,London,West Putney,SW15 1AC
623316,2015-12-17T09:11:40.000,Online Form,Vector Control issue,OTHER,Referred to External Agency,"ALAMEDA COUNTY VECTOR CONTROL,",,01X,JACK LONDON AQUATICS CENTER,Wandsworth,London,Wandsworth Town,SW18 3AE
694506,2016-11-17T14:24:36.000,FixMyStreet,Sewers - Blockage,Drainage,Resolved,,2016-11-21T14:20:49.000,17Y,1401 E 31ST ST,Wandsworth,London,East Putney,SW15 2AB
756174,2017-08-29T10:18:50.000,FixMyStreet,Council Enforcement,OTHER,Referred to External Agency,Council Enforcement,,30Y,7620 HILLSIDE ST,Wandsworth,London,Southfields,SW19 6AA
323840,2009-12-14T10:33:59.000,Telephone/Email,Fly-Tipping,Fly-Tipping,Resolved,,2009-12-15T13:38:15.000,05Y,15TH ST & WOOD ST,Wandsworth,London,West Hill,SW15 3AB
346978,2010-09-13T09:34:16.000,Telephone/Email,Shrine Removal With OPD,Fly-Tipping,Resolved,,2010-09-16T21:12:30.000,02Y,10TH ST & WILLOW ST,Wandsworth,London,East Putney,SW15 1AB
794113,2018-02-13T17:32:07.000,Telephone/Email,TE - Parking (On Street),Parking Enforcement,Resolved,,2018-07-25T14:27:47.000,14X,16 VERNON ST,Wandsworth,London,Northcote,SW11 6AA
921523,2019-07-05T08:39:15.000,Phone,Litter - Street Litter Container - Broken,Fly-Tipping,Resolved,,2019-07-09T10:06:19.000,30Y,MACARTHUR BLVD & PARKER AVE,Wandsworth,London,Bedford,SW12 9AD
783389,2017-12-29T18:54:06.000,Online Form,Other City Services (app/web request),OTHER,Cancelled by Customer,,,14X,STATEN AV & GRAND AV,Wandsworth,London,East Putney,SW15 1AA
422346,2012-08-20T14:22:06.000,Telephone/Email,Blocked Drains,Blocked Drains,Resolved,,2012-08-30T14:46:35.000,35Y,11205 GOLF LINKS RD,Wandsworth,London,East Putney,SW15 2AB
867998,2019-01-19T13:20:10.000,FixMyStreet,Illegal Dumping � mattress/boxspring,Fly-Tipping,Cancelled by Customer,,,,1200 LAKESHORE AVE,Wandsworth,London,Tooting,SW17 8AA
506279,2014-03-05T10:20:32.000,FixMyStreet,Traffic Engineering - Other/Complex,Traffic Management,Work Order Created,,,23X,HOWARD ST & HIGH ST,Wandsworth,London,Graveney,SW17 9AB
835555,2018-08-22T15:45:53.000,FixMyStreet,Graffiti in a Park,Council Building Maintenance,Resolved,,2019-02-08T09:07:56.000,19X,LAKESIDE PARK,Wandsworth,London,West Hill,SW18 1AE
857414,2018-12-03T15:32:32.000,FixMyStreet,Oakland Police - Abandoned Auto,OTHER,Referred to External Agency,"OPD ABANDONED AUTOS, PUBLIC",,22Y,2899 DELAWARE ST,Wandsworth,London,Northcote,SW11 6AC
501952,2014-02-04T15:38:12.000,Phone,Parking - Meter Maintenance,Pay-and-Display Machine Repair,Resolved,,2014-02-14T11:16:26.000,03X,10TH ST & WEBSTER ST,Wandsworth,London,Graveney,SW17 9AB
431659,2012-10-27T10:01:04.000,FixMyStreet,Illegal Dumping (report from SeeClickFix),Fly-Tipping,Resolved,,2012-11-05T16:38:40.000,07X,1075 35TH ST.,Wandsworth,London,East Putney,SW15 2AB
498668,2014-01-14T12:33:43.000,Phone,Hazardous Materials,Fire Safety Reports,Resolved,,2014-03-18T13:56:14.000,31Y,720 NEVADA ST,Wandsworth,London,Shaftesbury,SW11 1AB
469580,2013-07-10T19:12:12.000,FixMyStreet,Council Enforcement,OTHER,Referred to External Agency,Council Enforcement,,18Y,1738 E 24TH ST,Wandsworth,London,Tooting,SW17 8AB
525722,2014-06-26T09:03:55.000,Email,Litter in Parks,Parks Maintenance,Resolved,,2014-07-11T08:58:58.000,02X,LOWELL PARK,Wandsworth,London,Northcote,SW11 6AC
559219,2015-01-05T14:53:48.000,Phone,Illegal Dumping � green waste,Fly-Tipping,Resolved,,2015-01-14T18:03:22.000,34X,SUNNYSIDE ST & 90TH AV,Wandsworth,London,Nightingale,SW12 8AF
456841,2013-04-22T15:00:02.000,Telephone/Email,Garbage Service Issue (not at City facility),Recycling,Resolved,,2013-04-22T15:00:07.000,,ZZ,Wandsworth,London,Northcote,SW11 5AB
656216,2016-05-24T22:36:59.000,FixMyStreet,"Graffiti on Street, Street Light, Traffic Signal,",Graffiti Removal,Resolved,,2016-05-26T15:10:10.000,20X,INTERNATIONAL BLVD & 23RD AV,Wandsworth,London,East Putney,SW15 2AB
794607,2018-02-16T09:36:26.000,FixMyStreet,Fly-Tipping,Fly-Tipping,Resolved,,2018-02-21T14:54:17.000,19X,1036 E 8TH ST,Wandsworth,London,West Putney,SW15 1AC
740468,2017-06-22T08:21:51.000,Online Form,Illegal Dumping � green waste,Fly-Tipping,Resolved,,2017-06-24T15:46:46.000,05Y,CAMPBELL ST & W GRAND AV,Wandsworth,London,East Putney,SW15 1AB
612874,2015-10-24T10:30:42.000,FixMyStreet,Graffiti on Traffic Sign(s),Traffic Signage Issues,Resolved,,2015-11-13T10:30:38.000,09X,PIEDMONT AV & RIDGEWAY AV,Wandsworth,London,Nightingale,SW12 8AD
414624,2012-06-25T20:10:11.000,FixMyStreet,Litter - In Public Right of Way,Fly-Tipping,Resolved,,2012-07-02T06:30:25.000,10X,61ST PL & LOWELL,Wandsworth,London,East Putney,SW15 2AC
345374,2010-08-20T14:51:49.000,Telephone/Email,Streets/Sidewalks - Unsafe Condition,Public Right of Way,Resolved,,2010-08-24T16:57:56.000,16Y,1290 BATES RD,Wandsworth,London,East Putney,SW15 1AB
508013,2014-03-17T09:30:55.000,FixMyStreet,Fly-Tipping,Fly-Tipping,Resolved,,2014-03-18T17:15:15.000,12X,552 42ND ST,Wandsworth,London,East Putney,SW15 2AC
816420,2018-05-29T15:38:15.000,Phone,Fly-Tipping,Fly-Tipping,Resolved,,2018-06-14T11:09:34.000,02Y,5TH ST & CENTER ST,Wandsworth,London,Nightingale,SW12 8AE
488351,2013-10-31T08:01:50.000,FixMyStreet,Fly-Tipping,Fly-Tipping,Resolved,,2013-11-04T12:43:40.000,20X,1842 28TH AV,Wandsworth,London,East Putney,SW15 2AA
581732,2015-05-13T12:38:55.000,Online Form,City Bldg - Key / Lock Management,Council Building Maintenance,Resolved,,2015-05-20T14:17:03.000,03Y,POLICE ADMIN BLDG,Wandsworth,London,Wandsworth Common,SW17 7AE
361077,2011-02-16T08:23:26.000,Telephone/Email,Fly-Tipping,Fly-Tipping,Resolved,,2011-02-17T20:18:53.000,05Y,CAMPBELL ST & 18TH ST,Wandsworth,London,Roehampton and Putney Heath,SW15 4AB
517833,2014-05-13T16:00:18.000,FixMyStreet,Fly-Tipping,Fly-Tipping,Cancelled by Customer,,,04X,1451 HARRISON ST,Wandsworth,London,Tooting,SW17 7AA
617320,2015-11-15T12:30:17.000,FixMyStreet,Fly-Tipping,Fly-Tipping,Resolved,,2015-11-20T11:08:37.000,11X,778 61ST ST,Wandsworth,London,West Hill,SW18 1AE
487325,2013-10-24T08:13:59.000,Phone,Street Medians (Landscaped),Parks Maintenance,Resolved,,2013-10-25T08:00:44.000,35X,92ND AV & BANCROFT AV,Wandsworth,London,Furzedown,SW16 6AB
940043,2019-08-30T11:36:05.000,FixMyStreet,Fly-Tipping,Fly-Tipping,Cancelled by Customer,,,33X,1164 86TH AVE,Wandsworth,London,West Hill,SW15 3AB
552766,2014-11-29T10:30:14.000,FixMyStreet,Illegal Dumping � mattress/boxspring,Fly-Tipping,Resolved,,2014-12-01T16:17:29.000,21Y,COOLIDGE AV & NICOL AV,Wandsworth,London,Furzedown,SW16 6AB
660104,2016-06-11T21:22:59.000,FixMyStreet,Fly-Tipping,Fly-Tipping,Cancelled by Customer,,,35X,3400 CALANDRIA AV,Wandsworth,London,Northcote,SW11 6AC
495037,2013-12-16T14:33:52.000,Telephone/Email,Traffic - Repair Pavement Striping,Traffic Signage Issues,Resolved,,2013-12-24T08:56:35.000,12X,SHATTUCK AND 52ND,Wandsworth,London,Roehampton and Putney Heath,SW15 5AB
760990,2017-09-20T08:03:48.000,FixMyStreet,Rough Sleeping Report,Fly-Tipping,Cancelled by Customer,,,07X,HOLLIS ST & W MACARTHUR BLVD,Wandsworth,London,Shaftesbury,SW11 1AC
810562,2018-04-30T11:43:46.000,Phone,City Bldg - Structural Issue,Council Building Maintenance,Cancelled by Customer,,,11X,BUSHROD RECREATION CENTER,Wandsworth,London,Graveney,SW17 0AB
447439,2013-02-19T10:29:31.000,Online Form,Litter - Street Litter Container,Fly-Tipping,Resolved,,2013-02-25T09:12:24.000,22Y,3465 MACARTHUR BLVD,Wandsworth,London,Tooting,SW17 8AB
654056,2016-05-16T06:51:45.000,FixMyStreet,Illegal Dumping � mattress/boxspring,Fly-Tipping,Resolved,,2016-05-19T17:35:08.000,27X,51ST AV & YGNACIO AV,Wandsworth,London,East Putney,SW15 2AA
23205,2010-08-24T16:56:31.000,Telephone/Email,Construction and Demolition Recycling,Recycling,Resolved,,2010-08-24T16:56:33.000,,ZZ,Wandsworth,London,Northcote,SW11 6AC
486486,2013-10-18T08:12:58.000,Phone,Illegal Dumping � mattress/boxspring,Fly-Tipping,Resolved,,2013-10-21T14:11:33.000,27X,5014 BANCROFT AV,Wandsworth,London,Roehampton and Putney Heath,SW15 4AB
587695,2015-06-19T11:45:21.000,Phone,Sewers - Blockage,Drainage,Resolved,,2015-06-23T09:34:00.000,25X,4112 PATTERSON AV (CROSS STREET IS HARBOR VIEW AVENUE),Wandsworth,London,Tooting,SW17 8AC
561598,2015-01-16T11:40:24.000,FixMyStreet,"Graffiti on Street, Street Light, Traffic Signal,",Graffiti Removal,Resolved,,2015-01-23T17:29:52.000,17Y,IVY AND  PARK BOULEVARD,Wandsworth,London,Tooting,SW17 7AA
450702,2013-03-13T11:49:30.000,Telephone/Email,Oakland Police - Abandoned Auto,OTHER,Referred to External Agency,"OPD ABANDONED AUTOS, PUBLIC",,19X,2311 EMBARCADERO,Wandsworth,London,Southfields,SW19 6AA
486503,2013-10-18T09:06:05.000,Email,Illegal Dumping � mattress/boxspring,Fly-Tipping,Resolved,,2013-10-21T16:59:03.000,35Y,SKYLINE BLVD & KELLER AV,Wandsworth,London,Furzedown,SW16 5AA
941591,2019-09-05T09:36:18.000,Phone,Fly-Tipping,Fly-Tipping,Resolved,,2019-09-10T20:16:09.000,31Y,SAN LEANDRO ST & 85TH AV,Wandsworth,London,Tooting,SW17 8AB
880038,2019-02-20T14:24:50.000,Email,Fly-Tipping,Fly-Tipping,Resolved,,2019-02-22T13:20:42.000,,2350 FOOTHILL BLVD,Wandsworth,London,Fairfield,SW18 1AA
403646,2012-04-05T15:41:55.000,Telephone/Email,TE - Other Traffic Engineering Issues,Traffic Management,Resolved,,2013-07-03T09:03:47.000,04X,15TH ST & FRANKLIN ST,Wandsworth,London,Bedford,SW12 8AA
461612,2013-05-21T07:02:18.000,FixMyStreet,Pothole (report from SeeClickFix),Street and Pavement Maintenance,In Progress,,,20X,3014 CHAPMAN ST,Wandsworth,London,Tooting,SW17 7AB
876978,2019-02-14T17:29:44.000,FixMyStreet,Illegal Dumping � mattress/boxspring,Fly-Tipping,Resolved,,2019-02-20T16:18:25.000,06X,35TH ST & MLK JR WY,Wandsworth,London,Southfields,SW19 6AB
645138,2016-04-02T11:50:44.000,Online Form,EBMUD issue,OTHER,Referred to External Agency,Thames Water,,08X,497 36TH ST,Wandsworth,London,Northcote,SW11 6AA
728758,2017-05-01T08:34:05.000,Telephone Voicemail,Traffic Signal - Outage/Damaged,Street Lighting,Resolved,,2017-05-02T12:46:20.000,20X,29TH AV & INTERNATIONAL BLVD,Wandsworth,London,Graveney,SW17 9AB
582240,2015-05-18T09:21:56.000,Phone,Fly-Tipping,Fly-Tipping,Resolved,,2015-05-19T17:14:32.000,32X,1124 98TH AV,Wandsworth,London,East Putney,SW15 1AA
709441,2017-02-08T07:35:13.000,FixMyStreet,Illegal Dumping (Enforcement Potential),Fly-Tipping,Resolved,,2017-02-09T16:40:40.000,04X,410 15TH ST,Wandsworth,London,Tooting,SW17 7AB
361348,2011-02-17T15:08:31.000,Telephone/Email,Illegal Dumping � mattress/boxspring,Fly-Tipping,Resolved,,2011-02-18T18:06:21.000,14Y,495 ELWOOD AV,Wandsworth,London,Tooting,SW17 7AA
919834,2019-06-29T11:03:27.000,FixMyStreet,City Bldg - Key / Lock Management,Council Building Maintenance,In Progress,,,01X,JACK LONDON AQUATICS CENTER,Wandsworth,London,Graveney,SW17 0AC
895660,2019-04-15T16:11:29.000,FixMyStreet,Parking - Abandoned Vehicle,Community Safety,Cancelled by Customer,,,31Y,278 WISTAR RD,Wandsworth,London,Graveney,SW17 0AC
548855,2014-11-03T13:00:17.000,FixMyStreet,Fly-Tipping,Fly-Tipping,Resolved,,2014-11-04T17:43:46.000,22X,2432 MONTEREY BOULEVARD,Wandsworth,London,Bedford,SW12 9AD
343268,2010-07-27T15:31:31.000,Telephone/Email,Fly-Tipping,Fly-Tipping,Resolved,,2010-07-28T14:38:35.000,33X,1022 88TH AV,Wandsworth,London,Northcote,SW11 6AA
520324,2014-05-28T10:06:01.000,Phone,Fly-Tipping,Fly-Tipping,Resolved,,2014-05-29T18:08:52.000,32X,1373 107TH AV,Wandsworth,London,Bedford,SW12 8AC
320885,2009-11-05T10:39:30.000,Telephone/Email,Illegal Dumping � mattress/boxspring,Fly-Tipping,Resolved,,2009-11-06T17:49:08.000,07X,CAMPBELL ST & 24TH ST,Wandsworth,London,Northcote,SW11 5AA
673910,2016-08-08T11:23:49.000,Online Form,Fly-Tipping,Fly-Tipping,Resolved,,2016-08-11T16:21:47.000,26X,900 52ND AV,Wandsworth,London,West Hill,SW15 3AC
943728,2019-09-12T08:30:50.000,Other,City Bldg - Key / Lock Management,Council Building Maintenance,In Progress,,,08X,MOSSWOOD PARK,Wandsworth,London,Bedford,SW12 9AE
700143,2016-12-22T10:09:37.000,Phone,Recycling Hotline - Miscellaneous,Recycling,Resolved,,2016-12-22T10:09:50.000,15X,484 STOW AV,Wandsworth,London,Northcote,SW11 5AB
493002,2013-12-02T14:06:06.000,Online Form,City Bldg - Structural Issue,Council Building Maintenance,Resolved,,2013-12-13T06:18:35.000,14X,LAKESIDE PARK - SAILBOAT HOUSE,Wandsworth,London,Nightingale,SW12 9AF
702895,2017-01-09T10:38:15.000,Online Form,TE - Parking (On Street),Traffic Management,Cancelled by Customer,,,15X,90 ATHOL AV,Wandsworth,London,Southfields,SW18 5AC
851227,2018-11-04T07:57:18.000,FixMyStreet,Human Waste in Public-Right-of-Way,OTHER,Referred to External Agency,"ADVANCE CRIME SCENE, RESTORATION EST",,33X,OFFICER WILLIE WILKINS PARK (AKA ELMHURST),Wandsworth,London,Shaftesbury,SW11 2AE
582798,2015-05-20T14:37:30.000,Online Form,Fly-Tipping,Fly-Tipping,Resolved,,2015-05-22T16:23:16.000,18X,16TH AV & E 19TH ST,Wandsworth,London,West Putney,SW15 2AD
566830,2015-02-13T14:32:09.000,Phone,Fly-Tipping,Fly-Tipping,Resolved,,2015-02-14T15:33:59.000,28X,6116 SEMINARY AV,Wandsworth,London,Southfields,SW18 5AA
898226,2019-04-23T13:29:37.000,FixMyStreet,Streets - Potholes/Depression,Street and Pavement Maintenance,Resolved,,2019-05-30T18:00:00.000,26X,1309 52ND AVE,Wandsworth,London,Bedford,SW12 9AE
892664,2019-04-05T10:02:12.000,Telephone/Email,Parking - Abandoned Vehicle,Community Safety,Resolved,,2019-04-09T09:00:09.000,14Y,348 SANTA CLARA AV,Wandsworth,London,Southfields,SW19 6AA
583729,2015-05-27T08:31:25.000,FixMyStreet,Litter in Parks,Parks Maintenance,Resolved,,2015-06-01T11:28:34.000,08X,OAK GLEN PARK,Wandsworth,London,Southfields,SW18 5AA
521921,2014-06-04T15:53:08.000,Phone,Street Cleaning - Complaints,Environmental Services,Resolved,,2014-06-11T13:34:16.000,21X,2028 27TH AV,Wandsworth,London,Wandsworth Common,SW17 7AE
374405,2011-06-29T11:26:37.000,Telephone/Email,"City Bldg - Heating, Ventilation, and Cooling",Council Building Maintenance,Resolved,,2011-08-02T06:07:59.000,01X,FIRE TRAINING CENTER - MAIN BUILDING,Wandsworth,London,Queenstown,SW8 4AA
453525,2013-04-03T09:08:26.000,Telephone/Email,Street Medians (Landscaped),Parks Maintenance,Resolved,,2013-08-06T13:23:13.000,29X,PICARDY DR & SEMINARY AV,Wandsworth,London,Queenstown,SW8 3AB
866260,2019-01-14T13:02:34.000,Phone,Fly-Tipping,Fly-Tipping,Resolved,,2019-01-14T19:23:43.000,33X,89TH AV & G ST,Wandsworth,London,Queenstown,SW8 4AA
650976,2016-04-29T08:56:39.000,Phone,Illegal Dumping (Enforcement Potential),Fly-Tipping,Resolved,,2016-05-04T16:23:59.000,33X,948 91ST AV,Wandsworth,London,Graveney,SW17 0AC
772714,2017-11-09T11:06:31.000,FixMyStreet,Illegal Dumping � mattress/boxspring,Fly-Tipping,Resolved,,2017-11-13T16:06:22.000,17Y,2841 13TH AV,Wandsworth,London,Latchmere,SW11 3AA
869679,2019-01-21T16:05:46.000,FixMyStreet,Streets - Potholes/Depression,Street and Pavement Maintenance,Resolved,,2019-06-04T15:58:58.000,,5201-5291 PARK BLVD,Wandsworth,London,Shaftesbury,SW11 2AE
488009,2013-10-29T11:33:09.000,Phone,Miscellaneous,OTHER,Referred to External Agency,Royal Mail,,17X,1704 10TH AV,Wandsworth,London,East Putney,SW15 2AC
456783,2013-04-22T12:18:23.000,Telephone/Email,Park - Fence,Council Building Maintenance,Resolved,,2013-04-22T14:20:06.000,08X,MOSSWOOD PARK,Wandsworth,London,Tooting,SW17 8AB
643207,2016-03-23T16:19:29.000,Telephone/Email,Fly-Tipping,Fly-Tipping,Resolved,,2016-03-26T10:52:27.000,25X,3512 QUIGLEY ST,Wandsworth,London,Wandsworth Town,SW18 4AC
739497,2017-06-18T11:37:07.000,FixMyStreet,Fly-Tipping,Fly-Tipping,Resolved,,2017-06-20T16:30:29.000,11X,5700 SHATTUCK AV,Wandsworth,London,Northcote,SW11 6AA
483108,2013-09-27T15:58:48.000,Phone,Tree - Pruning,Tree Maintenance,Resolved,,2013-09-29T17:41:31.000,30X,1601 79TH AV,Wandsworth,London,East Putney,SW15 2AB
311684,2009-08-03T09:48:52.000,Telephone/Email,Traffic Signal - Outage/Damaged,Street Lighting,Resolved,,2009-08-03T09:49:34.000,12Y,COLLEGE & CLAREMONT,Wandsworth,London,Southfields,SW18 5AC
380596,2011-08-30T08:54:42.000,Telephone/Email,"Graffiti on Street, Street Light, Traffic Signal,",Graffiti Removal,Resolved,,2011-09-16T09:03:40.000,21Y,CHAMPION ST & HAROLD ST,Wandsworth,London,Nightingale,SW12 9AF
542214,2014-09-23T16:18:58.000,Online Form,Fly-Tipping,Fly-Tipping,Resolved,,2014-09-25T16:56:28.000,33X,9010 G ST,Wandsworth,London,Southfields,SW18 5AA
507863,2014-03-16T02:02:21.000,Online Form,Traffic - Sign Missing,Traffic Signage Issues,Resolved,,2014-03-28T09:19:20.000,10Y,42ND ST & MARTIN LUTHER KING JR WY,Wandsworth,London,Tooting,SW17 8AA
949132,2019-09-30T11:42:08.000,FixMyStreet,City Bldg - Appliance Issue,Council Building Maintenance,Resolved,,2019-10-08T09:22:10.000,04X,150 FRANK H OGAWA PLZ,Wandsworth,London,Tooting,SW17 7AB
689902,2016-10-23T14:46:55.000,FixMyStreet,Other (report from SeeClickFix,OTHER,Cancelled by Customer,,,02X,500-598 CASTRO ST,Wandsworth,London,Southfields,SW19 6AB
429294,2012-10-11T08:18:13.000,Telephone/Email,City Bldg - Plumbing,Council Building Maintenance,Resolved,,2012-12-11T10:45:06.000,26X,750 50TH AV,Wandsworth,London,West Putney,SW15 1AD
878782,2019-02-18T15:00:10.000,FixMyStreet,Fly-Tipping,Fly-Tipping,Cancelled by Customer,,,,15701-15703 SKYLINE BLVD,Wandsworth,London,East Putney,SW15 1AB
354136,2010-12-02T16:01:39.000,Telephone/Email,Fly-Tipping,Fly-Tipping,Resolved,,2010-12-05T12:34:46.000,10Y,45TH ST & LINDEN ST,Wandsworth,London,Northcote,SW11 5AB
329659,2010-02-23T15:30:12.000,Telephone/Email,Electrical - Inside/Outside Facility,Council Building Maintenance,Resolved,,2010-02-24T10:04:20.000,13Y,FIRE STATION 7,Wandsworth,London,Tooting,SW17 7AA
475360,2013-08-14T09:25:40.000,Phone,City Bldg - Structural Issue,Council Building Maintenance,Resolved,,2014-01-17T14:05:01.000,14X,LAKESIDE PARK - GARDEN CENTER,Wandsworth,London,Balham,SW12 9AA
704374,2017-01-16T11:32:20.000,FixMyStreet,Streets - Potholes/Depression,Street and Pavement Maintenance,Resolved,,2017-02-09T10:08:42.000,17Y,2982 PARK BLVD,Wandsworth,London,Northcote,SW11 5AA
825873,2018-07-11T10:04:53.000,Phone,PG&E,OTHER,Referred to External Agency,UK Power Networks,,08X,2933 HARRISON ST,Wandsworth,London,Tooting,SW17 7AB
375156,2011-07-07T10:38:28.000,Telephone/Email,Litter - In Public Right of Way,Fly-Tipping,Resolved,,2011-07-08T18:03:55.000,12Y,57TH ST & TELEGRAPH AV,Wandsworth,London,Southfields,SW19 6AA
388285,2011-11-11T08:11:56.000,Online Form,Street Lighting Fault,Street Lighting,Resolved,,2011-11-22T08:56:14.000,14Y,407 SUNNYSLOPE AV,Wandsworth,London,Earlsfield,SW18 3AA
916491,2019-06-18T14:34:20.000,Phone,Fly-Tipping,Fly-Tipping,Resolved,,2019-06-18T20:11:07.000,20X,E 12TH ST & 25TH AVE,Wandsworth,London,Northcote,SW11 6AC
838535,2018-09-06T08:25:36.000,FixMyStreet,Fly-Tipping,Fly-Tipping,Resolved,,2018-09-08T18:40:35.000,15X,1630 LAKESHORE AV,Wandsworth,London,Southfields,SW19 6AA
944449,2019-09-14T21:32:51.000,FixMyStreet,Fly-Tipping,Fly-Tipping,Resolved,,2019-09-19T15:52:30.000,06X,1075 40TH ST,Wandsworth,London,Shaftesbury,SW11 1AA
672765,2016-08-03T09:34:37.000,Online Form,Right of Way - Other/Complex,Right of Way Inspectors,In Progress,,,32X,INTERNATIONAL BLVD & 102ND AV,Wandsworth,London,East Putney,SW15 1AA
808465,2018-04-19T11:32:17.000,FixMyStreet,Sidewalk - Damage,Public Right of Way,Cancelled by Customer,,,32X,106TH AVE,Wandsworth,London,Bedford,SW12 9AD
950955,2019-10-06T17:14:32.000,FixMyStreet,Parking - Abandoned Vehicle,Community Safety,In Progress,,,05X,870 22ND ST,Wandsworth,London,East Putney,SW15 1AB
793503,2018-02-11T08:34:50.000,FixMyStreet,"Graffiti on Street, Street Light, Traffic Signal,",Graffiti Removal,Resolved,,2018-02-14T15:26:23.000,12X,41ST ST & BROADWAY,Wandsworth,London,Northcote,SW11 6AA
458662,2013-05-02T12:41:12.000,FixMyStreet,Graffiti on Traffic Sign(s),Traffic Signage Issues,Resolved,,2013-05-13T07:34:56.000,06X,3261 MARTIN LUTHER KING JR WAY,Wandsworth,London,Bedford,SW12 8AA
935204,2019-08-15T14:55:07.000,FixMyStreet,Parking - Abandoned Vehicle,Community Safety,Cancelled by Customer,,,24X,2055 39TH AVENUE OAKLAND,Wandsworth,London,Southfields,SW18 5AC
25148,2011-05-23T13:52:44.000,Telephone/Email,Garbage Service Issue (Residential),Recycling,Resolved,,2011-05-23T13:52:49.000,,ZZ,Wandsworth,London,Wandsworth Town,SW18 4AA
625178,2015-12-30T11:08:36.000,Online Form,Rough Sleeping Report,Fly-Tipping,Cancelled by Customer,,,06X,36TH ST & MARTIN LUTHER KING JR WAY,Wandsworth,London,Bedford,SW12 8AA
483725,2013-10-02T08:41:32.000,Phone,Vector Control issue,OTHER,Referred to External Agency,"ALAMEDA COUNTY VECTOR CONTROL,",,13X,5561 THOMAS AV,Wandsworth,London,Graveney,SW17 0AB
668761,2016-07-18T09:44:38.000,Phone,Trash/Compost - Abandoned Container,Recycling,Resolved,,2016-07-21T14:42:40.000,32Y,99TH AV & BIRCH ST,Wandsworth,London,Bedford,SW12 8AA
581961,2015-05-14T15:11:51.000,Phone,Board Up,Blocked Drains,Resolved,,2015-05-20T09:35:28.000,10Y,836 56TH ST,Wandsworth,London,Northcote,SW11 6AA
761724,2017-09-23T07:22:13.000,FixMyStreet,Illegal Dumping (report from SeeClickFix),Fly-Tipping,Cancelled by Customer,,,35Y,GOLDENROD TRAIL,Wandsworth,London,West Hill,SW18 1AE
378756,2011-08-11T13:05:22.000,Telephone/Email,Tree - Down,Tree Maintenance,Resolved,,2011-08-17T10:22:23.000,15X,MACARTHUR BLVD & EXCELSIOR CT,Wandsworth,London,East Putney,SW15 2AB
628129,2016-01-14T15:26:20.000,Online Form,City Bldg - Clean / Custodial,Council Building Maintenance,Resolved,,2016-02-10T06:55:11.000,04X,LIONEL J WILSON BUILDING,Wandsworth,London,West Hill,SW18 1AD
445611,2013-02-06T05:53:30.000,FixMyStreet,Illegal Dumping � mattress/boxspring,Fly-Tipping,Resolved,,2013-03-08T16:36:35.000,25X,4000 REDDING AV,Wandsworth,London,East Putney,SW15 1AA
741502,2017-06-27T09:40:59.000,Phone,Fly-Tipping,Fly-Tipping,Resolved,,2017-06-27T19:10:24.000,27Y,55TH AV & SCOVILLE ST,Wandsworth,London,Tooting,SW17 7AB
486911,2013-10-21T16:21:00.000,FixMyStreet,Litter - Street Litter Container,Fly-Tipping,Resolved,,2013-10-29T17:26:10.000,06X,MARTIN LUTHER KING JR WY & W MACARTHUR BLVD,Wandsworth,London,East Putney,SW15 2AA
885930,2019-03-13T16:30:38.000,FixMyStreet,Parking - Abandoned Vehicle,Community Safety,Resolved,,2019-03-14T14:51:07.000,03Y,1014 CASTRO STREET,Wandsworth,London,Southfields,SW19 6AA
758447,2017-09-08T15:27:22.000,Phone,TE - Traffic Safety (non-emergency),Traffic Management,UNFUNDED,,,22Y,JOAQUIN MILLER RD & MOUNTAIN BLVD,Wandsworth,London,Southfields,SW19 6AB
609445,2015-10-07T12:20:14.000,FixMyStreet,Council Enforcement,OTHER,Referred to External Agency,Council Enforcement,,08X,3948 WEBSTER ST,Wandsworth,London,Roehampton and Putney Heath,SW15 4AB
422067,2012-08-17T13:30:55.000,Telephone/Email,TE - Traffic Control Plan Review,Traffic Management,Resolved,,2012-08-22T16:27:55.000,31Y,9507 EDES AVE,Wandsworth,London,Tooting,SW17 8AB
569077,2015-02-27T11:17:41.000,Phone,Fly-Tipping,Fly-Tipping,Resolved,,2015-03-01T14:08:20.000,23X,1223 37TH AV,Wandsworth,London,Nightingale,SW12 8AE
602171,2015-09-01T12:17:22.000,Phone,Parking - Meter Maintenance,Pay-and-Display Machine Repair,Resolved,,2016-11-07T08:06:46.000,14Y,3300 GRAND AV,Wandsworth,London,West Hill,SW15 3AB
608021,2015-09-30T11:43:52.000,Email,Hazardous Materials,Fire Safety Reports,Resolved,,2015-10-16T15:18:55.000,26X,47TH AV & SAN LEANDRO ST,Wandsworth,London,Tooting,SW17 8AA
597076,2015-08-06T09:47:26.000,Phone,EBMUD issue,OTHER,Referred to External Agency,Thames Water,,11X,60TH ST & SHATTUCK AV,Wandsworth,London,Bedford,SW12 8AC
810193,2018-04-27T14:45:09.000,Phone,Compost - Missed Pickup,Recycling,Resolved,,2018-05-01T14:39:59.000,25X,3667 HIGH ST,Wandsworth,London,Wandsworth Town,SW18 4AB
642147,2016-03-18T11:20:45.000,FixMyStreet,Fly-Tipping,Fly-Tipping,Resolved,,2016-03-25T10:18:47.000,35X,89TH AV & MACARTHUR BLVD,Wandsworth,London,West Putney,SW15 1AD
402017,2012-03-24T19:10:15.000,FixMyStreet,Other (report from SeeClickFix,OTHER,Cancelled by Customer,,,,1004 39TH BLVD,Wandsworth,London,Southfields,SW19 6AB
487741,2013-10-28T08:32:04.000,Phone,Illegal Dumping � mattress/boxspring,Fly-Tipping,Resolved,,2013-10-29T17:25:04.000,06X,936 BROCKHURST ST,Wandsworth,London,Queenstown,SW8 3AB
909812,2019-05-31T19:22:09.000,FixMyStreet,Parking - Abandoned Vehicle,Community Safety,Resolved,,2019-06-06T09:50:35.000,19X,1839 SOLANO WAY OAKLAND CA,Wandsworth,London,Nightingale,SW12 9AG
484388,2013-10-05T11:51:26.000,FixMyStreet,Fly-Tipping,Fly-Tipping,Resolved,,2013-10-15T17:44:42.000,07X,2281 MARKET ST,Wandsworth,London,West Putney,SW15 1AC
829080,2018-07-25T09:11:22.000,FixMyStreet,Parking - Enforcement,Parking Enforcement,Resolved,,2018-07-25T12:25:28.000,27X,45TH AVE & ELLEN ST,Wandsworth,London,East Putney,SW15 2AA
512658,2014-04-11T17:33:51.000,Online Form,Council Enforcement,OTHER,Referred to External Agency,Council Enforcement,,29X,3884 DELMONT AV,Wandsworth,London,Bedford,SW12 8AA
426715,2012-09-21T14:07:19.000,Telephone/Email,Litter - In Public Right of Way,Fly-Tipping,Resolved,,2012-09-24T16:23:15.000,07X,876 27TH ST,Wandsworth,London,East Putney,SW15 2AB
22185,2010-05-12T14:16:35.000,Telephone/Email,Garbage - Missed Pickup Back Yard,Recycling,Resolved,,2010-05-17T16:56:11.000,21Y,3269 SCHOOL ST,Wandsworth,London,Fairfield,SW18 2AA
762851,2017-09-28T12:17:40.000,Email,Fly-Tipping,Fly-Tipping,Resolved,,2017-09-29T16:39:51.000,30Y,77TH AV & GARFIELD AV,Wandsworth,London,Graveney,SW17 0AA
571387,2015-03-13T11:50:27.000,FixMyStreet,Graffiti (report from SeeClickFix),Graffiti Removal,Cancelled by Customer,,,04X,100-118 LAKESIDE DRIVE,Wandsworth,London,Bedford,SW12 8AB
605193,2015-09-16T14:26:35.000,Phone,Recycling Hotline - Miscellaneous,Recycling,Resolved,,2015-09-16T14:26:39.000,,ZZ,Wandsworth,London,Roehampton and Putney Heath,SW15 4AB
463844,2013-06-04T14:57:10.000,Telephone/Email,Yard Trimmings Service Issue,Recycling,Resolved,,2013-06-18T12:34:58.000,27Y,52ND AV & INTERNATIONAL BLVD,Wandsworth,London,Tooting,SW17 7AA
451995,2013-03-21T14:41:16.000,FixMyStreet,Fly-Tipping,Fly-Tipping,Resolved,,2013-03-26T12:52:16.000,05Y,16TH ST & WOOD ST,Wandsworth,London,Tooting,SW17 8AB
438875,2012-12-19T09:34:06.000,Online Form,Street Lighting Fault,Street Lighting,Resolved,,2013-01-04T07:36:14.000,14Y,763 WARFIELD AV,Wandsworth,London,West Putney,SW15 1AD
569062,2015-02-27T10:35:29.000,Phone,Street Lighting Fault,Street Lighting,Resolved,,2015-03-11T07:36:53.000,13Z,838 BLAIR AV,Wandsworth,London,West Putney,SW15 2AF
394692,2012-01-20T09:46:58.000,Telephone/Email,Litter - In Public Right of Way,Fly-Tipping,Resolved,,2012-01-24T07:26:29.000,21Y,3303 LAGUNA WY,Wandsworth,London,Tooting,SW17 8AB
786173,2018-01-11T10:38:29.000,FixMyStreet,Streets - Potholes/Depression,Street and Pavement Maintenance,Resolved,,2018-01-29T17:03:41.000,16Y,1665 MACARTHUR BLVD,Wandsworth,London,West Putney,SW15 2AD
847399,2018-10-16T19:42:40.000,FixMyStreet,Fly-Tipping,Fly-Tipping,Resolved,,2018-10-22T11:53:32.000,07X,MANDELA PKWY & CAMPBELL ST,Wandsworth,London,Southfields,SW18 5AB
481658,2013-09-19T13:08:48.000,Online Form,Fly-Tipping,Fly-Tipping,Resolved,,2013-09-25T21:05:10.000,19X,EMBARCADERO & 8TH AV,Wandsworth,London,Nightingale,SW12 9AF
507638,2014-03-13T14:02:18.000,Phone,Illegal Dumping � mattress/boxspring,Fly-Tipping,Resolved,,2014-03-14T16:39:48.000,32X,1450 102ND AV,Wandsworth,London,Bedford,SW12 9AE
821282,2018-06-20T14:47:48.000,FixMyStreet,Fly-Tipping,Fly-Tipping,Resolved,,2018-06-23T07:10:55.000,26X,646 50TH AV,Wandsworth,London,East Putney,SW15 1AB
596328,2015-08-03T12:17:22.000,Phone,Litter - Street Litter Container,Fly-Tipping,Resolved,,2015-08-13T16:52:14.000,10Y,5434 MARKET ST,Wandsworth,London,Roehampton and Putney Heath,SW15 4AC
802275,2018-03-20T08:43:55.000,Email,Council Enforcement,OTHER,Referred to External Agency,Council Enforcement,,32X,107TH AV & INTERNATIONAL BLVD.,Wandsworth,London,Tooting,SW17 8AB
392736,2012-01-03T13:40:23.000,Telephone/Email,Street Lighting Fault,Street Lighting,Resolved,,2012-01-26T09:29:12.000,04X,2150 WEBSTER ST,Wandsworth,London,East Putney,SW15 1AA
819949,2018-06-14T10:57:42.000,Phone,Illegal Dumping (Enforcement Potential),Fly-Tipping,Resolved,,2018-06-16T15:24:57.000,29X,55TH AVE & FOOTHILL BLVD,Wandsworth,London,Southfields,SW19 6AB
785560,2018-01-09T08:40:17.000,Phone,Traffic - Sign Damage,Traffic Signage Issues,Resolved,,2018-01-25T09:22:45.000,27X,4523 THOMPSON ST,Wandsworth,London,Southfields,SW18 5AB
481644,2013-09-19T12:11:12.000,Online Form,Fly-Tipping,Fly-Tipping,Resolved,,2013-09-23T21:15:42.000,02Y,328 PERALTA ST,Wandsworth,London,East Putney,SW15 2AC
675428,2016-08-15T09:36:20.000,Phone,Street Lighting Fault,Street Lighting,Resolved,,2016-08-19T06:45:14.000,13X,5845 MENDOCINO AV,Wandsworth,London,Shaftesbury,SW11 1AB
350094,2010-10-13T14:48:09.000,Telephone/Email,Graffiti on Private Property,Graffiti Removal,Resolved,,2010-11-18T08:54:55.000,07X,2401 POPLAR ST,Wandsworth,London,East Putney,SW15 1AB
948172,2019-09-26T13:02:42.000,Phone,EBMUD issue,OTHER,In Progress,Thames Water,,05X,1901 POPLAR ST,Wandsworth,London,East Putney,SW15 2AA
696930,2016-12-04T22:43:14.000,Online Form,TE - Parking (On Street),Traffic Management,Cancelled by Customer,,,21X,2542 INYO AV,Wandsworth,London,Southfields,SW19 6AA
938828,2019-08-27T10:18:10.000,FixMyStreet,Parking - Abandoned Vehicle,Community Safety,Resolved,,2019-10-29T13:59:42.000,25X,5661 LEONA ST,Wandsworth,London,West Hill,SW15 3AC
570540,2015-03-09T13:01:35.000,Phone,Council Enforcement,OTHER,Referred to External Agency,Council Enforcement,,05X,1926 CHESTNUT ST,Wandsworth,London,Shaftesbury,SW11 2AE
811201,2018-05-02T15:08:34.000,Phone,Fly-Tipping,Fly-Tipping,Resolved,,2018-05-04T16:09:46.000,26X,1247 48TH AV,Wandsworth,London,Nightingale,SW12 8AF
498144,2014-01-10T08:55:03.000,Phone,Fly-Tipping,Fly-Tipping,Resolved,,2014-01-15T17:32:05.000,03X,11TH ST & OAK ST,Wandsworth,London,Northcote,SW11 6AC
919364,2019-06-27T14:09:51.000,FixMyStreet,Fly-Tipping,Fly-Tipping,Cancelled by Customer,,,26X,630 HIGH ST,Wandsworth,London,Shaftesbury,SW11 1AA
660923,2016-06-15T08:18:40.000,Online Form,Litter in Parks,Parks Maintenance,Resolved,,2016-06-20T11:38:59.000,,82ND AV & MEDIAN BANCROFT,Wandsworth,London,West Hill,SW15 3AC
467450,2013-06-27T09:29:57.000,Telephone/Email,Fly-Tipping,Fly-Tipping,Resolved,,2013-06-28T16:37:18.000,05X,16TH ST & POPLAR ST,Wandsworth,London,Tooting,SW17 8AA
660669,2016-06-14T10:54:46.000,Phone,Illegal Dumping (Enforcement Potential),Fly-Tipping,Resolved,,2016-06-15T17:11:49.000,21Y,3136 COOLIDGE AV,Wandsworth,London,Nightingale,SW12 8AD
830459,2018-07-31T10:01:28.000,Phone,Rough Sleeping Report,Environmental Hygiene,Cancelled by Customer,,,26Y,1078 73RD AV,Wandsworth,London,Balham,SW12 9AC
747063,2017-07-20T10:59:35.000,Phone,Traffic - Repair Pavement Striping,Traffic Signage Issues,Resolved,,2018-11-29T12:09:30.000,31Y,92ND AV & SAN LEANDRO ST,Wandsworth,London,Graveney,SW17 0AB
633617,2016-02-09T08:10:57.000,FixMyStreet,Graffiti (report from SeeClickFix),Graffiti Removal,Cancelled by Customer,,,11X,5301-5367 SHATTUCK AVE,Wandsworth,London,Tooting,SW17 8AB
573909,2015-03-29T10:50:23.000,FixMyStreet,Inspections - Utility-Related Infrastructure,OTHER,Cancelled by Customer,,,23X,1919 34TH AVENUE,Wandsworth,London,West Putney,SW15 2AE
919355,2019-06-27T13:52:39.000,FixMyStreet,Fly-Tipping,Fly-Tipping,Cancelled by Customer,,,06X,3000 SAN PABLO AVE,Wandsworth,London,East Putney,SW15 2AA
652995,2016-05-09T18:30:43.000,FixMyStreet,Illegal Dumping (report from SeeClickFix),Fly-Tipping,Cancelled by Customer,,,07X,3535 HOLLIS ST,Wandsworth,London,Tooting,SW17 7AA
525314,2014-06-24T15:19:58.000,Phone,Parking - Refund,OTHER,Referred to External Agency,"PARKING, REFUND",,04X,2100 FRANKLIN ST,Wandsworth,London,East Putney,SW15 2AB
727562,2017-04-25T09:13:45.000,FixMyStreet,Graffiti (report from SeeClickFix),Graffiti Removal,Cancelled by Customer,,,31Z,10401-10457 SAN LEANDRO ST,Wandsworth,London,West Putney,SW15 2AF
938863,2019-08-27T11:20:38.000,Phone,Streets - Potholes/Depression,Street and Pavement Maintenance,Resolved,,2019-08-28T20:29:45.000,27X,FERN ST & FAIRFAX AV,Wandsworth,London,Graveney,SW17 9AA
498393,2014-01-13T07:30:27.000,FixMyStreet,Fly-Tipping,Fly-Tipping,Resolved,,2014-01-16T16:49:54.000,27X,2271 COURTLAND AV,Wandsworth,London,Bedford,SW12 9AE
871003,2019-01-23T13:34:39.000,Phone,Fly-Tipping,Fly-Tipping,Resolved,,2019-01-25T17:54:36.000,27Y,5721 TRASK ST,Wandsworth,London,Tooting,SW17 8AB
322017,2009-11-17T15:35:58.000,Telephone/Email,Fly-Tipping,Fly-Tipping,Resolved,,2009-11-18T16:47:57.000,33X,953 91ST AVE.,Wandsworth,London,East Putney,SW15 2AC
706109,2017-01-24T11:26:19.000,Phone,City Bldg - Structural Issue,Council Building Maintenance,Resolved,,2017-08-24T10:16:52.000,04X,EMERGENCY OPERATIONS CENTER,Wandsworth,London,Queenstown,SW8 4AB
557035,2014-12-21T13:40:42.000,FixMyStreet,Graffiti on Traffic Sign(s),Traffic Signage Issues,Resolved,,2015-01-28T16:21:10.000,04X,15 LAKESIDE DR,Wandsworth,London,East Putney,SW15 2AB
564901,2015-02-03T12:44:01.000,Phone,Inspections - Construction Obstructing ROW,Public Right of Way,Resolved,,2015-02-10T17:07:47.000,12Y,5153 MILES AV,Wandsworth,London,Southfields,SW18 5AA
889529,2019-03-26T12:38:24.000,Email,Human Waste in Public-Right-of-Way,OTHER,Referred to External Agency,"ADVANCE CRIME SCENE, RESTORATION EST",,03X,5TH ST & BROADWAY,Wandsworth,London,Tooting,SW17 7AA
512769,2014-04-13T20:39:36.000,FixMyStreet,Garbage Service Issue (not at City facility),Recycling,Resolved,,2014-04-21T13:12:02.000,07X,3151 FILBERT ST,Wandsworth,London,West Putney,SW15 1AC
450680,2013-03-13T10:51:33.000,Telephone/Email,Illegal Dumping � mattress/boxspring,Fly-Tipping,Resolved,,2013-03-14T19:46:08.000,08X,TELEGRAPH AV & 23RD ST,Wandsworth,London,West Putney,SW15 2AF
910466,2019-06-03T14:08:59.000,Telephone Voicemail,Recycling - Cart Request,Recycling,Resolved,,2019-06-04T12:15:55.000,16Y,4008 PARK BLVD,Wandsworth,London,East Putney,SW15 2AA
572211,2015-03-18T16:30:18.000,FixMyStreet,Litter - Street Litter Container,Fly-Tipping,Resolved,,2015-03-19T18:46:23.000,12X,45TH ST & LAWTON AV,Wandsworth,London,Northcote,SW11 6AA
707047,2017-01-28T14:46:25.000,FixMyStreet,Illegal Dumping � green waste,Fly-Tipping,Resolved,,2017-02-08T19:45:33.000,26Y,57TH AV & INTERNATIONAL BLVD,Wandsworth,London,Tooting,SW17 8AC
542298,2014-09-24T10:34:03.000,Phone,Illegal Dumping � mattress/boxspring,Fly-Tipping,Resolved,,2014-09-27T15:31:57.000,33X,1275 95TH AV,Wandsworth,London,Bedford,SW12 8AA
904778,2019-05-14T18:00:57.000,FixMyStreet,Streets - Potholes/Depression,Street and Pavement Maintenance,Resolved,,2019-06-22T09:52:25.000,13Y,TUNNEL RD & HILLER DR,Wandsworth,London,Southfields,SW19 6AB
541695,2014-09-21T08:20:16.000,FixMyStreet,Oakland Police - Abandoned Auto,OTHER,Referred to External Agency,"OPD ABANDONED AUTOS, PUBLIC",,01X,300 ALICE ST,Wandsworth,London,Tooting,SW17 8AA
549973,2014-11-10T09:58:42.000,Phone,Litter in Parks,Parks Maintenance,Resolved,,2014-11-13T15:13:39.000,23X,FRUITVALE PLAZA PARK,Wandsworth,London,Bedford,SW12 8AA
510902,2014-04-02T14:58:41.000,Telephone/Email,Cityworks Config Request - New Employee,Digital and GIS Issues,Resolved,,2014-04-02T14:59:17.000,,CW UPDATE - NEW EMPLOYEE,Wandsworth,London,Tooting,SW17 8AC
694700,2016-11-18T14:26:32.000,Phone,Parking - Meter Maintenance,Pay-and-Display Machine Repair,Resolved,,2017-11-14T13:17:25.000,03Y,1192 CLAY ST,Wandsworth,London,Fairfield,SW18 2AA
846831,2018-10-14T16:01:20.000,FixMyStreet,Fly-Tipping,Fly-Tipping,Resolved,,2018-10-15T20:22:55.000,03X,6TH ST & BROADWAY,Wandsworth,London,Queenstown,SW8 4AB
863644,2019-01-04T09:12:32.000,Telephone/Email,Parking - Abandoned Vehicle,Community Safety,Resolved,,2019-01-04T09:14:37.000,28X,4300 WALNUT ST,Wandsworth,London,East Putney,SW15 2AB
947545,2019-09-24T13:14:35.000,FixMyStreet,Fly-Tipping,Fly-Tipping,Resolved,,2019-09-30T19:34:03.000,20X,2701 FOOTHILL BLVD,Wandsworth,London,West Hill,SW15 3AA
616468,2015-11-10T15:10:29.000,FixMyStreet,Oakland Police - Abandoned Auto,OTHER,Referred to External Agency,"OPD ABANDONED AUTOS, PUBLIC",,31Y,9537 CORAL RD,Wandsworth,London,Queenstown,SW8 4AB
375245,2011-07-08T08:45:29.000,Telephone/Email,Council Enforcement,OTHER,Resolved,,2011-07-12T11:41:04.000,04X,17TH ST & JACKSON ST,Wandsworth,London,Bedford,SW12 8AC
705166,2017-01-19T12:13:10.000,Phone,Oakland Police - Abandoned Auto,OTHER,Referred to External Agency,"OPD ABANDONED AUTOS, PUBLIC",,24X,HARRINGTON AV & SANTA RITA ST,Wandsworth,London,West Hill,SW15 3AC
887103,2019-03-18T11:39:53.000,Telephone Voicemail,Park - Ballfields,Parks Maintenance,Resolved,,2019-04-02T12:02:02.000,05X,DEFREMERY POOL,Wandsworth,London,Graveney,SW17 0AC
430376,2012-10-18T09:40:06.000,Telephone/Email,Traffic - Sign Down,Traffic Signage Issues,Resolved,,2012-10-19T11:30:53.000,05Y,CAMPBELL ST & W GRAND AV,Wandsworth,London,Bedford,SW12 8AA
908960,2019-05-29T11:16:41.000,Email,Streets - Street Deterioration,Street and Pavement Maintenance,In Progress,,,13Z,6768 SIMS DR,Wandsworth,London,Southfields,SW18 5AC
509703,2014-03-26T12:40:42.000,Phone,Tree - Down,Tree Maintenance,Resolved,,2014-03-27T13:41:10.000,13Y,7227 SKYLINE BLVD,Wandsworth,London,Queenstown,SW8 3AB
924162,2019-07-12T18:24:10.000,FixMyStreet,Miscellaneous,OTHER,Referred to External Agency,"BART, BAY AREA RAPID",,23X,E 12TH ST & 35TH AV,Wandsworth,London,Graveney,SW17 0AB
952888,2019-10-14T09:39:40.000,FixMyStreet,Parking - Enforcement,Parking Enforcement,GONE ON ARRIVAL,,,27X,4414 INTERNATIONAL BLVD,Wandsworth,London,Southfields,SW19 6AA
808062,2018-04-18T10:14:13.000,Phone,Recycling Hotline - Miscellaneous,Recycling,Resolved,,2018-04-18T10:14:28.000,,zz,Wandsworth,London,West Putney,SW15 1AD
409419,2012-05-18T10:52:20.000,Telephone/Email,Street Lighting Fault,Street Lighting,Resolved,,2012-05-24T11:29:28.000,18Y,E 25TH ST & HIGHLAND ST,Wandsworth,London,West Hill,SW15 3AB
952692,2019-10-13T10:34:14.000,FixMyStreet,Parking - Abandoned Vehicle,Community Safety,In Progress,,,14Y,533 FAIRBANKS AVE,Wandsworth,London,Graveney,SW17 0AC
548034,2014-10-28T15:19:47.000,Phone,Fly-Tipping,Fly-Tipping,Resolved,,2014-10-30T12:44:38.000,30X,OLIVE ST & 82ND AV,Wandsworth,London,Tooting,SW17 7AA
434246,2012-11-16T10:30:32.000,Telephone/Email,Tree - Pruning,Tree Maintenance,UNFUNDED,,,26Y,1230 79TH AV,Wandsworth,London,Northcote,SW11 5AB
927807,2019-07-24T10:19:43.000,Email,Weed Abatement - Public Right of Way,Vegetation and Weed Clearance,Resolved,,2019-08-15T15:20:24.000,32X,1614 99TH AV,Wandsworth,London,East Putney,SW15 1AA
591016,2015-07-07T18:50:20.000,FixMyStreet,Illegal Dumping (report from SeeClickFix),Fly-Tipping,Resolved,,2015-07-10T08:15:24.000,07X,2792-2798 MANDELA PARKWAY,Wandsworth,London,Bedford,SW12 8AC
373691,2011-06-22T11:27:00.000,Telephone/Email,Litter - In Public Right of Way,Fly-Tipping,Resolved,,2011-06-23T15:09:07.000,32X,BREED AV & 109TH AV,Wandsworth,London,Tooting,SW17 8AB
845931,2018-10-10T09:56:01.000,FixMyStreet,City Bldg - Clean / Custodial,Council Building Maintenance,Resolved,,2019-07-09T13:29:22.000,23X,CESAR CHAVEZ BRANCH LIBRARY,Wandsworth,London,Bedford,SW12 8AA
895412,2019-04-15T09:18:07.000,FixMyStreet,Graffiti on Public Property,OTHER,Resolved,,2019-04-16T16:09:14.000,31Z,9827 BERNHARDT DR,Wandsworth,London,Balham,SW12 9AA
772041,2017-11-07T05:16:22.000,FixMyStreet,Graffiti on Traffic Sign(s),Traffic Signage Issues,Resolved,,2017-11-17T09:28:00.000,08X,38TH ST & OPAL ST,Wandsworth,London,West Putney,SW15 1AC
312203,2009-08-10T08:16:58.000,Telephone/Email,Graffiti,Graffiti Removal,Resolved,,2009-09-18T16:57:52.000,30X,7708 HOLLY ST,Wandsworth,London,Tooting,SW17 8AC
453996,2013-04-04T19:00:50.000,FixMyStreet,Animal and Insect Control,OTHER,Referred to External Agency,RSPCA,,02Y,9TH ST & WOOD ST,Wandsworth,London,Northcote,SW11 5AB
321753,2009-11-16T09:36:46.000,Telephone/Email,Street Lighting Fault,Street Lighting,Resolved,,2009-11-24T13:23:00.000,16X,1087 MANDANA BLVD,Wandsworth,London,East Putney,SW15 2AC
819952,2018-06-14T11:04:36.000,FixMyStreet,Parking - Enforcement,Traffic Management,Resolved,,2018-06-14T14:32:29.000,12X,345 42ND ST,Wandsworth,London,Tooting,SW17 7AA
828288,2018-07-22T06:14:24.000,FixMyStreet,Litter - Street Litter Container - Overflowing/Mis,Fly-Tipping,Resolved,,2018-07-23T16:34:41.000,14Y,470 LAKE PARK AV,Wandsworth,London,West Hill,SW15 3AA
718773,2017-03-17T08:50:05.000,Email,Fly-Tipping,Fly-Tipping,Resolved,,2017-03-21T12:07:44.000,07X,26TH ST & UNION ST,Wandsworth,London,West Hill,SW15 3AA
768362,2017-10-23T09:30:54.000,FixMyStreet,Fly-Tipping,Fly-Tipping,Resolved,,2017-10-26T15:49:22.000,31Y,9415 EDES AV,Wandsworth,London,Tooting,SW17 8AC
703892,2017-01-12T13:17:50.000,Online Form,Animal and Insect Control,OTHER,Referred to External Agency,RSPCA,,35X,HILLSIDE ST & 83RD AVE,Wandsworth,London,Southfields,SW19 6AA
453524,2013-04-03T09:04:32.000,Telephone/Email,Streets - Guardrail Repair,Street and Pavement Maintenance,Resolved,,2013-04-17T07:55:49.000,25X,3471 MAYBELLE AV,Wandsworth,London,West Putney,SW15 2AD
564328,2015-01-30T16:02:29.000,Phone,Illegal Dumping � mattress/boxspring,Fly-Tipping,Resolved,,2015-01-31T16:36:46.000,27Y,1446 65TH AV,Wandsworth,London,Wandsworth Town,SW18 4AC
457869,2013-04-28T22:10:52.000,Online Form,Fly-Tipping,Fly-Tipping,Cancelled by Customer,,,,,Wandsworth,London,West Putney,SW15 1AD
710319,2017-02-11T12:58:33.000,FixMyStreet,Sidewalk (report from SeeClickFix),Street and Pavement Maintenance,Cancelled by Customer,,,22X,18 EL PATIO ST,Wandsworth,London,Nightingale,SW12 8AD
575198,2015-04-06T08:37:30.000,Online Form,City Bldg - Electrical Inside/Outside,Council Building Maintenance,Resolved,,2015-06-09T14:13:32.000,03X,MAIN LIBRARY,Wandsworth,London,Balham,SW12 9AA
708249,2017-02-02T10:32:36.000,Phone,Traffic Signal - Outage/Damaged,Street Lighting,Resolved,,2017-02-24T06:58:42.000,02Y,7TH ST & WOOD ST,Wandsworth,London,Bedford,SW12 9AD
597430,2015-08-07T17:13:09.000,Telephone/Email,TE - Traffic Safety (non-emergency),Traffic Management,Resolved,,2015-11-04T16:28:07.000,,35TH AVENUE AND SUTTER STREET,Wandsworth,London,Southfields,SW19 6AB
654740,2016-05-18T12:21:52.000,Online Form,Sidewalk - Damage,Public Right of Way,Resolved,,2016-06-15T15:49:10.000,12X,405 42ND ST (AT SHAFTER),Wandsworth,London,Graveney,SW17 9AA
916967,2019-06-19T19:14:46.000,FixMyStreet,Fly-Tipping,Parks Maintenance,Resolved,,2019-07-01T10:04:37.000,07X,2213�2241 MANDELA PKWY,Wandsworth,London,Southfields,SW18 5AA
692813,2016-11-08T06:39:22.000,Online Form,City Bldg - Plumbing,Council Building Maintenance,Resolved,,2016-11-28T12:31:01.000,02Y,FIRE STATION 3,Wandsworth,London,Fairfield,SW18 2AB
526041,2014-06-27T12:19:42.000,Phone,Manhole Cover - Missing,Drainage,Resolved,,2014-06-30T07:59:22.000,13Z,5680 THORNHILL DR,Wandsworth,London,Bedford,SW12 8AA
328675,2010-02-16T09:14:28.000,Telephone/Email,Street Lighting Fault,Street Lighting,Resolved,,2010-02-17T09:13:40.000,08X,542 GRAND AV,Wandsworth,London,Tooting,SW17 7AB
388243,2011-11-09T16:18:45.000,Telephone/Email,Street Lighting Fault,Street Lighting,Resolved,,2011-11-22T07:24:42.000,32Y,2027 107TH AV,Wandsworth,London,Tooting,SW17 8AA
685357,2016-09-29T14:35:10.000,Phone,"Tree - Diseased, Dead, Dying, Leaning, or Split",Tree Maintenance,Resolved,,2018-02-08T08:23:22.000,12X,4843 CLARKE ST,Wandsworth,London,Roehampton and Putney Heath,SW15 4AC
327374,2010-01-29T13:02:48.000,Telephone/Email,Fly-Tipping,Fly-Tipping,Resolved,,2010-02-02T09:14:01.000,12Y,66TH ST & DANA ST,Wandsworth,London,West Putney,SW15 2AD
425247,2012-09-12T11:30:40.000,Telephone/Email,Tree - Limb Down,Tree Maintenance,Resolved,,2012-09-14T15:23:10.000,14X,279 VERNON ST,Wandsworth,London,Tooting,SW17 8AB
877624,2019-02-16T16:20:43.000,FixMyStreet,Parking - Abandoned Vehicle,Community Safety,Cancelled by Customer,,,,927 73RD  OAKLAND CA,Wandsworth,London,Tooting,SW17 8AB
373375,2011-06-19T10:55:54.000,Online Form,Graffiti in a Park,Council Building Maintenance,Resolved,,2011-06-20T10:49:19.000,,SAN ANTONIO PARK,Wandsworth,London,Queenstown,SW8 3AB
593644,2015-07-21T12:20:19.000,FixMyStreet,Fly-Tipping,Fly-Tipping,Resolved,,2015-07-24T17:11:59.000,05X,1925 BRUSH ST,Wandsworth,London,Wandsworth Town,SW18 4AA
316244,2009-09-22T13:13:30.000,Telephone/Email,Traffic - Sign Missing,Traffic Signage Issues,Resolved,,2009-10-19T10:22:05.000,31Y,MAKIN RD & EMPIRE RD,Wandsworth,London,Tooting,SW17 8AA
605550,2015-09-18T11:25:18.000,Email,Fly-Tipping,Fly-Tipping,Resolved,,2015-09-24T17:07:49.000,20X,3050 INTERNATIONAL BLVD,Wandsworth,London,West Hill,SW18 1AD
379265,2011-08-17T11:37:31.000,Telephone/Email,Recycling - Cart Request,Recycling,Resolved,,2011-09-15T08:42:17.000,07X,2635 PERALTA ST,Wandsworth,London,Queenstown,SW8 4AB
347351,2010-09-15T08:12:54.000,Telephone/Email,Fly-Tipping,Fly-Tipping,Resolved,,2010-09-16T08:11:40.000,12Y,425 CLIFTON ST,Wandsworth,London,Graveney,SW17 0AA
403062,2012-04-02T19:10:13.000,FixMyStreet,Council Enforcement,OTHER,Referred to External Agency,Council Enforcement,,17X,1707 8TH AV,Wandsworth,London,West Putney,SW15 2AF
829243,2018-07-25T17:22:20.000,FixMyStreet,Fly-Tipping,Fly-Tipping,Resolved,,2018-07-28T05:13:14.000,25X,4919 MOUNTAIN BLVD,Wandsworth,London,West Putney,SW15 1AC
452820,2013-03-27T15:11:43.000,FixMyStreet,Street Lighting Fault,Street Lighting,Resolved,,2013-04-05T07:49:44.000,03Y,704 JEFFERSON ST,Wandsworth,London,Wandsworth Common,SW17 7AD
891409,2019-04-02T05:44:23.000,FixMyStreet,Fly-Tipping,Fly-Tipping,Resolved,,2019-04-05T11:40:41.000,35X,8414 FONTAINE ST,Wandsworth,London,Nightingale,SW12 9AG
826227,2018-07-12T13:33:47.000,Phone,Fly-Tipping,Fly-Tipping,Resolved,,2018-07-14T18:37:58.000,31Y,CORAL RD & SEXTUS RD,Wandsworth,London,Tooting,SW17 7AA
407417,2012-05-03T11:56:03.000,Telephone/Email,Street Lighting Fault,Street Lighting,Resolved,,2012-05-08T08:15:30.000,26Y,1301 60TH AV,Wandsworth,London,Earlsfield,SW18 4AB
716576,2017-03-09T08:49:37.000,Online Form,TE - Traffic Signal Request (non-emergency),Traffic Management,In Progress,,,23X,COOLIDGE AV & FOOTHILL BLVD,Wandsworth,London,Southfields,SW18 5AA
596683,2015-08-04T15:16:18.000,Online Form,Illegal Dumping (Enforcement Potential),Fly-Tipping,Resolved,,2015-08-07T17:09:30.000,19X,2237 E 15TH ST,Wandsworth,London,Graveney,SW17 0AA
379478,2011-08-19T09:24:01.000,Telephone/Email,Street Lighting Fault,Street Lighting,Resolved,,2011-08-26T14:55:25.000,15X,706 CLEVELAND AV,Wandsworth,London,Southfields,SW18 5AA
383654,2011-09-29T08:16:53.000,Telephone/Email,Litter - In Public Right of Way,Fly-Tipping,Cancelled by Customer,,,35X,2215 87TH AV,Wandsworth,London,Shaftesbury,SW11 1AC
584653,2015-06-01T13:10:33.000,FixMyStreet,Illegal Dumping (report from SeeClickFix),Fly-Tipping,Resolved,,2015-06-10T16:28:13.000,05X,1800-1908 POPLAR STREET,Wandsworth,London,Southfields,SW19 6AA
342277,2010-07-15T16:24:50.000,Telephone/Email,Fly-Tipping,Fly-Tipping,Resolved,,2010-07-19T16:44:24.000,21X,2001 26TH AV,Wandsworth,London,Southfields,SW19 6AA
579391,2015-04-29T11:28:29.000,Phone,Traffic Signal - Outage/Damaged,Street Lighting,Resolved,,2015-05-06T07:26:30.000,12Y,62ND ST & COLLEGE AV,Wandsworth,London,Shaftesbury,SW11 1AA
348261,2010-09-23T10:05:25.000,Telephone/Email,Fly-Tipping,Fly-Tipping,Resolved,,2010-09-27T16:28:29.000,31Z,9800 PEARMAIN ST,Wandsworth,London,West Putney,SW15 2AF
509443,2014-03-25T10:23:38.000,Telephone/Email,Cityworks Config Request - SR Template - Change,Digital and GIS Issues,Resolved,,2014-03-25T10:24:25.000,,CW UPDATE - SR TEMPLATE CHANGE - NEW NOTIFICATION,Wandsworth,London,Fairfield,SW18 2AB
727478,2017-04-24T17:11:36.000,FixMyStreet,Sidewalk - Damage,Public Right of Way,Cancelled by Customer,,,03Y,BROADWAY & 12TH ST,Wandsworth,London,Southfields,SW18 5AA
542705,2014-09-26T11:11:44.000,Phone,Fly-Tipping,Fly-Tipping,Resolved,,2014-09-30T15:06:00.000,32X,98TH AV & E ST,Wandsworth,London,Northcote,SW11 6AB
914649,2019-06-12T18:40:56.000,FixMyStreet,Illegal Dumping � mattress/boxspring,Fly-Tipping,Resolved,,2019-06-14T15:44:34.000,30X,7630 LOCKWOOD ST,Wandsworth,London,Tooting,SW17 8AA
686966,2016-10-06T20:33:15.000,Online Form,Fly-Tipping,Fly-Tipping,Resolved,,2016-10-12T11:45:41.000,07X,35TH ST & MAGNOLIA ST,Wandsworth,London,Graveney,SW17 0AB
793090,2018-02-09T07:00:10.000,FixMyStreet,Fly-Tipping,Fly-Tipping,Resolved,,2018-02-14T15:56:38.000,19X,11TH AV & E 12TH ST,Wandsworth,London,Graveney,SW17 0AC
687314,2016-10-09T12:28:18.000,FixMyStreet,Pothole (report from SeeClickFix),Street and Pavement Maintenance,Cancelled by Customer,,,13Z,6125 MERCED AVE,Wandsworth,London,Furzedown,SW16 5AB
656482,2016-05-25T22:07:28.000,FixMyStreet,Fly-Tipping,Fly-Tipping,Resolved,,2016-06-02T10:33:52.000,30X,6800 ARTHUR ST,Wandsworth,London,Southfields,SW18 5AC
391028,2011-12-09T13:32:28.000,Telephone/Email,TE - Traffic - Research / Data Requests,Traffic Management,Resolved,,2011-12-23T15:47:21.000,12Y,WB TELEGRAPH OFFRP AV,Wandsworth,London,Graveney,SW17 9AA
831968,2018-08-06T16:48:38.000,Phone,Oakland Police - Abandoned Auto,OTHER,Referred to External Agency,"OPD ABANDONED AUTOS, PUBLIC",,05X,KIRKHAM ST & 16TH ST,Wandsworth,London,Tooting,SW17 8AC
495940,2013-12-23T14:59:46.000,Email,Street Lighting Fault,Street Lighting,Resolved,,2013-12-30T08:18:47.000,12X,331 41ST ST,Wandsworth,London,West Putney,SW15 1AD
332716,2010-03-29T08:37:03.000,Telephone/Email,Street Lighting Fault,Street Lighting,Resolved,,2010-04-02T12:57:53.000,32X,98TH AV & BIRCH ST,Wandsworth,London,Tooting,SW17 8AC
586254,2015-06-10T20:00:15.000,FixMyStreet,Illegal Dumping (report from SeeClickFix),Fly-Tipping,Resolved,,2015-06-17T12:28:19.000,08X,534-536 MERRIMAC STREET,Wandsworth,London,Graveney,SW17 0AB
687199,2016-10-08T11:43:41.000,FixMyStreet,Graffiti on Traffic Sign(s),Traffic Signage Issues,Resolved,,2016-10-10T15:32:44.000,18Y,E 22ND ST & 21ST AV,Wandsworth,London,East Putney,SW15 1AA
652200,2016-05-05T09:46:00.000,Phone,Fly-Tipping,Fly-Tipping,Resolved,,2016-05-07T15:11:37.000,10Y,42ND ST & MARTIN LUTHER KING JR WAY,Wandsworth,London,Northcote,SW11 5AB
457839,2013-04-28T11:21:12.000,FixMyStreet,Hazardous Materials,Fire Safety Reports,Referred to External Agency,"FIRE (GRIFFIN, LEROY)",,24Y,3448 DAVIS ST,Wandsworth,London,Balham,SW12 0AB
570499,2015-03-09T11:22:07.000,Online Form,Fly-Tipping,Fly-Tipping,Resolved,,2015-03-12T17:26:53.000,19X,2500 EMBARCADERO,Wandsworth,London,East Putney,SW15 1AA
602410,2015-09-02T05:42:53.000,FixMyStreet,Fly-Tipping,Fly-Tipping,Resolved,,2015-09-08T17:53:08.000,31Y,BALDWIN ST & 85TH AV,Wandsworth,London,Roehampton and Putney Heath,SW15 4AA
327528,2010-02-01T12:02:09.000,Telephone/Email,Fly-Tipping,Fly-Tipping,Resolved,,2010-02-03T15:32:45.000,33X,9100 G ST,Wandsworth,London,West Putney,SW15 1AC
931058,2019-08-03T14:35:53.000,FixMyStreet,Litter - Street Litter Container - Overflowing/Mis,Fly-Tipping,Cancelled by Customer,,,05Y,2121 PERALTA ST,Wandsworth,London,Bedford,SW12 8AB
394977,2012-01-23T15:14:34.000,Telephone/Email,Street Lighting Fault,Street Lighting,Resolved,,2012-02-17T07:39:08.000,17X,1325 E 19TH ST,Wandsworth,London,Queenstown,SW8 3AB
467070,2013-06-25T10:35:21.000,Telephone/Email,Council Enforcement,OTHER,Referred to External Agency,Council Enforcement,,18Y,2851 23RD AV,Wandsworth,London,East Putney,SW15 2AB
644034,2016-03-28T14:00:44.000,FixMyStreet,Illegal Dumping (report from SeeClickFix),Fly-Tipping,Cancelled by Customer,,,07X,1735 24TH ST,Wandsworth,London,Fairfield,SW18 1AA
358588,2011-01-25T10:59:53.000,Telephone/Email,Graffiti on Private Property,Graffiti Removal,Resolved,,2011-03-01T09:23:49.000,10X,60TH ST & STANFORD AV,Wandsworth,London,Shaftesbury,SW11 2AD
541402,2014-09-18T19:10:18.000,FixMyStreet,Graffiti on Traffic Sign(s),OTHER,Cancelled by Customer,,,08X,452 OAKLAND AV,Wandsworth,London,Graveney,SW17 0AA
315389,2009-09-14T12:09:54.000,Telephone/Email,Street Lighting Fault,Street Lighting,Resolved,,2009-09-17T13:19:30.000,19X,1526 MUNSON WY,Wandsworth,London,West Putney,SW15 1AC
372570,2011-06-09T15:03:20.000,Telephone/Email,Streets - Potholes/Depression,Street and Pavement Maintenance,Resolved,,2012-03-05T14:57:47.000,35Y,GOLF LINKS RD & ELYSIAN FIELDS DR,Wandsworth,London,East Putney,SW15 2AB
786213,2018-01-11T11:34:56.000,FixMyStreet,Illegal Dumping � mattress/boxspring,Fly-Tipping,Cancelled by Customer,,,03X,1064 LAKE MERRITT BLVD,Wandsworth,London,East Putney,SW15 1AA
462619,2013-05-28T15:25:24.000,Telephone/Email,City Bldg - Plumbing,Council Building Maintenance,Resolved,,2013-05-30T15:43:36.000,04X,MALONGA CASQUELOURD CENTER (AKA ALICE ARTS),Wandsworth,London,Tooting,SW17 7AA
397449,2012-02-15T13:11:33.000,Telephone/Email,"Graffiti on Street, Street Light, Traffic Signal,",Graffiti Removal,Resolved,,2012-02-27T10:34:39.000,04X,245 17TH ST,Wandsworth,London,Southfields,SW19 6AB
421579,2012-08-14T16:22:31.000,Telephone/Email,Animal and Insect Control,OTHER,Referred to External Agency,"ALAMEDA COUNTY VECTOR CONTROL,",,07X,WILLIE KEYES (POPLAR) RECREATION CTR,Wandsworth,London,Graveney,SW17 0AB
963718,2019-11-19T19:38:37.000,FixMyStreet,Parking - Abandoned Vehicle,Community Safety,In Progress,,,16Y,845 ALMA PL,Wandsworth,London,Balham,SW12 0AA
667524,2016-07-12T14:32:37.000,Phone,Tree - Limb Down,Tree Maintenance,Resolved,,2018-03-16T13:54:07.000,26Y,1347 62ND AV,Wandsworth,London,Bedford,SW12 8AB
324574,2010-01-04T08:52:59.000,Telephone/Email,Street Lighting Fault,Street Lighting,Resolved,,2010-01-04T10:52:54.000,08X,SUMMIT ST & 28TH ST,Wandsworth,London,West Hill,SW18 1AE
724454,2017-04-10T09:03:27.000,Phone,Tree - Limb Down,Tree Maintenance,Resolved,,2017-04-12T09:05:04.000,22X,MONTANA ST & FRUITVALE AV,Wandsworth,London,West Putney,SW15 2AE
554198,2014-12-06T08:50:19.000,FixMyStreet,Graffiti on Traffic Sign(s),Traffic Signage Issues,Resolved,,2015-05-29T07:37:55.000,05X,16TH ST & MANDELA PKWY,Wandsworth,London,Northcote,SW11 5AA
677658,2016-08-24T16:17:15.000,Phone,Tree - Pruning,Tree Maintenance,Resolved,,2016-09-20T08:20:31.000,34X,2073 AUSEON AV,Wandsworth,London,Furzedown,SW16 5AB
447654,2013-02-20T11:22:42.000,Telephone/Email,Sidewalk - Damage,Public Right of Way Maintenance,In Progress,,,19X,1515 22ND AV,Wandsworth,London,West Hill,SW15 3AA
692853,2016-11-08T09:23:24.000,Online Form,City Bldg - Structural Issue,Council Building Maintenance,Resolved,,2016-12-13T07:18:24.000,04X,LIONEL J WILSON BUILDING,Wandsworth,London,Roehampton and Putney Heath,SW15 4AB
765859,2017-10-12T05:24:36.000,Online Form,Council Enforcement,OTHER,Referred to External Agency,Council Enforcement,,22X,2724 MOUNTAIN BLVD,Wandsworth,London,East Putney,SW15 1AB
778791,2017-12-09T15:54:13.000,FixMyStreet,Miscellaneous,OTHER,Referred to External Agency,"OAKLAND SCHOOLS MAINTENANCE,",,02X,COLE SCHOOL,Wandsworth,London,Wandsworth Common,SW12 8AH
799656,2018-03-07T11:43:55.000,FixMyStreet,Street Lighting Fault,Street Lighting,Resolved,,2018-03-08T06:48:00.000,02Y,1308 WOOD ST,Wandsworth,London,Southfields,SW18 5AB
938357,2019-08-26T13:10:35.000,FixMyStreet,Litter - Street Litter Container - Overflowing/Mis,Fly-Tipping,Resolved,,2019-09-05T10:09:30.000,30X,73RD AVE & ARTHUR ST,Wandsworth,London,East Putney,SW15 2AB
323105,2009-12-03T10:41:22.000,Telephone/Email,EBMUD issue,OTHER,Resolved,,2009-12-03T10:41:22.000,12Y,6015 COLLEGE AV,Wandsworth,London,St Mary's Park,SW11 3AE
311484,2009-07-29T15:00:09.000,Telephone/Email,Fly-Tipping,Fly-Tipping,Resolved,,2009-07-31T17:12:20.000,31Z,10100 PEARMAIN ST.,Wandsworth,London,Bedford,SW12 8AB
430538,2012-10-19T10:04:10.000,Telephone/Email,Litter - In Public Right of Way,Fly-Tipping,Resolved,,2012-10-22T15:35:27.000,06X,900 37TH ST,Wandsworth,London,Tooting,SW17 8AC
533393,2014-08-06T11:35:24.000,Phone,Illegal Dumping � mattress/boxspring,Fly-Tipping,Resolved,,2014-08-06T17:53:36.000,28X,MONTICELLO AV & WALNUT ST,Wandsworth,London,Southfields,SW18 5AB
836587,2018-08-27T17:46:30.000,FixMyStreet,Illegal Dumping � mattress/boxspring,Fly-Tipping,Resolved,,2018-08-28T21:17:34.000,17X,1924 9TH AVE,Wandsworth,London,Queenstown,SW8 4AA
844443,2018-10-03T09:06:44.000,Phone,Fly-Tipping,Fly-Tipping,Resolved,,2018-10-04T19:12:37.000,31Z,802 STONE ST,Wandsworth,London,St Mary's Park,SW11 3AC
660348,2016-06-13T11:09:38.000,Phone,Street Medians (Landscaped),Parks Maintenance,Referred to External Agency,Transport for London (TfL),,12Y,6145 BROADWAY,Wandsworth,London,Nightingale,SW12 9AG
475695,2013-08-15T16:21:30.000,Phone,Fly-Tipping,Fly-Tipping,Resolved,,2013-08-30T16:16:31.000,35X,9478 BANCROFT AV,Wandsworth,London,West Hill,SW15 3AC
565941,2015-02-07T20:10:23.000,FixMyStreet,Fly-Tipping,Fly-Tipping,Cancelled by Customer,,,07X,34TH ST & LINDEN ST,Wandsworth,London,Southfields,SW18 5AC
880589,2019-02-22T11:39:17.000,Phone,Parking - Abandoned Vehicle,Community Safety,Resolved,,2019-03-11T13:29:05.000,16Y,4320 EDGEWOOD AV,Wandsworth,London,East Putney,SW15 2AC
22261,2010-05-18T15:02:20.000,Telephone/Email,Garbage - Requests Exemption - Weekly or Shared,Recycling,Resolved,,2010-07-14T15:39:17.000,16Y,1417 GLENFIELD AV,Wandsworth,London,Tooting,SW17 8AB
503119,2014-02-12T07:23:27.000,Online Form,Fly-Tipping,Fly-Tipping,Resolved,,2014-02-14T18:10:46.000,02Y,5TH ST & HENRY ST,Wandsworth,London,West Putney,SW15 1AD
625232,2015-12-30T13:30:22.000,FixMyStreet,Animal and Insect Control,OTHER,Referred to External Agency,RSPCA,,11X,752 55TH ST,Wandsworth,London,Tooting,SW17 8AC
937188,2019-08-21T17:21:04.000,FixMyStreet,Illegal Dumping � mattress/boxspring,Fly-Tipping,Resolved,,2019-08-27T21:13:31.000,32X,11056 SAN LEANDRO STREET,Wandsworth,London,Nightingale,SW12 9AG
619819,2015-11-30T13:22:55.000,Phone,Fly-Tipping,Fly-Tipping,Resolved,,2015-12-10T16:43:06.000,05Y,W GRAND AV & CAMPBELL ST,Wandsworth,London,Wandsworth Common,SW17 7AD
801753,2018-03-18T07:10:28.000,FixMyStreet,Streets - Potholes/Depression,Street and Pavement Maintenance,Cancelled by Customer,,,18Y,19TH AVENUE & E 28TH STREET,Wandsworth,London,Southfields,SW19 6AB
858174,2018-12-06T13:30:12.000,FixMyStreet,Fly-Tipping,Fly-Tipping,Cancelled by Customer,,,21Y,2655 E 27TH ST,Wandsworth,London,East Putney,SW15 2AB
784045,2018-01-02T17:43:57.000,FixMyStreet,Trash/Compost - Abandoned Container,Recycling,Resolved,,2018-01-09T10:20:11.000,06X,W GRAND AV & SAN PABLO AV,Wandsworth,London,West Putney,SW15 1AD
645135,2016-04-02T11:50:27.000,FixMyStreet,Fly-Tipping,Fly-Tipping,Resolved,,2016-04-14T17:36:09.000,24X,4000 CARRINGTON ST,Wandsworth,London,Bedford,SW12 8AB
860938,2018-12-20T08:47:31.000,Email,"Graffiti on Street, Street Light, Traffic Signal,",Graffiti Removal,Resolved,,2018-12-21T15:11:04.000,03X,WEBSTER ST & 10TH ST,Wandsworth,London,Furzedown,SW16 6AB
477429,2013-08-26T13:57:18.000,Phone,EBMUD issue,OTHER,Referred to External Agency,Thames Water,,05Y,WOOD ST & 18TH ST,Wandsworth,London,Southfields,SW18 5AC
325968,2010-01-18T15:59:30.000,Telephone/Email,Storm Drains - Clogged / Flooding,Blocked Drains,Resolved,,2010-01-19T13:03:46.000,25X,4800 MOUNTAIN BLVD,Wandsworth,London,Graveney,SW17 0AA
854473,2018-11-19T14:06:20.000,Phone,Fly-Tipping,Fly-Tipping,Resolved,,2018-11-30T16:57:57.000,03X,923 ALICE ST,Wandsworth,London,Roehampton and Putney Heath,SW15 4AA
589546,2015-06-30T13:33:33.000,Online Form,Fly-Tipping,Fly-Tipping,Cancelled by Customer,,,,CARSON ST. ONRAMP TO HWY 13 SOUTH,Wandsworth,London,Tooting,SW17 8AA
373829,2011-06-23T11:27:10.000,Telephone/Email,City Bldg - Plumbing,Council Building Maintenance,Resolved,,2011-08-26T13:00:20.000,25X,REDWOOD RECREATION CTR,Wandsworth,London,East Putney,SW15 2AC
913833,2019-06-11T06:42:12.000,Email,City Bldg - Key / Lock Management,Council Building Maintenance,Resolved,,2019-07-30T12:55:06.000,22Y,JOAQUIN MILLER PARK - RANGER STATION,Wandsworth,London,West Putney,SW15 2AE
349673,2010-10-08T07:52:34.000,Online Form,Graffiti,Graffiti Removal,Resolved,,2010-10-08T10:29:29.000,,3910 MLK JR WAY OAKLAND CA,Wandsworth,London,Southfields,SW19 6AB
664892,2016-07-01T10:01:43.000,FixMyStreet,Litter in Parks,Parks Maintenance,Cancelled by Customer,,,13Y,GATEWAY GARDENS PARK - OBSERVATION DECK,Wandsworth,London,East Putney,SW15 2AC
857788,2018-12-05T07:57:47.000,FixMyStreet,Streets - Potholes/Depression,Street and Pavement Maintenance,Cancelled by Customer,,,17X,1398 EAST 19TH STREET,Wandsworth,London,Northcote,SW11 6AB
826402,2018-07-13T10:03:07.000,FixMyStreet,Parking - Enforcement,Parking Enforcement,In Progress,,,33X,1000 89TH AV,Wandsworth,London,East Putney,SW15 2AB
526957,2014-07-02T14:03:24.000,Phone,Fly-Tipping,Fly-Tipping,Resolved,,2014-07-20T12:00:05.000,34X,INTERNATIONAL BLVD & 94TH AV,Wandsworth,London,West Putney,SW15 1AD
846677,2018-10-13T08:17:15.000,FixMyStreet,Parking - Enforcement,Parking Enforcement,In Progress,,,14Y,455 CRESCENT ST,Wandsworth,London,Wandsworth Town,SW18 3AD
623909,2015-12-21T10:54:14.000,Phone,Streets - Potholes/Depression,Street and Pavement Maintenance,In Progress,,,06X,681 APGAR ST,Wandsworth,London,Tooting,SW17 7AB
634559,2016-02-13T16:50:13.000,FixMyStreet,Other (report from SeeClickFix,OTHER,Cancelled by Customer,,,24Y,3442-3498 SUTER ST,Wandsworth,London,Northcote,SW11 6AB
792829,2018-02-08T08:08:23.000,Email,Fly-Tipping,Fly-Tipping,Resolved,,2018-02-13T19:01:36.000,27Y,55TH AV & EDGERLY ST,Wandsworth,London,Southfields,SW18 5AA
705233,2017-01-19T17:27:51.000,Email,Parking - Meter Maintenance,Pay-and-Display Machine Repair,Resolved,,2017-12-18T13:38:57.000,12Y,5720 COLLEGE AV,Wandsworth,London,East Putney,SW15 1AB
895332,2019-04-14T23:22:00.000,FixMyStreet,Fly-Tipping,Fly-Tipping,Resolved,,2019-04-16T20:18:44.000,30X,1468 74TH AVE,Wandsworth,London,Northcote,SW11 5AB
629022,2016-01-19T12:15:05.000,Online Form,"Graffiti on a City Building (Library, Rec Center)",Council Building Maintenance,Resolved,,2016-01-26T14:51:27.000,31Y,BROOKFIELD PARK (AKA IRA JINKINS),Wandsworth,London,Queenstown,SW8 3AA
534401,2014-08-11T15:30:17.000,FixMyStreet,Human Waste in Public-Right-of-Way,OTHER,Referred to External Agency,"CRIME SCENE CLEANERS,",,06X,MARKET ST,Wandsworth,London,Tooting,SW17 8AB
681714,2016-09-13T09:38:51.000,Phone,TE - Parking - Blue Curb (Residential),Traffic Management,Resolved,,2016-09-15T17:08:30.000,16Y,1565 E 38TH ST,Wandsworth,London,East Putney,SW15 1AA
632347,2016-02-02T20:35:37.000,Online Form,Streets - Potholes/Depression,Street and Pavement Maintenance,Resolved,,2016-02-10T15:38:17.000,01X,2ND ST & HARRISON ST,Wandsworth,London,Southfields,SW19 6AA
631399,2016-01-29T08:16:49.000,Online Form,Tree - Pruning,Tree Maintenance,In Progress,,,13Z,PASO ROBLES DR & SHEPHERD CANYON RD,Wandsworth,London,Tooting,SW17 7AB
378431,2011-08-09T13:24:30.000,Telephone/Email,Parks and Street Medians - Irrigation,Parks Maintenance,Cancelled by Customer,,,14Y,SANTA CLARA AV & ELWOOD AV,Wandsworth,London,Tooting,SW17 8AB
937342,2019-08-22T09:24:44.000,FixMyStreet,Parking - Abandoned Vehicle,Community Safety,Cancelled by Customer,,,19X,2100 DENNISON ST,Wandsworth,London,West Putney,SW15 2AF
502746,2014-02-10T10:40:30.000,FixMyStreet,"Graffiti on Street, Street Light, Traffic Signal,",Graffiti Removal,Resolved,,2014-02-14T15:17:29.000,14Y,3363 GRAND AV,Wandsworth,London,East Putney,SW15 2AA
732475,2017-05-17T08:52:51.000,Phone,Tree - Permit - Waiver,Tree Maintenance,Resolved,,2017-05-23T08:56:41.000,31X,6603 SAN LEANDRO ST,Wandsworth,London,Bedford,SW12 9AE
401764,2012-03-22T09:22:01.000,Telephone/Email,Storm Drains - Clogged (Flooding),Blocked Drains,Resolved,,2012-03-26T10:12:07.000,35Y,MACARTHUR BLVD & DOWLING ST,Wandsworth,London,Graveney,SW17 0AC
432029,2012-10-30T13:21:17.000,Telephone/Email,Litter - Green Bag Pickup,Fly-Tipping,Resolved,,2012-11-02T16:28:25.000,32X,1350 104TH AV,Wandsworth,London,West Putney,SW15 1AC
327140,2010-01-27T12:25:55.000,Telephone/Email,Fly-Tipping,Fly-Tipping,Resolved,,2010-01-31T11:07:01.000,27X,1932 51ST AV,Wandsworth,London,Bedford,SW12 8AB
542623,2014-09-25T19:40:21.000,FixMyStreet,Graffiti in a Park,Council Building Maintenance,Resolved,,2014-10-07T12:11:51.000,14X,LAKESIDE PARK,Wandsworth,London,Northcote,SW11 6AA
688769,2016-10-17T11:37:31.000,Phone,Street Cleaning - Complaints,Environmental Services,Resolved,,2016-10-17T12:20:29.000,33X,96TH AV & B ST,Wandsworth,London,Tooting,SW17 8AA
538093,2014-09-01T10:50:16.000,FixMyStreet,Illegal Dumping (report from SeeClickFix),Fly-Tipping,Cancelled by Customer,,,28X,3400-3414 PIERSON STREET,Wandsworth,London,Bedford,SW12 9AD
773000,2017-11-10T13:14:43.000,Online Form,City Bldg - Structural Issue,Council Building Maintenance,Resolved,,2017-11-16T15:40:27.000,04X,250 FRANK H OGAWA PLZ,Wandsworth,London,Nightingale,SW12 9AF
744647,2017-07-11T10:29:38.000,FixMyStreet,Inspections - Utility-Related Infrastructure,Right of Way Inspectors,In Progress,,,14Y,ELWOOD AV & GRAND AV,Wandsworth,London,Nightingale,SW12 8AE
413102,2012-06-14T09:19:53.000,Telephone/Email,City Bldg - Key / Lock Management,Council Building Maintenance,Resolved,,2012-06-15T06:23:58.000,12X,STUDIO I ARTS CENTER,Wandsworth,London,Shaftesbury,SW11 2AD
816229,2018-05-29T08:31:02.000,Email,Fly-Tipping,Fly-Tipping,Resolved,,2018-06-13T16:37:35.000,24Y,35TH AVE & SCHOOL ST,Wandsworth,London,Tooting,SW17 7AA
567880,2015-02-20T09:42:49.000,Online Form,Litter - Street Litter Container,Fly-Tipping,Cancelled by Customer,,,22X,DIMOND PARK,Wandsworth,London,Northcote,SW11 6AA
643412,2016-03-24T15:50:21.000,Phone,Fly-Tipping,Fly-Tipping,Resolved,,2016-03-27T15:16:52.000,33X,1229 87TH AV,Wandsworth,London,Furzedown,SW16 6AB
733954,2017-05-23T08:56:19.000,FixMyStreet,Illegal Dumping (report from SeeClickFix),Fly-Tipping,Cancelled by Customer,,,14X,250-398 MACARTHUR BLVD,Wandsworth,London,Queenstown,SW8 4AB
467580,2013-06-27T20:13:34.000,FixMyStreet,Caltrans issue,OTHER,Referred to External Agency,"CALTRANS TRAFFIC,",,25X,ELINORA AV & CARSON ST,Wandsworth,London,East Putney,SW15 2AC
494288,2013-12-10T15:11:28.000,FixMyStreet,Streets - Potholes/Depression,Street and Pavement Maintenance,Resolved,,2014-04-10T11:56:00.000,12Y,356 ALCATRAZ AV,Wandsworth,London,West Putney,SW15 2AE
407710,2012-05-06T19:00:22.000,FixMyStreet,Streets - Potholes/Depression,Street and Pavement Maintenance,Resolved,,2012-08-30T13:31:05.000,10Y,5519 MARKET ST,Wandsworth,London,Balham,SW12 9AC
868117,2019-01-19T15:36:43.000,FixMyStreet,Parking - Abandoned Vehicle,Community Safety,Cancelled by Customer,,,07X,2400-2598 ADELINE ST,Wandsworth,London,West Hill,SW18 1AE
359947,2011-02-04T13:59:24.000,Telephone/Email,Litter - Litter Enforcement Officer inspection,Fly-Tipping,Resolved,,2011-02-07T09:20:09.000,07X,929 28TH ST,Wandsworth,London,West Putney,SW15 2AF
867867,2019-01-19T11:17:52.000,FixMyStreet,Parking - Abandoned Vehicle,Community Safety,Cancelled by Customer,,,,2800-2898 8TH AVE,Wandsworth,London,Graveney,SW17 0AC
693598,2016-11-12T18:45:02.000,FixMyStreet,Fly-Tipping,Fly-Tipping,Resolved,,2016-11-15T17:13:07.000,20X,3014-3098 CHAPMAN ST,Wandsworth,London,Southfields,SW19 6AA
905055,2019-05-15T16:30:17.000,FixMyStreet,Parking - Abandoned Vehicle,Community Safety,Resolved,,2019-06-13T13:42:38.000,20X,3122 CHAPMAN ST,Wandsworth,London,Northcote,SW11 6AC
534225,2014-08-11T08:45:20.000,Telephone/Email,Recycling Hotline - Miscellaneous,Recycling,Resolved,,2014-08-11T09:04:39.000,,ZZ,Wandsworth,London,Southfields,SW18 5AC
553364,2014-12-02T15:32:19.000,Phone,Tree - Limb Down,Tree Maintenance,Resolved,,2014-12-03T10:50:56.000,23X,1815 34TH AV,Wandsworth,London,Southfields,SW18 5AB
541092,2014-09-17T13:12:29.000,Telephone/Email,Cityworks Config Request - Inbox-Crew Configure,Digital and GIS Issues,Resolved,,2014-09-17T13:12:47.000,,CW UPDATE - INBOX/CREW CONFIGURE - SSW,Wandsworth,London,East Putney,SW15 2AA
351292,2010-10-26T14:06:25.000,Telephone/Email,Fly-Tipping,Fly-Tipping,Resolved,,2010-10-28T16:21:01.000,35X,8755 FONTAINE ST,Wandsworth,London,Northcote,SW11 5AB
697102,2016-12-05T14:29:26.000,Online Form,Fly-Tipping,Fly-Tipping,Resolved,,2016-12-08T16:23:41.000,19X,1433 12TH AVE,Wandsworth,London,Balham,SW12 9AC
880551,2019-02-22T10:05:56.000,Telephone/Email,Parking - Abandoned Vehicle,Community Safety,Cancelled by Customer,,,20X,2334 E 15TH ST,Wandsworth,London,Tooting,SW17 7AB
492323,2013-11-26T09:41:36.000,Email,Tree - Down,Tree Maintenance,Resolved,,2014-01-21T07:56:59.000,24X,3900 NEVIL ST,Wandsworth,London,Tooting,SW17 8AB
575149,2015-04-05T13:00:16.000,FixMyStreet,Park - Landscape Maintenance,Parks Maintenance,Resolved,,2015-04-07T13:55:42.000,11X,TELEGRAPH AV & RACINE ST,Wandsworth,London,Southfields,SW19 6AB
754784,2017-08-23T06:17:09.000,Online Form,Streets - Potholes/Depression,Street and Pavement Maintenance,Resolved,,2017-12-14T06:38:16.000,29X,GARDENIA PL & HILLMONT DR,Wandsworth,London,Bedford,SW12 8AB
882147,2019-02-28T13:34:13.000,Phone,Fly-Tipping,Fly-Tipping,Resolved,,2019-03-02T16:29:45.000,06X,657 W MACARTHUR BLVD,Wandsworth,London,West Putney,SW15 1AC
791381,2018-02-01T12:39:29.000,FixMyStreet,Council Enforcement,OTHER,Referred to External Agency,Council Enforcement,,08X,3109 TELEGRAPH AV,Wandsworth,London,Northcote,SW11 5AA
895902,2019-04-16T12:47:23.000,Telephone Voicemail,Recycling Hotline - Miscellaneous,Recycling,Resolved,,2019-04-16T12:47:34.000,,zz,Wandsworth,London,East Putney,SW15 2AA
880829,2019-02-23T13:26:33.000,FixMyStreet,Council Enforcement,OTHER,Referred to External Agency,Council Enforcement,,25X,3711 MACARTHUR BLVD,Wandsworth,London,Southfields,SW18 5AB
881636,2019-02-27T07:31:20.000,FixMyStreet,Parking - Enforcement,Parking Enforcement,GONE ON ARRIVAL,,,18Y,2223 E 23RD ST,Wandsworth,London,West Putney,SW15 2AF
747076,2017-07-20T11:31:28.000,FixMyStreet,Fly-Tipping,Fly-Tipping,Resolved,,2017-07-22T10:42:34.000,10Y,960 45TH ST,Wandsworth,London,Furzedown,SW16 5AB
646884,2016-04-11T12:04:18.000,Phone,Rough Sleeping Report,Fly-Tipping,Cancelled by Customer,,,19X,290 5TH AVE,Wandsworth,London,Tooting,SW17 8AB
871810,2019-01-27T07:19:34.000,FixMyStreet,Parking - Enforcement,Parking Enforcement,Cancelled by Customer,,,20X,450 DERBY AVE,Wandsworth,London,Southfields,SW19 6AB
840052,2018-09-13T09:21:54.000,Phone,Fly-Tipping,Fly-Tipping,Resolved,,2018-09-14T19:33:42.000,31Y,611 85TH AVE,Wandsworth,London,Bedford,SW12 9AD
937738,2019-08-23T10:44:09.000,Telephone/Email,City Bldg - Electrical Inside/Outside,Council Building Maintenance,Resolved,,2019-09-26T14:43:40.000,13Z,5921 SHEPHERD CANYON RD,Wandsworth,London,West Putney,SW15 2AF
625347,2015-12-31T10:54:57.000,Phone,Sewers - Blockage,Drainage,Resolved,,2016-01-05T01:10:40.000,27X,4525 CONGRESS AV,Wandsworth,London,West Putney,SW15 2AE
927424,2019-07-23T11:01:46.000,FixMyStreet,Miscellaneous,OTHER,In Progress,,,12X,530 41ST ST,Wandsworth,London,East Putney,SW15 1AA
721459,2017-03-28T10:56:00.000,FixMyStreet,Illegal Dumping (Enforcement Potential),Fly-Tipping,Resolved,,2017-03-29T16:37:16.000,03Y,598 5TH ST,Wandsworth,London,East Putney,SW15 2AA
931594,2019-08-05T13:02:23.000,FixMyStreet,Parking - Abandoned Vehicle,Community Safety,In Progress,,,34X,2035 92ND AVE,Wandsworth,London,West Hill,SW15 3AB
824100,2018-07-03T11:52:27.000,Phone,City Bldg - Plumbing,Council Building Maintenance,Resolved,,2018-07-06T13:54:42.000,05X,DEFREMERY POOL,Wandsworth,London,Northcote,SW11 6AC
605009,2015-09-15T16:40:13.000,FixMyStreet,Fly-Tipping,Fly-Tipping,Resolved,,2015-09-17T16:25:07.000,03X,315 11TH ST,Wandsworth,London,Northcote,SW11 6AB
480727,2013-09-15T08:31:28.000,FixMyStreet,Fly-Tipping,Fly-Tipping,Resolved,,2013-10-08T19:12:08.000,25Y,KELLER AV & SKYLINE BLVD,Wandsworth,London,Southfields,SW18 5AB
570517,2015-03-09T11:55:35.000,Phone,Council Enforcement,OTHER,Referred to External Agency,Council Enforcement,,13Z,34 HOLYROOD MANOR,Wandsworth,London,East Putney,SW15 2AA
859936,2018-12-15T09:23:00.000,FixMyStreet,Oakland Police - Abandoned Auto,OTHER,Referred to External Agency,"OPD ABANDONED AUTOS, PUBLIC",,35Y,10700 STELLA ST,Wandsworth,London,Shaftesbury,SW11 1AB
642707,2016-03-21T18:40:33.000,FixMyStreet,Other (report from SeeClickFix,OTHER,Cancelled by Customer,,,06X,801-899 39TH ST,Wandsworth,London,Queenstown,SW8 4AB
602055,2015-09-01T07:20:19.000,FixMyStreet,Traffic - Sign Down,Traffic Signage Issues,Resolved,,2015-09-04T08:04:35.000,23X,3700 E 12TH ST,Wandsworth,London,Balham,SW12 9AC
544758,2014-10-07T23:20:22.000,FixMyStreet,"Graffiti on Street, Street Light, Traffic Signal,",Graffiti Removal,Resolved,,2014-10-09T16:51:45.000,03X,8TH ST & ALICE ST,Wandsworth,London,Tooting,SW17 8AB
668538,2016-07-16T12:41:50.000,FixMyStreet,Fly-Tipping,Fly-Tipping,Resolved,,2016-07-19T17:02:16.000,25X,CALAVERAS AV & DAVENPORT AV,Wandsworth,London,Earlsfield,SW18 3AA
756427,2017-08-30T09:00:21.000,FixMyStreet,Animal and Insect Control,OTHER,Referred to External Agency,RSPCA,,10Y,876 40TH ST,Wandsworth,London,Furzedown,SW16 6AB
383526,2011-09-28T08:44:15.000,Online Form,City Bldg - Electrical Inside/Outside,Council Building Maintenance,Resolved,,2012-03-20T14:59:21.000,30Y,EASTMONT LIBRARY,Wandsworth,London,Tooting,SW17 7AB
412238,2012-06-08T11:02:08.000,Telephone/Email,Litter - In Public Right of Way,Fly-Tipping,Resolved,,2012-06-11T16:37:22.000,21Y,COOLIDGE AV & SCHOOL ST,Wandsworth,London,West Putney,SW15 1AD
873315,2019-01-31T15:30:22.000,FixMyStreet,Fly-Tipping,Fly-Tipping,Resolved,,2019-02-03T14:42:51.000,18X,1423 E 20TH ST,Wandsworth,London,Graveney,SW17 9AA
714379,2017-02-28T10:55:08.000,FixMyStreet,Fly-Tipping,Fly-Tipping,Resolved,,2017-04-08T10:20:45.000,08X,560 29TH ST,Wandsworth,London,Wandsworth Town,SW18 4AA
409308,2012-05-17T13:48:18.000,Telephone/Email,PG&E,OTHER,Resolved,,2012-08-07T10:23:00.000,05X,1015 W GRAND AV,Wandsworth,London,Bedford,SW12 8AB
390157,2011-12-01T15:43:25.000,Telephone/Email,Human Waste in Public-Right-of-Way,Drainage,Referred to External Agency,"CRIME SCENE CLEANERS,",,04X,1733 JEFFERSON ST,Wandsworth,London,Bedford,SW12 8AC
574181,2015-03-30T14:31:26.000,FixMyStreet,Council Enforcement,OTHER,Referred to External Agency,Council Enforcement,,23X,3340 INTERNATIONAL BLVD,Wandsworth,London,Balham,SW12 0AB
836907,2018-08-29T07:35:40.000,FixMyStreet,Fly-Tipping,Fly-Tipping,Resolved,,2018-08-30T20:36:28.000,21X,2025 25TH AVE,Wandsworth,London,Wandsworth Common,SW17 7AD
942707,2019-09-09T16:21:19.000,FixMyStreet,Parking - Abandoned Vehicle,Community Safety,Resolved,,2019-11-15T11:34:48.000,21Y,3148 CHAMPION ST,Wandsworth,London,Bedford,SW12 9AE
623038,2015-12-16T00:06:42.000,Online Form,Graffiti in a Park,Council Building Maintenance,Resolved,,2016-01-29T15:12:39.000,08X,OAK PARK,Wandsworth,London,Southfields,SW18 5AA
380817,2011-08-31T10:39:16.000,Online Form,City Bldg - Electrical Inside/Outside,Council Building Maintenance,Resolved,,2011-11-03T21:53:17.000,04X,DALZIEL BUILDING,Wandsworth,London,Wandsworth Town,SW18 3AD
534389,2014-08-11T14:56:56.000,Telephone/Email,Illegal Dumping � mattress/boxspring,Fly-Tipping,Resolved,,2014-08-12T17:12:58.000,22Y,35TH AV & MACARTHUR BLVD,Wandsworth,London,Tooting,SW17 7AB
325199,2010-01-07T13:31:00.000,Telephone/Email,Irrigation - In Parks and Street Medians,Parks Maintenance,Resolved,,2010-01-11T12:44:13.000,15X,2200 LAKESHORE AV,Wandsworth,London,East Putney,SW15 2AA
493227,2013-12-03T14:04:35.000,Phone,Traffic - Sign Damage,Traffic Signage Issues,Resolved,,2013-12-10T07:50:21.000,23X,34TH AV & E 16TH ST,Wandsworth,London,Tooting,SW17 7AB
870957,2019-01-23T11:47:20.000,FixMyStreet,Parking - Enforcement,Parking Enforcement,In Progress,,,06X,602-620 29TH ST,Wandsworth,London,Wandsworth Town,SW18 4AB
653226,2016-05-10T16:00:24.000,FixMyStreet,Illegal Dumping (report from SeeClickFix),Fly-Tipping,Cancelled by Customer,,,03X,600 ALICE ST,Wandsworth,London,West Putney,SW15 2AE
554446,2014-12-08T11:19:20.000,Online Form,Illegal Dumping � mattress/boxspring,Fly-Tipping,Cancelled by Customer,,,21Y,3128 NICOL AV,Wandsworth,London,Northcote,SW11 6AA
582219,2015-05-17T15:14:55.000,Local Council Office,City Bldg - Plumbing,Council Building Maintenance,Resolved,,2015-06-04T13:13:30.000,03X,LINCOLN SQUARE RECREATION CTR,Wandsworth,London,Tooting,SW17 8AB
807084,2018-04-13T09:23:36.000,Phone,"Tree - Diseased, Dead, Dying, Leaning, or Split",Tree Maintenance,Work Order Created,,,04X,FRANK H OGAWA PLAZA,Wandsworth,London,Bedford,SW12 9AE
611681,2015-10-19T10:54:19.000,Phone,Sidewalk - Damage,Public Right of Way,Resolved,,2015-10-19T11:43:43.000,30X,2656 68TH AV,Wandsworth,London,East Putney,SW15 2AC
406673,2012-04-27T18:20:16.000,FixMyStreet,Litter in Parks,Parks Maintenance,Resolved,,2012-06-21T16:49:03.000,05X,DEFREMERY PARK,Wandsworth,London,Queenstown,SW8 4AC
664165,2016-06-28T14:00:22.000,Telephone/Email,Traffic - Sign Down,Traffic Signage Issues,Resolved,,2016-06-29T14:51:50.000,31Y,S ELMHURST AV & RAILROAD AV,Wandsworth,London,East Putney,SW15 1AA
551617,2014-11-19T21:40:22.000,FixMyStreet,"Graffiti on Street, Street Light, Traffic Signal,",Traffic Signage Issues,Resolved,,2015-01-28T16:04:23.000,14X,362 EUCLID AV,Wandsworth,London,Tooting,SW17 7AA
383436,2011-09-27T13:18:44.000,Online Form,Streets - Potholes/Depression,Street and Pavement Maintenance,Resolved,,2011-11-16T11:37:53.000,12Y,CLAREMONT AV & HUDSON ST,Wandsworth,London,Tooting,SW17 7AA
759865,2017-09-14T17:09:01.000,FixMyStreet,Illegal Dumping (report from SeeClickFix),Fly-Tipping,Cancelled by Customer,,,35X,MACARTHUR FWY,Wandsworth,London,Southfields,SW18 5AC
660608,2016-06-14T09:14:00.000,FixMyStreet,Fly-Tipping,Fly-Tipping,Resolved,,2016-06-15T17:11:39.000,24X,2038 34TH AV,Wandsworth,London,Bedford,SW12 8AA
821982,2018-06-24T14:11:19.000,Email,"Graffiti on Street, Street Light, Traffic Signal,",Graffiti Removal,Resolved,,2018-06-25T14:57:21.000,03X,ALICE ST & 13TH ST,Wandsworth,London,Tooting,SW17 8AA
431351,2012-10-24T15:04:10.000,Telephone/Email,Storm Drains - General,Blocked Drains,Resolved,,2012-11-13T11:11:57.000,27X,4423 SAN CARLOS AV,Wandsworth,London,Northcote,SW11 6AB
854187,2018-11-18T12:53:30.000,FixMyStreet,Fly-Tipping,Fly-Tipping,Resolved,,2018-11-20T16:02:51.000,19X,1421 17TH AVE,Wandsworth,London,Roehampton and Putney Heath,SW15 5AB
705979,2017-01-23T17:33:03.000,Online Form,Streets - Potholes/Depression,Street and Pavement Maintenance,In Progress,,,01X,4TH ST & JEFFERSON ST,Wandsworth,London,Graveney,SW17 0AC
687961,2016-10-12T11:15:51.000,FixMyStreet,Fly-Tipping,Fly-Tipping,Resolved,,2016-10-15T17:51:12.000,24Y,2909 HIGH ST,Wandsworth,London,West Putney,SW15 2AE
403665,2012-04-06T06:40:05.000,Online Form,Litter - Street Litter Container,Fly-Tipping,Resolved,,2012-04-09T09:19:00.000,22X,BIENATI WY & DIMOND AV,Wandsworth,London,West Putney,SW15 2AE
916484,2019-06-18T14:22:16.000,FixMyStreet,Rough Sleeping Report,Environmental Hygiene,Cancelled by Customer,,,19X,E 7TH ST & EMBARCADERO,Wandsworth,London,East Putney,SW15 2AB
900920,2019-05-02T07:44:28.000,FixMyStreet,Parking - Abandoned Vehicle,Community Safety,Resolved,,2019-10-04T09:10:08.000,26X,832 52ND AVE,Wandsworth,London,Bedford,SW12 8AB
712585,2017-02-21T12:44:32.000,Online Form,Streets - Potholes/Depression,Street and Pavement Maintenance,Resolved,,2017-06-13T13:52:53.000,31X,HEGENBERGER RD & EDES AV,Wandsworth,London,Southfields,SW18 5AA
876080,2019-02-11T14:42:17.000,FixMyStreet,Parking - Enforcement,Parking Enforcement,In Progress,,,02Y,817 HENRY ST,Wandsworth,London,Nightingale,SW12 8AD
449673,2013-03-06T11:20:15.000,Online Form,Blocked Drains,Blocked Drains,Resolved,,2013-03-12T10:22:27.000,08X,WAVERLY ST & 24TH ST,Wandsworth,London,West Putney,SW15 1AD
853274,2018-11-13T15:06:21.000,Email,Recycling Hotline - Miscellaneous,Recycling,Resolved,,2018-11-13T15:06:33.000,09X,3923 CERRITO AVE,Wandsworth,London,Bedford,SW12 8AB
414555,2012-06-25T14:02:36.000,Telephone/Email,TE - Parking (On Street),Traffic Management,Resolved,,2012-07-24T10:57:13.000,21Y,3058 BERLIN WY,Wandsworth,London,West Hill,SW18 1AD
836495,2018-08-27T13:44:22.000,FixMyStreet,"Graffiti on Street, Street Light, Traffic Signal,",Graffiti Removal,Resolved,,2018-09-05T19:04:08.000,12X,4225 BROADWAY,Wandsworth,London,Roehampton and Putney Heath,SW15 5AB
561694,2015-01-16T17:00:40.000,FixMyStreet,Fly-Tipping,Fly-Tipping,Resolved,,2015-01-22T12:17:44.000,28X,4352 FLEMING AV,Wandsworth,London,Northcote,SW11 6AC
460861,2013-05-15T16:18:03.000,Telephone/Email,"Tree - Diseased, Dead, Dying, Leaning, or Split",Tree Maintenance,Resolved,,2015-10-29T08:35:17.000,24Y,4268 SUTER ST,Wandsworth,London,Furzedown,SW16 6AC
347091,2010-09-13T13:47:24.000,Telephone/Email,Fly-Tipping,Fly-Tipping,Resolved,,2010-09-14T16:31:51.000,07X,3264 ETTIE ST,Wandsworth,London,Bedford,SW12 8AB
315516,2009-09-15T09:44:27.000,Telephone/Email,Litter - Litter Enforcement Officer inspection,Fly-Tipping,Resolved,,2009-09-19T09:57:33.000,21Y,3004 BROOKDALE AV,Wandsworth,London,West Hill,SW15 3AA
852766,2018-11-10T09:29:09.000,FixMyStreet,Streets - Potholes/Depression,Street and Pavement Maintenance,Cancelled by Customer,,,16X,931 HILLCROFT,Wandsworth,London,East Putney,SW15 1AB
555682,2014-12-14T10:03:19.000,Email,Illegal Dumping � mattress/boxspring,Fly-Tipping,Resolved,,2014-12-16T17:11:27.000,07X,HELEN ST & 32ND ST,Wandsworth,London,Southfields,SW18 5AB
528366,2014-07-10T16:59:46.000,Telephone/Email,Recycling - Events,Recycling,Resolved,,2014-07-10T17:00:03.000,,ZZ,Wandsworth,London,Queenstown,SW8 4AC
744924,2017-07-12T08:21:03.000,Phone,Fly-Tipping,Fly-Tipping,Resolved,,2017-07-15T06:30:24.000,30X,ARTHUR ST & 78TH AV,Wandsworth,London,Bedford,SW12 9AD
823949,2018-07-02T20:25:28.000,FixMyStreet,Council Enforcement,OTHER,Referred to External Agency,Council Enforcement,,24X,2501 HIGH ST,Wandsworth,London,Roehampton and Putney Heath,SW15 4AA
669563,2016-07-20T12:14:23.000,FixMyStreet,Fly-Tipping,Fly-Tipping,Cancelled by Customer,,,27Y,5525 BANCROFT AV,Wandsworth,London,Tooting,SW17 7AB
661842,2016-06-18T10:51:55.000,FixMyStreet,"Graffiti on Street, Street Light, Traffic Signal,",Graffiti Removal,Resolved,,2016-07-19T05:36:03.000,17Y,1415 MACARTHUR BLVD,Wandsworth,London,West Putney,SW15 2AF
467026,2013-06-25T08:37:23.000,Online Form,Fly-Tipping,Fly-Tipping,Cancelled by Customer,,,,NORTH-WEST AND SOUTH-WEST CORNERS OF SAN LEANDRO ST AND 47TH AVENUE,Wandsworth,London,West Putney,SW15 1AC
762660,2017-09-27T17:48:30.000,FixMyStreet,Illegal Dumping (report from SeeClickFix),Fly-Tipping,Cancelled by Customer,,,13Y,CALDECOTT LANE,Wandsworth,London,Furzedown,SW16 6AA
487219,2013-10-23T11:37:59.000,Online Form,Fly-Tipping,Fly-Tipping,Resolved,,2013-10-24T18:20:34.000,01X,409 4TH ST,Wandsworth,London,Earlsfield,SW18 4AA
587860,2015-06-20T15:20:52.000,FixMyStreet,Engineering - Other/Complex,OTHER,In Progress,,,01X,115 EMBARCADERO,Wandsworth,London,Nightingale,SW12 9AF
730386,2017-05-08T10:38:33.000,FixMyStreet,Fly-Tipping,Fly-Tipping,Resolved,,2017-05-10T16:02:46.000,07X,2857 HANNAH ST,Wandsworth,London,Southfields,SW18 5AA
583881,2015-05-27T14:50:49.000,FixMyStreet,Illegal Dumping (report from SeeClickFix),Fly-Tipping,Cancelled by Customer,,,35X,2225 94TH AVENUE,Wandsworth,London,St Mary's Park,SW11 3AC
575837,2015-04-09T08:58:03.000,Email,Oakland Police - Abandoned Auto,OTHER,Referred to External Agency,"OPD ABANDONED AUTOS, PUBLIC",,13Y,272 BEAUFOREST DR,Wandsworth,London,West Putney,SW15 2AF
907489,2019-05-23T16:08:52.000,FixMyStreet,Litter in Parks,Parks Maintenance,Resolved,,2019-06-03T11:30:08.000,03X,PERALTA PARK,Wandsworth,London,East Putney,SW15 1AA
828913,2018-07-24T14:41:56.000,Phone,Oakland Police - Abandoned Auto,OTHER,Referred to External Agency,"OPD ABANDONED AUTOS, PUBLIC",,31Z,EDES AV & 105TH AV,Wandsworth,London,Graveney,SW17 0AB
740233,2017-06-21T09:38:12.000,Phone,Tree - Broken/Hanging Limb,Tree Maintenance,Resolved,,2017-06-22T10:02:07.000,35X,9508 MACARTHUR BLVD,Wandsworth,London,Balham,SW12 0AB
346857,2010-09-08T12:12:46.000,Telephone/Email,Sewers - Blockage,Drainage,Resolved,,2011-05-24T11:05:13.000,19X,745 5TH AV,Wandsworth,London,Bedford,SW12 9AD
629966,2016-01-22T15:49:49.000,Phone,Fly-Tipping,Fly-Tipping,Resolved,,2016-02-02T16:52:04.000,30Y,2518 CHURCH ST,Wandsworth,London,Nightingale,SW12 8AE
424654,2012-09-06T12:39:52.000,Online Form,Litter - In Public Right of Way,Fly-Tipping,Resolved,,2012-09-12T16:31:42.000,24X,3625 LYON AV,Wandsworth,London,Northcote,SW11 6AB
817070,2018-06-01T09:56:48.000,Phone,Fly-Tipping,Fly-Tipping,Resolved,,2018-06-02T05:57:46.000,29X,65TH AVE & OUTLOOK AVE,Wandsworth,London,East Putney,SW15 2AC
818893,2018-06-10T08:28:37.000,FixMyStreet,Fly-Tipping,Fly-Tipping,Resolved,,2018-06-14T10:27:05.000,17Y,2201 7TH AV,Wandsworth,London,Graveney,SW17 0AC
742234,2017-06-29T14:16:55.000,Email,Fly-Tipping,Fly-Tipping,Resolved,,2017-07-01T15:29:05.000,10X,65TH ST & SAN PABLO AV,Wandsworth,London,Bedford,SW12 9AE
438806,2012-12-18T15:03:40.000,Telephone/Email,Street Lighting Fault,Street Lighting,Cancelled by Customer,,,,674 56TH ST,Wandsworth,London,Tooting,SW17 8AC
439011,2012-12-20T08:12:35.000,Telephone/Email,Traffic Signal - Outage/Damaged,Street Lighting,Resolved,,2013-01-02T08:00:50.000,29X,HAVENSCOURT BLVD & FOOTHILL BLVD,Wandsworth,London,Tooting,SW17 8AB
523941,2014-06-16T23:40:29.000,Online Form,Illegal Dumping � mattress/boxspring,Fly-Tipping,Resolved,,2014-06-20T17:46:24.000,19X,E 15TH ST & 9TH AV,Wandsworth,London,Roehampton and Putney Heath,SW15 4AA
787712,2018-01-17T23:55:38.000,Online Form,Street Lighting Fault,Street Lighting,Resolved,,2018-01-23T07:31:07.000,09X,4082 PIEDMONT AV (PIEDMONT AVE @ 41ST ST) LAUNDROMAT,Wandsworth,London,West Putney,SW15 2AD
588742,2015-06-25T11:06:10.000,Phone,"Graffiti on Street, Street Light, Traffic Signal,",Graffiti Removal,Resolved,,2015-06-29T15:57:20.000,25Y,6293 ROCKY POINT CT,Wandsworth,London,Nightingale,SW12 8AF
494918,2013-12-16T08:45:22.000,Phone,Storm Drains - Illicit Discharge,Flood Prevention and Drainage,Resolved,,2014-01-09T16:26:59.000,24Y,2615 HUMBOLDT AV,Wandsworth,London,Tooting,SW17 8AA
741054,2017-06-25T14:04:47.000,FixMyStreet,Trash Service Issue,Recycling,Resolved,,2017-06-29T11:44:58.000,29X,7200 MACARTHUR BLVD,Wandsworth,London,East Putney,SW15 1AB
741811,2017-06-28T10:17:31.000,Phone,Traffic - Sign Damage,Traffic Signage Issues,Resolved,,2017-06-28T15:04:49.000,22X,2039 MACARTHUR BLVD,Wandsworth,London,Queenstown,SW8 4AA
828271,2018-07-21T19:33:46.000,FixMyStreet,Fly-Tipping,Fly-Tipping,Resolved,,2018-07-23T15:53:32.000,07X,2790 CAMPBELL ST,Wandsworth,London,Tooting,SW17 8AA
893839,2019-04-09T11:13:02.000,Phone,Graffiti on Private Property,Graffiti Removal,Resolved,,2019-04-10T15:29:56.000,09X,3900 ROBLEY TER,Wandsworth,London,Northcote,SW11 6AB
773312,2017-11-13T07:08:24.000,FixMyStreet,Parking - Enforcement,Traffic Management,Cancelled by Customer,,,33X,915 87TH AVE,Wandsworth,London,Tooting,SW17 8AB
400451,2012-03-12T17:07:53.000,Telephone/Email,TE - Traffic Control Plan Review,Traffic Management,Resolved,,2012-03-27T16:13:10.000,,MASONIC AV AND HERON DR,Wandsworth,London,Roehampton and Putney Heath,SW15 4AB
371141,2011-05-25T08:28:03.000,Telephone/Email,City Bldg - Plumbing,Council Building Maintenance,Resolved,,2011-08-26T10:48:30.000,27X,FREMONT POOL,Wandsworth,London,Bedford,SW12 8AC
490136,2013-11-13T10:52:28.000,Phone,Fly-Tipping,Fly-Tipping,Resolved,,2013-11-15T08:53:29.000,27Y,2576 64TH AV,Wandsworth,London,East Putney,SW15 2AA
628202,2016-01-15T09:00:23.000,FixMyStreet,Fly-Tipping,Fly-Tipping,Resolved,,2016-01-21T17:10:43.000,21Y,ACCESS & 34TH AV,Wandsworth,London,Queenstown,SW8 3AB
438522,2012-12-17T10:57:28.000,Telephone/Email,City Bldg - Electrical Inside/Outside,Council Building Maintenance,Resolved,,2012-12-17T15:46:30.000,04X,LIONEL J WILSON BUILDING,Wandsworth,London,Balham,SW12 9AB
688495,2016-10-14T14:51:00.000,Phone,Board Up,Blocked Drains,Resolved,,2016-10-17T09:09:04.000,13Y,2355 TUNNEL RD,Wandsworth,London,West Hill,SW15 3AC
672630,2016-08-02T18:45:08.000,FixMyStreet,Illegal Dumping (report from SeeClickFix),Fly-Tipping,Cancelled by Customer,,,16Y,3450-3498 ARDLEY AVENUE,Wandsworth,London,Nightingale,SW12 8AD
801054,2018-03-14T09:19:35.000,Phone,Graffiti in a Park,Council Building Maintenance,Resolved,,2018-05-11T06:07:34.000,15X,ATHOL PLAZA,Wandsworth,London,Queenstown,SW8 4AA
523937,2014-06-16T22:10:18.000,FixMyStreet,Council Enforcement,OTHER,Referred to External Agency,Council Enforcement,,09X,4100 BROADWAY,Wandsworth,London,Wandsworth Common,SW17 7AD
651218,2016-04-29T19:40:15.000,FixMyStreet,Graffiti on Street Litter Container,Graffiti Removal,Resolved,,2016-05-10T10:59:55.000,24Y,3039 35TH AV,Wandsworth,London,East Putney,SW15 1AB
411872,2012-06-06T15:08:08.000,Online Form,City Bldg - Key / Lock Management,Council Building Maintenance,Resolved,,2012-06-26T11:48:41.000,03X,OAKLAND MUSEUM,Wandsworth,London,Southfields,SW18 5AC
555783,2014-12-15T11:54:22.000,Phone,Sewers - Bad Odor,Drainage,Resolved,,2015-01-05T09:45:51.000,06X,687 28TH ST,Wandsworth,London,West Putney,SW15 2AD
618044,2015-11-18T16:23:34.000,Phone,Hazardous Materials,Fire Safety Reports,Resolved,,2015-12-10T15:58:29.000,31Z,EDES AV & 105TH AV,Wandsworth,London,Tooting,SW17 7AB
372740,2011-06-13T09:10:08.000,Telephone/Email,Litter - In Public Right of Way,Fly-Tipping,Resolved,,2011-06-13T16:26:11.000,11X,765 65TH ST,Wandsworth,London,Queenstown,SW8 4AC
832244,2018-08-07T14:39:29.000,Phone,Rough Sleeping Report,Environmental Hygiene,Referred to External Agency,"OPD ABANDONED AUTOS, PUBLIC",,,2031 CHESTNUT ST,Wandsworth,London,East Putney,SW15 2AB
380782,2011-08-31T08:59:30.000,Telephone/Email,Street Lighting Fault,Street Lighting,Resolved,,2011-09-13T14:56:04.000,17X,1902 8TH AV,Wandsworth,London,Southfields,SW18 5AC
548908,2014-11-03T15:46:11.000,Telephone Voicemail,Illegal Dumping � mattress/boxspring,Fly-Tipping,Resolved,,2014-11-05T16:49:19.000,30X,70TH AV & WELD ST,Wandsworth,London,West Putney,SW15 2AF
790173,2018-01-29T05:48:51.000,FixMyStreet,"Graffiti on Street, Street Light, Traffic Signal,",Graffiti Removal,Resolved,,2018-01-31T15:21:56.000,03X,390 8TH ST,Wandsworth,London,Balham,SW12 9AA
894267,2019-04-10T13:57:49.000,Phone,Street Cleaning - Schedule,Environmental Services,Resolved,,2019-10-31T14:24:41.000,26X,6013 LAWTON AV,Wandsworth,London,West Hill,SW15 3AB
464909,2013-06-11T11:07:15.000,Telephone/Email,TE - Traffic Control Plan Review,Traffic Management,Resolved,,2013-06-11T15:56:37.000,08X,2923 WEBSTER ST,Wandsworth,London,West Putney,SW15 2AF
582648,2015-05-19T17:00:17.000,FixMyStreet,Illegal Dumping (report from SeeClickFix),Fly-Tipping,Resolved,,2015-05-22T16:23:15.000,18X,1722 22ND AV,Wandsworth,London,Tooting,SW17 8AC
509977,2014-03-27T14:22:32.000,Email,Street Light - LED Installation Issue,Street Lighting,Resolved,,2014-04-04T10:14:52.000,13Z,3115 HOLYROOD DR,Wandsworth,London,St Mary's Park,SW11 4AA
379923,2011-08-23T16:03:20.000,Telephone/Email,Tree - Pruning,Tree Maintenance,Resolved,,2015-07-24T10:53:31.000,04X,FIRE STATION 1,Wandsworth,London,Roehampton and Putney Heath,SW15 4AC
573790,2015-03-27T16:50:17.000,FixMyStreet,Street Issue (report from SeeClickFix),Street and Pavement Maintenance,Cancelled by Customer,,,13Y,6701-6849 CHARING CROSS ROAD,Wandsworth,London,Roehampton and Putney Heath,SW15 4AA
721095,2017-03-27T09:30:31.000,FixMyStreet,Illegal Dumping � mattress/boxspring,Fly-Tipping,Resolved,,2017-03-29T16:38:53.000,06X,26TH ST & SAN PABLO AV,Wandsworth,London,East Putney,SW15 1AA
672571,2016-08-02T14:36:01.000,Phone,Recycling Hotline - Miscellaneous,Recycling,Resolved,,2016-08-02T14:36:05.000,,ZZ,Wandsworth,London,Bedford,SW12 8AC
21244,2009-07-31T09:27:35.000,Telephone/Email,Residential Recycling - Missed Pickup,Recycling,Resolved,,2009-08-24T11:35:49.000,13X,5844 BROADWAY,Wandsworth,London,Fairfield,SW18 2AB
828932,2018-07-24T15:12:38.000,FixMyStreet,City Bldg - Electrical Inside/Outside,Council Building Maintenance,Resolved,,2019-05-29T06:04:20.000,30Y,EASTMONT POLICE SUBSTATION,Wandsworth,London,Northcote,SW11 5AB
543965,2014-10-02T18:33:24.000,Online Form,Park - Landscape Maintenance,Parks Maintenance,Cancelled by Customer,,,,BROOKFIELD PARK (AKA IRA JINKINS),Wandsworth,London,Bedford,SW12 9AD
